Company Name,Street Address,City,Province,Postal Code,Phone Numbers
"

Clarkes Health & Variety


",481 Halstead Ave,Lynn Lake,MB,R0B 0W0,['204-356-2572']
"

Safeway Pharmacy


",300 Mystery Lake Rd,Thompson,MB,R8N 0M2,['204-677-3064']
"

Safeway


",300 Mystery Lake Rd,Thompson,MB,R8N 0M2,"['204-677-2600', '1-800-723-3929']"
"

Clarke's Pharmacy


",50 Selkirk Ave,Thompson,MB,R8N 0M7,['204-778-7008']
"

Shoppers Drug Mart


",17 Selkirk Ave,Thompson,MB,R8N 0M5,['204-778-8391']
"

Walmart


",300 Mystery Lake Rd,Thompson,MB,R8N 0M2,['204-778-4675']
"

Safeway


",300 Mystery Lake,Thompson,MB,R8N 0M2,['1-888-391-9759']
"

Davis Rexall Drugs


",2nd Ave N,Smeaton,SK,S0J 2J0,['306-426-2338']
"

Guardian - NWC - Wally's Drug


",68 Breynat St,Fort Smith,NT,X0E 0P0,['1-844-821-7438']
"

Snow Lake Pharmacy


",79 Balsam St,Snow Lake,MB,Unavailable,['204-358-2233']
"

Glen's Your Independent Grocer


",14-4802 50 Ave,Yellowknife,NT,X1A 1C4,['867-766-3196']
"

Shoppers Drug Mart


",4911 49 Street,Yellowknife,NT,X1A 0A2,"['867-873-4055', '1-800-746-7737']"
"

Sutherland's Drugs Ltd


",50th St & 50th Ave,Yellowknife,NT,X1A 2N5,['1-855-873-3004']
"

The Medicine Shoppe Pharmacy


",314 Old Airport Rd,Yellowknife,NT,X1A 3T3,['867-920-7775']
"

Yellowknife Direct Charge Co-op Pharmacy


",321 Old Airport Rd,Yellowknife,NT,X1A 3T3,['867-873-5771']
"

Walmart


",313 Old Airport Rd,Yellowknife,NT,X1A 3T3,['867-873-8520']
"

Post Office


",53 Main St,Marchand,MB,R0A 0Z0,['204-424-9218']
"

Six Six Zero


",49 Main St,Flin Flon,MB,R8A 1J7,['204-687-3479']
"

Pharmasave


",37 Main St,Flin Flon,MB,R8A 1J7,"['204-687-4429', '1-800-661-6106']"
"

Pharmasave Health Centre


",31 Church St,Flin Flon,MB,R8A 1K6,['204-687-7677']
"

St. Mary's Pharmacy - Gimli


",129 - 7th Ave,Gimli,MB,R0B 1B0,['204-651-1567']
"

Norway House Pharmacy Ltd


",Unavailable,Norway House,MB,R0B 1B0,['204-359-6363']
"

Harbour Pharmacy


",809 La Ronge Ave,La Ronge,SK,S0J 1L0,['306-425-5566']
"

Harbour Pharmacy


",809 La Ronge Ave,La Ronge,SK,S0J 1L0,['306-425-5555']
"

GT Pharmacy


",612 La Ronge Ave,La Ronge,SK,S0J 1L0,['306-425-2252']
"

Center Point Pharmacy


",2612 La Loche Ave,La Loche,SK,S0M 1G0,['306-822-3295']
"

Super Thrifty Drug Mart


",Box 930,Opaskwayak,MB,R9A 1R8,['204-623-5150']
"

Shoppers Drug Mart


",333B Edwards Ave,The Pas,MB,R9A 1L7,['204-623-5331']
"

The Medicine Shoppe Pharmacy


",330 Fischer Ave,The Pas,MB,R9A 1K2,"['204-623-5888', '1-844-623-5888']"
"

Northern Pharmacy


",1491 Pederson Ave,Buffalo Narrows,SK,S0M 0J0,['306-235-4344']
"

DRUGStore Pharmacy


",12 Hwy 10 N,The Pas,MB,R9A 1K2,['204-623-1289']
"

Ring's I.D.A. Pharmacy


",1-6 Courtoreille St,Hay River,NT,X0E 1G2,['867-874-6744']
"

Northern


",Unavailable,Ile-A-La-Crosse,SK,S0M 1C0,['306-833-2370']
"

Walmart


",2 Hospital St,Fort Mcmurray,AB,T9H 5E4,['780-790-6080']
"

Save-On-Foods Pharmacy


",8406 Franklin Avenue,Fort McMurray,AB,T9H 2J3,['780-791-4147']
"

Beauty Boutique by Shoppers Drug Mart


",500-8600 Franklin Ave,Fort McMurray,AB,T9H 4G8,['780-743-1251']
"

Shoppers Drug Mart


",500-8600 Franklin Ave,Fort McMurray,AB,T9H 4G8,['780-743-1251']
"

The Medicine Shoppe Pharmacy


",8706 Franklin Ave Suite 203A,Fort McMurray,AB,T9H 2J6,['587-536-6648']
"

Tamarack Pharmacy


",308-9612 Franklin Ave,Fort McMurray,AB,T9H 2J9,['780-750-1200']
"

Safeway Pharmacy


",9601 Franklin Ave,Fort McMurray,AB,T9H 2J8,['780-790-2388']
"

Safeway


",9601 Franklin Ave,Fort McMurray,AB,T9H 2J8,"['780-790-1988', '1-800-723-3929']"
"

Save On Foods


",Unavailable,Fort McMurray,AB,Unavailable,['780-791-4147']
"

Commons Pharmacy The


",1-245 Eagle Ridge Blvd,FT MCMURRAY,AB,T9K 2Z7,['780-750-2700']
"

The Medicine Shoppe Pharmacy


",141B-355 Loutit Rd,Fort McMurray,AB,T9K 2W6,['780-790-1234']
"

The Medicine Shoppe Pharmacy


",9914 Morrison St,Fort McMurray,AB,T9H 4A4,['780-792-0708']
"

Save-On-Foods Pharmacy


",100 Riverstone Ridge,Fort McMurray,AB,T9K 1S6,['780-743-5440']
"

Westfair Foods Inc


",9 Haineault St,Fort McMurray,AB,T9H 1R8,['780-790-3827']
"

Loblaw Pharmacy


",251 Powder Dr,Fort McMurray,AB,T9K 2W6,['780-788-1415']
"

Joly's Your Independent Grocer


",251 Powder Dr,Fort McMurray,AB,T9K 2W6,['780-788-1400']
"

Loblaw Pharmacy


",9 Haineault St,Fort McMurray,AB,T9H 1R8,['780-790-3835']
"

Dave Hill Pharmacy


",1-200 Thickwood Blvd,Fort McMurray,AB,T9K 1X9,['780-750-1111']
"

Shoppers Drug Mart


",190-121 Signal Rd,Fort McMurray,AB,T9H 4N6,['780-743-4662']
"

Safeway Pharmacy


",131 Signal Rd,Fort McMurray,AB,T9H 4N6,['780-791-3909']
"

Save-On-Foods Pharmacy


",131 Signal Road,Fort McMurray,AB,T9H 4N6,['780-790-1423']
"

Shoppers Drug Mart


",103-112 Riverstone Ridge,Fort McMurray,AB,T9K 1S6,['780-743-3362']
"

Loblaw Pharmacy


",101A Railway Ave W,Nipawin,SK,S0E 1E0,['306-862-8787']
"

Centre St Drugs - Remedy'sRx -


",219 Centre St,Nipawin,SK,S0E 1E0,['306-862-5553']
"

Carrot River Pharmacy


",18 Main St,Carrot River,SK,S0E 0L0,['306-768-2222']
"

Carrot River Pharmacy


",Red Earth First Nation,Carrot River,SK,S0E 0L0,['306-768-3330']
"

Pharmasave 402


",200 1st Ave E,Nipawin,SK,S0E 1E0,['306-862-5377']
"

Davis Rexall Drugs


",110 1st Ave W,Nipawin,SK,S0E 1E0,['306-862-3141']
"

Rose Valley Pharmacy Ltd


",303 Centre St,Rose Valley,SK,S0E 1M0,['306-322-2141']
"

Pharmasave


",108 Churchill St,Hudson Bay,SK,S0E 0Y0,['306-865-2663']
"

Prescription Works Pharmacy Inc


",110 Main St,Big River,SK,Unavailable,['306-469-2137']
"

Pioneer Pharmasave


",PO Box 550,Fort Vermilion,AB,T0H 1N0,['780-927-4444']
"

Pioneer Drugs


",4903 River Rd,Fort Vermilion,AB,T0H 1N0,['780-927-4007']
"

Shellbrook Remedy'sRx Pharmacy


",206 2nd Avenue W,Shellbrook,SK,S0J 2E0,['306-747-3435']
"

Meadow Lake Co-op Pharmacy


",214 Centre St,Meadow Lake,SK,Unavailable,['306-236-6366']
"

Madill's Drugs


",215 Centre St,Meadow Lake,SK,S9X 1Y2,['306-236-5210']
"

DRUGStore Pharmacy


",828 9th Street W,Meadow Lake,SK,S0M 1V0,['306-236-8330']
"

The Medicine Shoppe Pharmacy


",120C Centre St,Meadow Lake,SK,S9X 1L3,['306-236-0333']
"

Meadow Lake Co-op


",513 9th St W,Meadow Lake,SK,Unavailable,['306-236-3644']
"

Lacroix Drug Store


",1270 100th St,Tisdale,SK,S0E 1T0,['306-873-2144']
"

Pharmasave 426


",1116 100th St,Tisdale,SK,S0E 1T0,['306-878-3800']
"

Shoppers Drug Mart


",230-800 15th Street E,Prince Albert,SK,S6V 8E3,['306-922-6144']
"

Save-On-Foods Pharmacy


",801 15th Street East,Prince Albert,SK,S6V 0C7,['306-953-0255']
"

Loblaw Pharmacy


",591 15th Street E,Prince Albert,SK,S6V 1G3,['306-953-8135']
"

Pharmasave Downtown


",1316 Central Ave,Prince Albert,SK,S6V 6P5,['306-922-1118']
"

Medical Pharmacy P.A.


",1335 Central Ave,Prince Albert,SK,S6V 4W1,['306-763-2637']
"

Walmart Supercentre


",800 15th Street E,Prince Albert,SK,S6V 8E3,['306-764-9773']
"

My Pharmacy Ltd


",385 15th St W,Prince Albert,SK,S6V 3R1,['306-922-3784']
"

Gray Chemists


",681 15th St W,Prince Albert,SK,S6V 7H9,['306-764-2300']
"

Crescent Heights Pharmacy


",2805 6th Ave E,Prince Albert,SK,S6V 6Z6,['306-764-5510']
"

Medi-Center Pharmacy


",2685 2nd Ave W,Prince Albert,SK,S6V 5E3,['306-763-2022']
"

PA Pharmacy


",1-2727 2nd Ave W,Prince Albert,SK,S6V 5E5,['306-970-8333']
"

Victoria Square Pharmacy


",2345 10th Ave W,Prince Albert,SK,S6V 7V6,['306-922-8959']
"

Safeway


",2995 2nd Ave W,Prince Albert,SK,S6V 5V5,"['306-922-1242', '1-800-723-3929']"
"

Safeway Pharmacy


",2995 2 Avenue W,Prince Albert,SK,S6V 5V5,['306-764-2206']
"

WillowGrove Pharmacy


",597 28Th St W,Prince Albert,SK,S6V 4T1,['306-970-3060']
"

The Medicine Shoppe


",597 28th St W,Prince Albert,SK,S6V 4T1,['306-970-3061']
"

Shoppers Drug Mart


",1A-2995 2nd Avenue W,Prince Albert,SK,S6V 5V5,['306-764-5207']
"

Slobodian Pharmacy Ltd


",211 McAllister Ave N,Porcupine Plain,SK,S0E 1H0,['306-278-2177']
"

Pharmasave


",410 Main St,Melfort,SK,S0E 1A0,['306-752-2858']
"

Loblaw Pharmacy


",620A Saskatchewan Dr,Melfort,SK,S0E 1A0,['306-752-9725']
"

Rexall


",312 Stovel Ave W,Melfort,SK,S0E 1A0,['306-752-0013']
"

Rexall


",1121 Main St,Melfort,SK,S0E 1A0,['306-752-4414']
"

Shoppers Drug Mart


",209 Main St,Melfort,SK,S0E 1A0,['306-752-2717']
"

Redberry Pharmacy


",307 Main St,Blaine Lake,SK,S0J 0J0,['306-497-2270']
"

Quayle's Pharmacy Ltd


",226 Bellamy Ave,Birch Hills,SK,S0J 0G0,['306-749-2221']
"

Woodland Pharmacy Ltd


",9 Main St,Shellbrook,SK,S0J 2E0,['306-747-2545']
"

DRUGStore Pharmacy


",1200 Main St,Swan River,MB,R0L 1Z0,['204-734-5647']
"

Guardian - Swan Health Care Plus Pharmacy


",615 Main St,Swan River,MB,R0L 1Z0,['204-734-3392']
"

Guardian - Scales Drug Store


",900 Main St E,Swan River,MB,R0L 1Z0,['204-734-3411']
"

Swan Valley Pharmacy


",811 Main St,Swan River,MB,R0L 1Z0,['204-734-2882']
"

I.D.A. - Forbes Pharmacy - Cold Lake


","5016 50th Ave,Unit 101",Cold Lake,AB,T9M 0L1,['780-594-3579']
"

Rx Drug Mart #2028


",4-901 10 Ave,Cold Lake,AB,T9M 1H2,['780-639-3393']
"

Glacier Gate Pharmacy


",2504 Glacier Gate,Cold Lake,AB,T9M 0H1,['780-594-8129']
"

Shoppers Drug Mart


",6203A 51 Street,Cold Lake,AB,T9M 1Z9,['780-594-7262']
"

Rx Drug Mart #2029


",206-6503 51 St,Cold Lake,AB,T9M 1C8,['780-594-5444']
"

Walmart Supercentre


",4702 43rd Avenue,Cold Lake,AB,T9M 1M9,['780-840-2343']
"

I.D.A. - High Level Valu Drugs


",10204 100 Avenue,High Level,AB,T0H 1Z0,['780-926-3516']
"

Spiritwood Pharmacy & Grocery


",120 Main St,Spiritwood,SK,S0J 2M0,['306-883-2391']
"

Pharmasave


",107 Main St,Benito,MB,R0L 0C0,['204-539-2434']
"

Woodland Pharmacy


",15 Main St,Leask,SK,S0J 1M0,['306-466-4747']
"

Bigstone Apple Drugs


",8-911 Stony Point Rd,Wabasca,AB,T0G 2K0,['780-891-2750']
"

I.D.A. - Winnipegosis Clinic Pharmacy


",200 1st Street,Winnipegosis,MB,R0L 2G0,['204-656-4424']
"

Carlton Trail Pharmacy


",255 Victoria Ave,Duck Lake,SK,S0K 1J0,['306-467-4555']
"

PharmaChoice


",206 Main St,Kelvington,SK,S0A 1W0,['306-327-4662']
"

Fisher River Pharmacy


",Box 359,Unavailable,MB,R0C 1S0,['204-645-4445']
"

Wakaw Pharmacy Inc


",134 1st St S,Wakaw,SK,S0K 4P0,['306-233-4661']
"

Norquay Family Pharmacy


",8 Main St,Norquay,SK,S0A 2V0,['306-594-2022']
"

Paul's Drugs Ltd


",107 Main St N,Preeceville,SK,S0A 3B0,['306-547-2020']
"

Wholesale Club


",5101-46 St,Bonnyville,AB,T9N 2P1,['780-812-3946']
"

DRUGStore Pharmacy


",5101 46th Street,Bonnyville,AB,T9N 2P1,['780-812-3947']
"

Tellier Value Drug Mart


",Unavailable,Bonnyville,AB,Unavailable,['780-826-9428']
"

Clinic Dispensary


",4610 50 Ave,Bonnyville,AB,T9N 1A4,['780-826-3800']
"

Tellier Guardian Pharmacy


",5015 50 Avenue,Bonnyville,AB,T9N 2J5,['780-826-3789']
"

Tellier Pharmacy


",5015 50 Avenue,Bonnyville,AB,T9N 2J5,['780-826-3799']
"

Direct Drug Testing


",5201 50 Ave,Bonnyville,AB,T9N 1Y2,['780-826-4466']
"

Loblaw Pharmacy


",10527 101 Avenue,Lac La Biche,AB,T0A 2C0,"['780-623-6410', '1-800-378-4786']"
"

Guardian - Cedar Pharmacy


",10017 Alberta Ave,Lac La Biche,AB,T0A 2C0,['780-623-4151']
"

Crescent I.D.A. Drugs


",10029 101 Avenue,Lac La Biche,AB,T0A 2C0,['780-623-4059']
"

Lac La Biche Your Independent Grocer


",10527 101 Avenue,Lac La Biche,AB,T0A 2C0,['780-623-6400']
"

Livelong Post Office


",1st Ave,Livelong,SK,S0M 1J0,['306-845-3395']
"

Value Drug Mart


",10133 101 Ave,Lac La Biche,AB,T0A 2C0,['780-623-4370']
"

Woodland Pharmacy Ltd


",460 Main St,Canwood,SK,S0J 0K0,['306-468-2545']
"

I.D.A. - Chief Peguis Pharmacy


",MB-224,Peguis,MB,R0C 3S0,['204-645-5935']
"

Rosthern Pharmacy


",1014 6th St,Rosthern,SK,S0K 3R0,['306-232-4388']
"

SaskValley Pharmacy


",6001 12 St,Rosthern,SK,S0K 3R0,['306-232-4383']
"

Yuzdepski's Pharmacy


",111 Main St,Cudworth,SK,S0K 1B0,['306-256-4440']
"

Rx Drug Mart I.D.A. Kamsack


",432 3rd Ave S,Kamsack,SK,S0A 1S0,['306-542-2215']
"

Turtleford Pharmacy Remedy'sRx


",215 Main St,Turtleford,SK,S0M 2Y0,['306-845-2044']
"

Onion Lake Remedy'sRx Pharmacy


",71 Onion Lake First Nations Box 220,Onion Lake,SK,S0M 2E0,['306-344-4988']
"

Grand Medicine Pharmacy


",Lot 39 Hwy 325,Hodgson,MB,R0C 1N0,['204-372-6048']
"

Wadena Drugs Ltd


",66 Main St N,Wadena,SK,S0A 4J0,['306-338-2351']
"

Granger Drugs Ltd


",3010 Central Ave,Waldheim,SK,S0K 4R0,['306-945-2167']
"

Loblaw Pharmacy


",2019 8th Ave,Humboldt,SK,S0K 2A0,['306-682-8335']
"

Terry's No Frills


",2019 8th Avenue,Humboldt,SK,S0K 2A0,['1-866-987-6453']
"

Shoppers Drug Mart


",627 Main St,Humboldt,SK,S0K 2A0,['306-682-2541']
"

Humboldt Medical Pharmacy


",637 9th St,Humboldt,SK,S0K 2A0,['306-682-4111']
"

Pharmasave


",531 Main St,Humboldt,SK,S0K 2A0,['306-682-2616']
"

Kamsack Family Pharmacy


",504 3rd Ave S,Kamsack,SK,S0A 1S0,['306-542-1333']
"

Peter's Pharmacy


",18 Main St,Ashern,MB,R0C 0E0,['204-768-2935']
"

Canora Centre Mall Manager


",932 Norway Rd S,Canora,SK,S0A 0L0,['306-563-6484']
"

Canora Pharmacy Ltd


",216 Main St,Canora,SK,S0A 0L0,['306-563-5411']
"

Bruno Pharmacy


",518 Main St,Bruno,SK,S0K 0S0,['306-369-4114']
"

Guardian - Ashern Pharmacy


",43 Main St,Ashern,MB,R0C 0E0,['204-768-2824']
"

Ashern Pharmacy


",1-3 PTH 6 N,Ashern,MB,R0C 0E0,['204-768-2252']
"

Mall Centre Pharmacy


",932 Norway Rd S,Canora,SK,S0A 0L0,['306-563-5499']
"

Redberry Pharmacy


",10 Main St,Hafford,SK,S0J 1A0,['306-549-2280']
"

Northern Pharmacy


",9705 100St,Unavailable,NT,X0E 0N0,['867-695-3346']
"

Post Office


",Chateh,Chateh,AB,T0H 0S0,"['780-321-3775', '1-800-267-1177']"
"

Naicam Pharmasave


",305 1St Ave N,Martensville,SK,S0K 2T2,['306-874-2022']
"

I.D.A. - Rx Drug Mart Boyle


",5118 3 St,Boyle,AB,T0A 0M0,['780-689-3762']
"

Shoppers Drug Mart


",5014 51 St,St Paul,AB,T0A 3A1,['780-615-3020']
"

Glendon Drug Mart (2010) Inc


",5012 Railway Ave NE,Glendon,AB,T0A 1P0,['780-635-4108']
"

Guardian - Red Lake Pharmacy


",51 Hwy 105,Red Lake,ON,P0V 2M0,['807-727-2255']
"

Super Thrifty Pharmacy


",224 Main St N,Dauphin,MB,R7N 1C4,['204-638-3702']
"

Loblaw Pharmacy


",15 1st Ave NE,Dauphin,MB,R7N 3M3,['204-622-2925']
"

Gregs Value Drug Mart Inc


",4448 50 Av,St Paul,AB,T0A 3A2,['780-645-3610']
"

Guardian Drugs


",St Paul Shpg Ctr,St Paul,AB,T0A 3A2,['780-645-2525']
"

Dauphin Clinic Pharmacy Ltd


",622 3rd St,Dauphin,MB,R7N 1R5,['204-638-4602']
"

I.D.A. - Dauphin Clinic Pharmacy


",622 3rd Street SW,Dauphin,MB,R7N 1R5,['204-638-4602']
"

DRUGStore Pharmacy


",5701-50th Avenue,St Paul,AB,T0A 3A1,['780-645-7035']
"

Shoppers Simply Pharmacy


",5014 51 Street,St. Paul,AB,T0A 3A1,['780-615-3020']
"

Shoppers Drug Mart


",4901 39 St,St Paul,AB,T0A 3A0,['780-645-3600']
"

Shoppers Drug Mart


",4901 39 Street,St. Paul,AB,T0A 3A0,['780-645-3063']
"

Walmart


",1450 Main St S,Dauphin,MB,R7N 3H4,['204-638-4835']
"

Wynyard Pharmacy Ltd


",225 Bosworth St,Wynyard,SK,S0A 4T0,['306-554-2571']
"

Extra Foods


",5701 50 Avenue,St Paul,AB,T0A 3A1,['780-645-7030']
"

St Paul Drugs Ltd


",4325 53 St SS 4,St Paul,AB,T0A 3A4,['780-645-5123']
"

Safeway


",50-1450 Main St S,Dauphin,MB,R7N 1M8,"['204-638-4745', '1-800-723-3929']"
"

Townsend's Central Drugs


",116 Ave B E,Wynyard,SK,S0A 4T0,['306-554-2542']
"

Foam Lake Pharmacy


",407 Main St,Foam Lake,SK,S0A 1A0,['306-272-3272']
"

Legends Pharmacy


",17-810 Centennial Blvd,Warman,SK,S0K 4S1,['306-665-2079']
"

Shoppers Drug Mart


",710 Centennial Blvd,Warman,SK,S0K 4S1,['306-242-5301']
"

Ste. Rose Super Thrifty Pharmacy


",610 Central Ave,Ste Rose Du Lac,MB,R0L 1S0,['204-447-2878']
"

Diamond Centre Pharmacy


",102 Central St W,Warman,SK,S0K 4S0,['306-931-7800']
"

Grandview Pharmacy


",404 Main St,Grandview,MB,R0L 0Y0,['204-546-2626']
"

Gilbert Plains Pharmacy Ltd


",26 Main St N,Gilbert Plains,MB,R0L 0X0,['204-548-2682']
"

Guardian - Arborg Pharmacy


",275 Main St,Arborg,MB,R0C 0A0,['204-376-2212']
"

Arborg Pharmacy


",273 Main St,Arborg,MB,R0C 0A0,['204-376-2212']
"

Mitchell's Drug Store


",125 Main St NW,Roblin,MB,R0L 1P0,['1-844-766-5063']
"

Dalmeny Buy N' Save Drug Mart


",130 3rd St,Dalmeny,SK,S0K 1E0,['306-254-2144']
"

Value Drug Mart


",5118 3rd St,Boyle,AB,T0A 0M0,['780-689-3762']
"

The Medicine Shoppe Pharmacy


",5-301 Centennial Dr N,Martensville,SK,S0K 2T0,['306-955-1055']
"

Fisher's Drug Store


",101-1501 100 St,North Battleford,SK,S9A 0W3,['306-445-6153']
"

I.D.A. - 12th Avenue Pharmacy


",1192 101st Street,North Battleford,SK,S9A 0Z6,['306-937-6777']
"

Watson Pharmasave


",114 Main St,Watson,SK,S0K 4V0,['306-287-3215']
"

Martensville Pharmacy


",17 Centennial Dr N,Martensville,SK,S0K 2T0,['306-931-2868']
"

Battlefords Prescription Centre


",1121B 103rd St,North Battleford,SK,S9A 1K5,['306-446-4777']
"

Walmart


",601 Carlton Trail,North Battleford,SK,S9A 4A9,['306-445-8108']
"

Shoppers Drug Mart


",11412 Railway Ave E,North Battleford,SK,S9A 3G8,['306-445-6253']
"

Remedy'sRx - Langham Pharmacy


",216 Main St E,Langham,SK,S0K 2L0,['306-283-5550']
"

Maidstone Pharmacy Ltd


",120 Main St,Maidstone,SK,S0M 1M0,['306-893-2273']
"

Lanigan Pharmacy


",15 Downing Dr,Lanigan,SK,S0K 2M0,['306-365-2855']
"

Remedy'sRx Pharmacy


",181a 22nd Street W,Battleford,SK,S0M 0E0,['306-937-2600']
"

Battleford Drug Mart


",102 22nd St W,Battleford,SK,S0M 0E0,['306-937-3303']
"

Vilna Rxellence Pharmacy


",5012 50 St,Vilna,AB,T0A 3L0,['780-636-3550']
"

Eriksdale Pharmacy


",12 Railway Ave,Eriksdale,MB,R0C 0W0,['204-739-2035']
"

Rx Drug Mart


",4923 50 St,Athabasca,AB,T9S 1E1,['780-675-5664']
"

Value Drug Mart


",4911 50 St,Athabasca,AB,T9S 1E1,['780-675-2188']
"

Extra Foods


",5007 52 St,Athabasca,AB,T9S 1V2,['780-675-8402']
"

Loblaw Pharmacy


",5007-52nd Street,Athabasca,AB,T9S 1V2,['780-675-8410']
"

I.D.A. - Rx Drug Mart Athabasca


",4923 50 Street,Athabasca,AB,T9S 1E1,['780-675-2071']
"

The Medicine Shoppe Pharmacy


",2810B 48th Avenue,Athabasca,AB,T9S 0B1,['780-675-3855']
"

Apple Drugs Fairview


",PO Box 1660,Fairview,AB,T0H 1L0,['780-835-4383']
"

Guardian - Sprucewood Pharmacy & Homecare


",2-5114 46th Street,Lloydminster,AB,T9V 0C6,['1-844-232-1828']
"

Family Pharmacy


",5120 46 St,Lloydminster,AB,T9V 2P7,['780-870-6395']
"

I.D.A. - Family Pharmacy


",5120 46th Street,Lloydminster,AB,T9V 2P7,['780-871-5388']
"

Loblaw Pharmacy


",5031 44th Street,Lloydminster,AB,T9V 0A6,['780-871-8041']
"

Shoppers Drug Mart


",200-5211 44th Street,Lloydminster,AB,T9V 0A7,"['780-875-2031', '1-800-746-7737']"
"

Safeway Pharmacy


",5211 44 Street,Lloydminster,AB,T9V 0A7,['780-875-0447']
"

Safeway


",161-5211 44th Street,Lloydminster,AB,T9V 0A7,"['780-875-3448', '1-800-723-3929']"
"

Lloydminster & District Co-op


",3606 50 Ave,Lloydminster,AB,T9V 0V7,['780-808-8338']
"

Lloydminster Co-op Marketplace Pharmacy


",3606 50 Ave,Lloydminster,AB,T9V 0V7,['780-808-2180']
"

Costco Wholesale


",115 Marquis Dr W,Saskatoon,SK,S7R 1C7,['306-956-1391']
"

St. Walburg Pharmacy


",31 Main St,St Walburg,SK,S0M 2T0,['306-248-3611']
"

I.D.A. - Family Pharmacy


",2707B 50 Avenue,Lloydminster,SK,S9V 2A8,['306-825-5388']
"

Lloyd Drug


",101-4100 70 Ave,Lloydminster,AB,T9V 2X3,['780-872-5865']
"

Walmart Supercentre


",4210 70th Avenue,Lloydminster,AB,T9V 2X3,['780-875-9856']
"

Remedy'sRx Saddle Lake Pharmacy


",5051 11 Avenue,Saddle Lake,AB,T0A 3T0,['780-726-3310']
"

Werezak's Pharmacy Ltd


",5-123 Lenore Dr,Saskatoon,SK,S7K 7H9,['306-931-6662']
"

Shoppers Drug Mart


",7509 44th Street,Lloydminster,AB,T9V 0X9,['780-872-7451']
"

Loblaw Pharmacy


",2815 Wanuskewin Rd,Saskatoon,SK,S7K 8E6,['306-249-9200']
"

The Medicine Shoppe Pharmacy


",234 Primrose Dr,Saskatoon,SK,S7K 6Y6,['306-242-0222']
"

Canada Safeway Limited


",1860 McOrmond Dr,Saskatoon,SK,S7S 0A5,['306-934-5060']
"

WillowGrove Pharmacy


",1-527 Nelson Rd,Saskatoon,SK,S7S 1P4,['306-665-1000']
"

London Drugs


",134 Primrose Dr,Saskatoon,SK,S7K 5S6,['306-975-0740']
"

Safeway Pharmacy


",134 Primrose Dr,Saskatoon,SK,S7K 5S6,['306-242-5522']
"

Safeway


",134 Primrose Dr,Saskatoon,SK,S7K 5S6,"['306-934-8185', '1-800-723-3929']"
"

Remedy'sRx - Sunrise Pharmacy


",102-5001 18 Street,Lloydminster,AB,T9V 2G7,['587-789-1555']
"

London Drugs


",134 Primrose Dr,Saskatoon,SK,S7K 5S6,['306-975-3845']
"

Safeway Pharmacy


",134 Primrose Dr,Saskatoon,SK,S7K 5S6,['306-934-8185']
"

Canada Safeway Limited


",134 Primrose Dr,Saskatoon,SK,S7K 5S6,['306-934-8185']
"

Shoppers Drug Mart


",1804 McOrmond Dr,Saskatoon,SK,S7S 0A6,['306-249-4455']
"

Loblaw Pharmacy


",30 Kenderdine Rd,Saskatoon,SK,S7N 4M8,['306-343-3400']
"

Pharmasave


",3-50 Kenderdine Rd,Saskatoon,SK,S7N 3A1,['306-956-0090']
"

Shoppers Drug Mart


",3-7 Assiniboine Dr,Saskatoon,SK,S7K 1H1,['306-934-6700']
"

PharmaChoice Western Inc


",701 45th St E,Saskatoon,SK,S7K 0W4,['306-244-2176']
"

Save-On-Foods Pharmacy


",151 Gibson Bend,Saskatoon,SK,S7V 0P1,['306-651-7786']
"

Safeway Pharmacy


",1860 McOrmond Dr,Saskatoon,SK,S7S 0A5,['306-934-5070']
"

Safeway


",1860 McOrmond Dr,Saskatoon,SK,S7S 0A5,"['306-934-5060', '1-800-723-3929']"
"

Sobeys Pharmacy


",1739 Preston Ave N,Saskatoon,SK,S7N 4V2,['306-668-8210']
"

Earl's Pharmacy Ltd


",20-1215 Central Ave,Saskatoon,SK,S7N 2K8,['306-244-1531']
"

Pharmasave


",1215 Central Ave,Saskatoon,SK,S7N 2K8,['306-955-7200']
"

The Medicine Shoppe Pharmacy


",1-800 Central Ave,Saskatoon,SK,S7N 2G6,['306-649-2233']
"

College of Pharmacy & Nutrition, University of Saskatchewan


",104 Place Clinic,Saskatoon,SK,S7N 2Z4,['306-966-6327']
"

London Drugs


",110-215 Joseph Okemasis Drive,Saskatoon,SK,S7N 3A8,['639-804-5020']
"

Shoppers Drug Mart


",125 Kensington Blvd,Saskatoon,SK,S7L 6V7,['306-244-6573']
"

Shoppers Drug Mart


",1210 7th Avenue N,Saskatoon,SK,S7K 2W2,['306-653-0882']
"

The Medicine Shoppe Pharmacy


",5-270 Acadia Dr,Saskatoon,SK,S7H 3V4,['306-382-7101']
"

Pharmasave


",1202 Idylwyld Dr N,Saskatoon,SK,S7L 0Z9,['306-374-2300']
"

U Of S College Of Pharmacy And Nutrition


",110 Science Pl,Saskatoon,SK,S7N 5C9,['306-966-6328']
"

Safeway


",302 33rd St W,Saskatoon,SK,S7L 0T2,['306-244-2250']
"

FreshCo Pharmacy


",302 33Rd St W,Saskatoon,SK,S7L 0V4,['306-244-2250']
"

Safeway Pharmacy


",302 33rd St W,Saskatoon,SK,S7L 0T2,"['306-244-2250', '1-800-723-3929']"
"

Mayfair Drugs


",504 33rd St W,Saskatoon,SK,S7L 0V8,['306-653-4357']
"

Thirty Third Street Pharmacy


",105-401 33Rd St W,Saskatoon,SK,S7L 0V5,['306-986-6680']
"

The Medicine Shoppe Pharmacy


",103 Hospital Dr,Saskatoon,SK,S7N 0W8,['306-655-4045']
"

The Medicine Shoppe Pharmacy


",511A - 33 St W,Saskatoon,SK,S7L 0V7,['306-931-2999']
"

Queen Street Pharmacy


",103-610 Queen St,Saskatoon,SK,S7K 0M8,['306-242-3919']
"

Cheetham's Pharmacy


",514 Queen St,Saskatoon,SK,S7K 0M5,['306-653-5111']
"

Pharmasave Pharmacy


",Unavailable,Saskatoon,SK,Unavailable,['306-978-3313']
"

Prestige Beauty Supply


",92-2325 Preston Ave S,Saskatoon,SK,S7J 2G2,['306-979-3211']
"

Shoppers Drug Mart


",3014 McClocklin Rd,Saskatoon,SK,S7R 0J1,['306-249-2930']
"

Rexall


",108-3929 8th Street E,Saskatoon,SK,S7H 5M2,['306-975-1500']
"

Campus Medicine Shoppe


",122-1 Campus Dr,Saskatoon,SK,S7N 5A3,['306-668-2256']
"

The Medicine Shoppe Pharmacy


",325 5th Avenue North,Saskatoon,SK,S7K 2P7,['306-931-3311']
"

Brunskill Pharmacy Inc


",1302 Temperance St,Saskatoon,SK,S7N 0P3,['306-653-2922']
"

Pharmacy First


",102-3333 8Th St E,Saskatoon,SK,S7H 4K1,['306-955-1521']
"

Shoppers Drug Mart


","3310 8th St E,Unit 440",Saskatoon,SK,S7H 5M3,['306-373-5556']
"

Safeway Pharmacy


",3310 8th St E,Saskatoon,SK,S7H 0W4,['306-955-4644']
"

Pharmasave


",202 2nd Ave N,Saskatoon,SK,S7K 2B5,['306-244-7244']
"

Midtown Medical Pharmacy


",109-39 23rd St E,Saskatoon,SK,S7K 0H6,['306-244-7033']
"

Medical Arts Pharmacy


",133-750 Spadina Cres E,Saskatoon,SK,S7K 3H3,['306-652-5252']
"

Pacific Avenue Pharmacy


",102-149 Pacific Ave,Saskatoon,SK,S7K 1N8,['306-244-3011']
"

London Drugs


",2323 8th St E,Saskatoon,SK,S7H 0V4,['306-664-9526']
"

Loblaw Pharmacy


",2901 8th Street E,Saskatoon,SK,S7H 0V4,['306-956-1631']
"

Wall Street Pharmacy


",140 Wall St,Saskatoon,SK,S7K 1N4,['306-652-5194']
"

Westview Pharmacy


",10-110 Wedge Rd,Saskatoon,SK,S7L 6Y4,['306-954-9380']
"

Westview Pharmacy


",10-110 Wedge Rd,Saskatoon,SK,S7L 6Y4,['306-954-9378']
"

London Drugs


",2323 8 Street East,Saskatoon,SK,S7H 0V4,['306-664-9500']
"

Mount Royal Drugs Ltd


",701 Avenue P N,Saskatoon,SK,S7L 2W1,['306-382-7373']
"

Shoppers Drug Mart


",80-145 Gibson Bend,Saskatoon,SK,S7V 0V2,['306-244-8505']
"

London Drugs Ltd


",2323 8th St E,Saskatoon,SK,S7H 0V4,['306-664-9896']
"

Lighthouse Pharmacy Inc


",259B 3Rd Ave S,Saskatoon,SK,S7K 1M3,['306-249-2025']
"

Pharmacy Adam


",306-201 1st Ave S,Saskatoon,SK,S7K 1J5,['306-954-7151']
"

Bio Script Pharmacy


",304-201 1st Ave S,Saskatoon,SK,S7K 1J5,['306-652-4679']
"

Shoppers Drug Mart


","201 1st Ave South,Unit 50",Saskatoon,SK,S7K 1J9,['306-653-4866']
"

Loblaw Pharmacy


",315 Herold Rd,Saskatoon,SK,S7V 1J7,['306-664-5036']
"

Pharmacy One


",2102 8Th St E,Saskatoon,SK,S7H 0V1,['306-477-4640']
"

Northumberland Pharmacy


",F3-924 Northumberland Ave,Saskatoon,SK,S7L 3W6,['306-242-0824']
"

Shoppers Drug Mart


",42-2105 8th Street E,Saskatoon,SK,S7H 0T8,['306-374-4888']
"

Guardian - Walker's Pharmacy


",516 Clarence Ave S,Saskatoon,SK,S7H 2C9,['306-653-4382']
"

Wellive Pharmacy


",2-345 3rd Ave S,Saskatoon,SK,S7K 1M6,['306-954-9355']
"

The Medicine Shoppe Pharmacy


",2-1701 8th Street,Saskatoon,SK,S7H 0T4,['306-931-1222']
"

Save-On-Foods Pharmacy


",Unit #20 1503 8th Street East,Saskatoon,SK,S7H 0T2,['306-978-8890']
"

Coad's Drug Store


",137 20th St W,Saskatoon,SK,S7M 0W7,['306-653-7758']
"

Shoppers Drug Mart


",415 Herold Crt,Saskatoon,SK,S7V 0A7,['306-664-5010']
"

Safeway Pharmacy


",4-1501 8 St E,Saskatoon,SK,S7H 0T8,['306-373-0030']
"

Sobeys Pharmacy


",1550 8th St E,Saskatoon,SK,S7H 0T3,['306-477-5805']
"

West-Side Pharmacy


",102 Avenue P S,Saskatoon,SK,S7M 2V9,['306-975-9666']
"

Pharmasave Riversdale


",839 20 St W,Saskatoon,SK,S7M 1Y2,['306-244-0909']
"

Lakeview Pharmacy


",11-1945 McKercher Dr,Saskatoon,SK,S7J 4M4,['306-955-5222']
"

Lakeview Pharmacy


",11-1945 McKercher Dr,Saskatoon,SK,S7J 4M4,['306-955-5230']
"

Laurier Drive Pharmacy


",3110 Laurier Dr Suite x3,Saskatoon,SK,S7L 5J7,['306-384-8788']
"

Broadway Pharmacy


",824 Broadway Ave,Saskatoon,SK,S7N 1B6,['306-665-6999']
"

FreshCo Pharmacy


",300 Confederation Dr,Saskatoon,SK,S7L 4R6,['306-384-7474']
"

Loblaw Pharmacy


",411 Confederation Dr,Saskatoon,SK,S7L 5C3,['306-384-4700']
"

Save-On-Foods Pharmacy


",277 Broadway Street East,Yorkton,SK,S3N 3G7,['306-783-1273']
"

Rexall


",1530 20th Street W,Saskatoon,SK,S7M 0Z6,['306-652-6822']
"

Rexall Drug Stores


",1530 20Th St W,Saskatoon,SK,S7M 0Z6,['306-652-6151']
"

Shoppers Drug Mart


",20-2410 22nd Street W,Saskatoon,SK,S7M 0V7,['306-382-5005']
"

The Medicine Shoppe Pharmacy


",1631 20th Street W,Saskatoon,SK,S7M 0Z7,['306-382-1890']
"

Shoppers Drug Mart


",33-277 Broadway St E,Yorkton,SK,S3N 3G7,['306-783-9796']
"

Safeway


",300 Confederation Dr,Saskatoon,SK,S7L 4R6,"['306-384-7474', '1-800-723-3929']"
"

Hague Pharmacy


",205 Main St,Hague,SK,S0K 1X0,['306-225-3674']
"

Safeway Pharmacy


",6-300 Confederation dr,Saskatoon,SK,S7L 4R6,['306-384-7474']
"

The Medicine Shoppe Pharmacy


",17-259 Hamilton Rd,Yorkton,SK,S3N 4C6,['306-782-2000']
"

Loblaw Pharmacy


",206 Broadway St E,Yorkton,SK,S3N 3K4,['306-786-4035']
"

Nordon Drugs Ltd


",1610 Isabella St E,Saskatoon,SK,S7J 0C1,['306-374-1585']
"

Loucks Medi-Health Pharmacy Ltd


",115-41 Broadway St W,Yorkton,SK,S3N 0L6,['306-786-6636']
"

Safeway


",2325 Preston Ave,Saskatoon,SK,S7J 2G2,"['306-374-4145', '1-800-723-3929']"
"

FreshCo Pharmacy


",2325 Preston Ave,Saskatoon,SK,S7J 2G2,['306-374-4145']
"

Shoppers Drug Mart


",2325 Preston Ave,Saskatoon,SK,S7J 2G2,['306-374-4911']
"

White's Pharmacy Ltd


",3315 Fairlight Dr,Saskatoon,SK,S7M 3Y5,['306-244-6380']
"

Walmart Supercentre


",240 Hamilton Rd,Yorkton,SK,S3N 4C6,['306-782-9824']
"

Shoppers Drug Mart


",610 Taylor St E,Saskatoon,SK,S7H 1V8,['306-343-1606']
"

Yorkton Pharmacy


",398 Broadway St W,Yorkton,SK,S3N 0P1,['306-782-6630']
"

Save-On-Foods Pharmacy


",126 Kensington Blvd,Saskatoon,SK,S7L 6V7,['306-974-9800']
"

Hearn's Westview Pharmacy


",265 Bradbrooke Dr,Yorkton,SK,S3N 3L3,['306-783-4331']
"

Shoppers Drug Mart


",170-3010 Preston Ave,Saskatoon,SK,S7T 0V2,['306-934-6934']
"

The Medicine Shoppe Pharmacy


",10-2401 Preston Ave S,Saskatoon,SK,S7J 2G3,['306-979-2265']
"

Nanogram Pharmacy


",130-306 Wellman Lane,Saskatoon,SK,S7T 0J1,['306-657-4242']
"

Sobeys Pharmacy


",3100 Preston Ave,Saskatoon,SK,S7T 0V1,['306-244-6320']
"

Pharmasave (Stonebridge)


",50-3211 Preston Ave,Saskatoon,SK,S7T 1C9,['306-384-1600']
"

Pharmacy First


",28-118 Cope Cres,Saskatoon,SK,S7T 0X3,['306-933-3100']
"

Stonebridge Pharmacy


",2-215 Stonebridge Blvd,Saskatoon,SK,S7T 0G3,['306-649-4649']
"

Saskatoon Family Pharmacy Ltd


",120-415 Wellman Cres,Saskatoon,SK,S7T 0J1,['306-668-4777']
"

Lundar Pharmacy Ltd


",18 Main St,Lundar,MB,R0C 1Y0,['204-762-5431']
"

Slave Lake Apple Drugs


",108 6 Ave NW,Slave Lake,AB,T0G 2A1,['780-849-9443']
"

Guardian - Pine Pharmacy


",22 Pine St,Pine Falls,MB,R0E 1M0,['204-367-2611']
"

Guardian - Pine Health Community Health


","37 Maple St,P1 61",Pine Falls,MB,R0E 1M0,['204-367-2807']
"

Rexall


",233 Main St,Slave Lake,AB,T0G 2A0,['780-849-4005']
"

Barton's Apple Drugs


",211 Main St S SS 3,Slave Lake,AB,T0G 2A3,['780-849-3828']
"

Reischeks Pharmacy


",607 Burrows Rd,Mccreary,MB,R0J 1B0,['204-835-2449']
"

Guardian - Taylor Pharmacy Ltd


",50 Centre St,Gimli,MB,R0C 1B0,['204-642-8170']
"

Loblaw Pharmacy


",100 Main St,Slave Lake,AB,T0G 2A3,['780-849-2626']
"

Pharmasave


",45 Centre St,Gimli,MB,R0C 1B0,['204-642-5504']
"

Shoppers Drug Mart


",300-1500 Main Street St SW,Slave Lake,AB,T0G 2A4,['780-849-4556']
"

The Medicine Shoppe Pharmacy


",102-102 6 Avenue SW,Slave Lake,AB,T0G 2A3,['780-849-2896']
"

Remedy'sRx - Cut Knife Pharmacy


",204 Broad St,Cut Knife,SK,S0M 0N0,['306-398-2372']
"

Shanes I.D.A. Pharmacy


",37 Wheatland Ave,Smoky Lake,AB,T0A 3C0,['780-656-3945']
"

1900943 Alberta Ltd


",134 White Earth St,Smoky Lake,AB,T0A 3C0,['780-656-2376']
"

Walmart


",601-1500 Main St S,Slave Lake,AB,T0G 2A3,['780-849-9549']
"

Fort Alexander Pharmacy


",A 50017 Pth 11,Fort Alexander Indian Rsve,MB,R0E 0P0,['204-367-9900']
"

Iqaluit Valupharm Drugs


",PO Box 4211,Iqaluit,NU,X0A 1H0,['867-979-0655']
"

Value Drug Mart


",4939 50 Ave,Vermilion,AB,T9X 1A6,['780-853-5316']
"

Shoppers Drug Mart


",5009 50th Avenue,Vermilion,AB,T9X 1A7,"['780-853-5672', '1-800-746-7737']"
"

Shoppers Drug Mart


",5009 50 Ave,Vermilion,AB,T9X 1A7,['780-853-5631']
"

Pioneer Drugs


",4806 50 St,Vermilion,AB,T9X 1M3,['780-927-3142']
"

Guardian - Ear Falls Pharmacy


",1273 105 Hwy,Ear Falls,ON,P0V 1T0,['807-222-2038']
"

I.D.A. - Two Hills Pharmacy


",5019 51 Street,Two Hills,AB,T0B 4K0,['780-657-3530']
"

I.D.A. - Manning Pharmacy


",403 Main St,Manning,AB,T0H 2M0,['780-836-3043']
"

Value Drug Mart


",403 Main St,Manning,AB,T0H 2M0,['780-836-3043']
"

Raymore Pharmacy


",112 Main St,Raymore,SK,S0A 3J0,['306-746-2151']
"

Nations First Pharmacy


",102-19 Pine St,Pine Falls,MB,R0E 1M0,['204-367-8899']
"

Nokomis Pharmacy


",112 Main St,Nokomis,SK,S0G 3R0,['306-528-2240']
"

Winnipeg Beach Pharmacy


",Suite F-54 Main St,Winnipeg Beach,MB,R0C 3G0,['204-389-3971']
"

Sametz Pharmacy


",413 Main St N,Ituna,SK,S0A 1N0,['306-795-2271']
"

Andrew Pharmacy


",5022 51 St,Andrew,AB,T0B 0C0,['780-365-2034']
"

Pharmasave


",219 Kaiser William Ave E,Langenburg,SK,S0A 2A0,['306-743-2333']
"

Manville I.D.A. Pharmacy


",5025 50th Street,Mannville,AB,T0B 2W0,['780-763-3771']
"

Reavie's Pharmacy


",243 Main St N,Russell,MB,R0J 1W0,['204-773-2244']
"

Thorhild Drug Store


",722 1 St,Thorhild,AB,T0A 3J0,['780-398-3883']
"

Wilkie Pharmacy Ltd


",109 2nd Ave E,Wilkie,SK,S0K 4W0,['306-843-2462']
"

Thorhild Drug Store


",Unavailable,Thorhild,AB,T0A 3J0,['780-398-2545']
"

Ingham Pharmacy


",29 Park Ave,Lac Du Bonnet,MB,R0E 1A0,['204-345-2232']
"

Pinawa Pharmacy


",40 Burrows Rd,Pinawa,MB,R0E 1L0,['204-753-2324']
"

Whitemouth Pharmacy


",A-159 Railway av,Whitemouth,MB,R0E 2G0,['204-348-3334']
"

Whitemouth Fellowship Church


",28 First St,Whitemouth,MB,R0E 2G0,['204-348-2453']
"

Ingham Pharmacy


",29 Park Ave,Lac Du Bonnet,MB,R0E 1A0,['204-345-2232']
"

Guardian - Rossburn Pharmacy


",23 Main St N,Rossburn,MB,R0J 1V0,['204-859-2705']
"

Guardian - Mountain Park Pharmacy


",47 Main St W,Erickson,MB,R0J 0P0,['204-636-2361']
"

Loblaw Pharmacy


",100 Halifax Ave W,Melville,SK,S0A 2P0,['306-728-6615']
"

St Laurent Pharmacy


",Lot 835 PTH 6,St Laurent,MB,R0C 2S0,['204-646-2855']
"

I.D.A. - Bon Pharmacy


",2 Bear Rd,Scanterbury,MB,R0E 1W0,['204-766-2336']
"

Royal Drug Mart


",135 3rd Ave E,Melville,SK,S0A 2P0,['306-728-5625']
"

Shoppers Drug Mart


",44 Main St,Teulon,MB,R0C 3B0,['204-886-2814']
"

Pharmasave


",156 2nd Ave E,Melville,SK,S0A 2P0,['306-728-4556']
"

Midway Pharmacy


",133 Washington Ave,Davidson,SK,S0G 1A0,['306-567-3240']
"

Leslie's Drug Store


",205 Main St,Biggar,SK,S0K 0M0,['306-948-3397']
"

Pharmasave Drugs


",215 Main St,Biggar,SK,S0K 0M0,['306-948-3315']
"

Biggar Guardian Pharmacy


",307 Main St,Biggar,SK,S0K 0M0,['306-948-3784']
"

The Medicine Shoppe Pharmacy


",4910 50 Ave,Vegreville,AB,T9C 1R1,['780-632-6337']
"

Value Drug Mart


",134-4925 50 Ave,Vegreville,AB,T9C 1R4,['780-632-7660']
"

DRUGStore Pharmacy


",4734 50th Avenue,Vegreville,AB,T9C 1L1,['780-603-2610']
"

Royal Street Chemmart Pharmacy Ltd


",205 Royal St,Imperial,SK,S0G 2J0,['306-963-2110']
"

Walmart


",6809 16A Hwy W,Vegreville,AB,T9C 0A2,['780-632-7487']
"

Jj's Value Drug Mart


",205-5341 50 Ave,Vegreville,AB,T9C 0A9,['587-790-7777']
"

Walmart Supercentre


",6809 Hwy 16A W,Vegreville,AB,T9C 0A2,['780-632-6044']
"

Guardian Drugs


",4926 49 St,Redwater,AB,T0A 2W0,['780-942-3615']
"

Shane's Guardian Pharmacy


",4926 49 Street,Redwater,AB,T0A 2W0,['780-942-3615']
"

Guardian - Royal Care Mundare Pharmacy


",5119 50 Street,Mundare,AB,T0B 3H0,['780-764-3036']
"

Mint Health + Drugs


",10013 100th Ave,Peace River,AB,T8S 1S6,['780-624-1200']
"

Value Drug Mart


",10027 100 St,Peace River,AB,T8S 1B2,['780-624-2612']
"

Value Drug Mart


",5030 50 Ave,Lamont,AB,T0B 2R0,['780-895-2411']
"

Lamont County Pharmacy


",5122 50 Ave,Lamont,AB,T0B 2R0,['780-579-2405']
"

Lamont County Pharmacy


",5122 50 Ave,Lamont,AB,T0B 2R0,['780-579-0017']
"

Walmart Supercentre


",9701 78th Street,Peace River,AB,T8S 0A3,['780-624-8970']
"

The Medicine Shoppe Pharmacy


",7900 99 Ave,Peace River,AB,T8S 1Y7,['780-624-3784']
"

Shoppers Drug Mart


",9925 78 Street,Peace River,AB,T8S 1Z9,['780-624-2555']
"

Erin's I.D.A. Pharmacy


",422 Main St,Esterhazy,SK,S0A 0X0,['306-745-2525']
"

Sapara's Drug Mart Ltd


",434 Main St,Esterhazy,SK,S0A 0X0,['306-745-6662']
"

Pharmasave


",414 Main St,Esterhazy,SK,S0A 0X0,['306-745-2022']
"

Bruderheim Pharmacy


",4901 Queen St,Bruderheim,AB,T0B 0S0,['780-575-3000']
"

Shoal Lake Pharmacy Ltd


",355 Station Rd,Shoal Lake,MB,R0J 1Z0,['204-759-2300']
"

Sexsmith Pharmacy


",10203 99 Ave,Sexsmith,AB,T0H 3C0,['780-568-3111']
"

Walmart Supercentre


",1016 Manitoba Ave,Selkirk,MB,R1A 4M1,['204-785-9010']
"

Loblaw Pharmacy


",10851-100 Street,Westlock,AB,T7P 2R5,['780-349-7061']
"

Remedy'sRx - Peguis Pharmacy


",103-620 Manitoba Ave,Selkirk,MB,R1A 0Z4,['204-482-8353']
"

Westlock Prescription Centre


",10124 107 St,Westlock,AB,T7P 1X3,['780-349-2882']
"

Shoppers Drug Mart


",10015 107 St,Westlock,AB,T7P 2K7,['780-349-3388']
"

Walmart Supercentre


",2901 13th Avenue,Wainwright,AB,T9W 0A1,"['780-842-3166', '1-800-328-0402']"
"

Rexall Drug Store


",10004 107th St,Westlock,AB,T7P 2K8,['780-349-4891']
"

Rexall


",10004 107 St,Westlock,AB,T7P 2K8,['780-349-5417']
"

Rexall


",10703 100 Ave,Westlock,AB,T7P 2J5,['780-349-3121']
"

Safeway Pharmacy


",318 Manitoba Ave,Selkirk,MB,R1A 0Y7,['204-482-8887']
"

Safeway


",318 Manitoba Ave,Selkirk,MB,R1A 0Y7,"['204-482-5775', '1-800-723-3929']"
"

Medicine Bottle Rexall


",10404 100 Ave,Westlock,AB,T7P 1T6,['780-349-3022']
"

Prairie Pharmacy


",110 Stanley St,Cupar,SK,S0G 0Y0,['306-723-4212']
"

DRUGStore Pharmacy


",366 Main St,Selkirk,MB,R1A 2J7,['204-482-2900']
"

Rexall


",366A Main St,Selkirk,MB,R1A 2J7,['204-482-6003']
"

Safeway


",Unavailable,Selkirk,MB,Unavailable,['1-888-391-9759']
"

Super Thrifty Pharmacy


",362 Eveline St,Selkirk,MB,R1A 1N3,['204-482-3641']
"

I.D.A. - Northway Pharmacy Selkirk


",339A Main St,Selkirk,MB,R1A 1T3,['204-785-2938']
"

Selkirk Medical Remedy'sRx


",24-353 Eveline St,Selkirk,MB,R1A 1N1,['204-482-8913']
"

Shoppers Drug Mart


",353 Eveline St,Selkirk,MB,R1A 1N1,['204-482-4238']
"

DRUGStore Pharmacy


",2601 14 Avenue,Wainwright,AB,T9W 1V5,['780-806-5110']
"

Shoppers Drug Mart


",230 Main St,Selkirk,MB,R1A 1R9,"['204-482-5600', '1-800-746-7737']"
"

Denwood Pharmacy Ltd


",621 10 St,Wainwright,AB,T9W 1P2,['780-806-2203']
"

Value Drug Mart


",306 10 St,Wainwright,AB,T9W 1P6,['780-842-4488']
"

Wainwright Value Drug Mart & Hearing Centre


",306 10 St,Wainwright,AB,T9W 1P6,['780-806-5885']
"

Guardian - Gladstone Pharmacy


",25 Dennis St,Gladstone,MB,R0J 0T0,['204-385-2051']
"

Rexall Drug Store


",118 10 St,Wainwright,AB,T9W 1P8,['780-842-2991']
"

Wainwright I D A Pharmacy


",118 10 St,Wainwright,AB,T9W 1P8,['780-842-4898']
"

Rexall


",118 10 Street,Wainwright,AB,T9W 1P8,['780-842-3414']
"

Baber's Pharmasave


",130 Main St,Balcarres,SK,S0G 0C0,['306-334-2650']
"

MacGregor Pharmacy


",26 Hampton St E,Macgregor,MB,R0H 0R0,['204-685-3069']
"

Birtle Pharmacy After Hours


",Unavailable,Birtle,MB,Unavailable,['204-847-0003']
"

Birtle Pharmacy


",808 Main St,Birtle,MB,R0M 0C0,['204-842-5333']
"

Rexall


",1-330 3rd Avenue S,Stonewall,MB,R0C 2Z0,['204-467-8137']
"

I.D.A. - Stonewall Pharmacy


",17-333 Main St,Stonewall,MB,R0C 2Z0,['204-467-8385']
"

Quarry Ridge Pharmacy


",469 1st Street W,Stonewall,MB,R0C 2Z0,['204-467-7333']
"

Rockwood Pharmacy Inc


",5-405 3rd Ave S,Stonewall,MB,R0C 2Z0,['204-467-5167']
"

Strasbourg Pharmacy


",201 Mountain St,Strasbourg,SK,S0G 4V0,['306-725-3224']
"

Yakimets Pharmacy and Care (Guardian)


",101-10101 86th Avenue,Fort Saskatchewan,AB,T8L 4P4,['780-998-7722']
"

Neepawa Pharmacy


",Suite A-225 Ellen St,Neepawa,MB,R0J 1H0,['204-476-2315']
"

Harris Pharmacy Ltd


",424 Mountain Ave,Neepawa,MB,R0J 1H0,"['204-476-2888', '1-888-798-9378']"
"

Harris Pharmacy Ltd Home Health Care


",424 Mountain Ave,Neepawa,MB,R0J 1H0,['204-476-3157']
"

Safeway


",498 Mountain Ave,Neepawa,MB,R0J 1H0,"['204-476-5931', '1-800-723-3929']"
"

Gibbons Remedy'sRx


",4728 50th Ave Box 1410,Gibbons,AB,T0A 1N0,['780-923-2100']
"

Southey Drugs Ltd


",170 Keats St,Southey,SK,S0G 4P0,['306-726-2024']
"

I.D.A. - Minnedosa Pharmacy


",77 Main St S,Minnedosa,MB,R0J 1E0,['204-867-2071']
"

Gibbons Guardian Pharmacy


",4715 50 Ave,Gibbons,AB,T0A 1N0,['780-923-3200']
"

Rexall Drug Store


",5008 54 AVE,Grimshaw,AB,T0H 1W0,['780-332-4736']
"

Rexall


",5008 54th Ave,Grimshaw,AB,T0H 1W0,['780-332-4736']
"

Lifestyle Pharmacy


",5571 Hwy 9,St Andrews,MB,R1A 2X8,['204-504-5500']
"

Guardian - Beausejour Pharmacy


",635 Park Ave,Beausejour,MB,R0E 0C0,['204-268-2500']
"

Rexall


",651 Park Ave,Beausejour,MB,R0E 0C0,['204-268-1434']
"

Beausejour Guardian Pharmacy


",635 Park Ave,Unavailable,MB,R0E 0C0,['204-268-2323']
"

Bon Accord Pharmacy


",4948 50 Ave,Bon Accord,AB,T0A 0K0,['780-565-0033']
"

McLennan I.D.A. Pharmacy


",15 1st Avenue NW,McLennan,AB,T0H 2L0,['780-324-3004']
"

Pharmasave 412


",203 Broadway St W,Fort Qu'Appelle,SK,S0G 1S0,['306-332-5717']
"

Valley Drug Mart


",103 Broadway St W,Fort Qu'Appelle,SK,S0G 1S0,['306-332-5663']
"

Pharmasave


",137 Central Ave,Montmartre,SK,S0G 3M0,['306-424-2771']
"

I.D.A. KrauseCare Pharmacy


",310 Broadway St,Fort Qu'appelle,SK,S0G 1S0,['306-332-1222']
"

Viking Pharmacy Ltd


",5305 51 St,Viking,AB,T0B 4N0,['780-336-3380']
"

Crossroads I D A Pharmacy


",5119 50 St,Viking,AB,T0B 4N0,['780-336-3126']
"

Fort Station Pharmacy


",629-10490 98 Ave,Fort Saskatchewan,AB,T8L 0V6,['780-589-1314']
"

I.D.A. - Rx Drug Mart


",5004 53 Ave,High Prairie,AB,T0G 1E0,['780-523-3874']
"

I.D.A. - Rx Drug Mart High Prairie 49


",5109 49 St,High Prairie,AB,T0G 1E0,['780-523-5885']
"

The Medicine Shoppe Pharmacy


",4409 Pleasantview Dr,High Prairie,AB,T0G 1E0,['780-523-3138']
"

The Medicine Shop


",4409 Pleasantview Dr,High Prairie,AB,T0G 1E0,['780-523-0046']
"

The Medicine Shoppe Pharmacy


","102-9940, 99 Ave",Fort Saskatchewan,AB,T8L 4G8,['780-998-1120']
"

Outlook Medical Pharmacy


",219 Franklin St,Outlook,SK,S0L 2N0,['306-867-1202']
"

Walmart Supercentre


",9551 87 Avenue,Fort Saskatchewan,AB,T8L 4N3,['780-998-7700']
"

Sherridon Pharmacy


",9425 94 Ave,Fort Saskatchewan,AB,T8L 1N6,['780-998-5220']
"

Safeway Pharmacy


",9450 86th Avenue,Fort Saskatchewan,AB,T8L 4P4,['780-998-3995']
"

Safeway


",9450 86 Avenue,Fort Saskatchewan,AB,T8L 4P4,"['780-998-4065', '1-800-723-3929']"
"

Loblaw Pharmacy


",100-8802 100 Street,Fort Saskatchewan,AB,T8L 4R2,['780-997-2615']
"

Shoppers Drug Mart


",9360 Southfort Dr,Fort Saskatchewan,AB,T8L 0C5,['780-998-2236']
"

Shoppers Drug Mart


",Unavailable,Fort Saskatchewan,AB,T8L 0C5,['780-998-2239']
"

I.D.A. - Berwyn Pharmacy


",5115 51 Street,Berwyn,AB,T0H 0E0,['780-338-3071']
"

Rexall


",116 Town Crest Rd,Fort Saskatchewan,AB,T8L 0G7,['780-998-3217']
"

Super Thrifty Drug Mart


",110 Ellice St,Rocanville,SK,S0A 3L0,['306-645-2633']
"

Shoppers Drug Mart


",100 Westpark Blvd,Fort Saskatchewan,AB,T8L 0B2,['780-998-1821']
"

Delta Co-Op


",Highway 31,Macklin,SK,S0L 2C0,['306-753-2221']
"

Delta Co-Op


",4801 Herald St,Macklin,SK,S0L 2C0,['306-753-2033']
"

East St Paul Pharmacy


",4-3014 Henderson Hwy,East St Paul,MB,R2E 0H9,['204-661-3333']
"

Post Office


","5018, 50 St",Ryley,AB,T0B 4A0,['780-663-3669']
"

Rexall


",4912 Plaza Ave,Swan Hills,AB,T0G 2C0,['780-333-2722']
"

Sobeys Pharmacy


",3156 Birds Hill Rd,East St Paul,MB,R2E 1G9,['204-654-1899']
"

Rx Compounding Pharmacy Remedy'sRx


",2665 Henderson Hwy,East St Paul,MB,R2E 0C4,['204-306-4445']
"

Guardian Pharmacy


",5222 50 Street,Tofield,AB,T0B 4J0,['780-662-3108']
"

McLennan Ida Pharmacy


",5 Main St SW,Falher,AB,T0H 1M0,['780-837-2181']
"

Patient Advocate Pharmacy Post Office


",17-2595 Main St,Winnipeg,MB,R2V 4W3,['204-338-5135']
"

Sobeys Pharmacy


",2575 Main St,Winnipeg,MB,R2V 4W3,['204-339-1113']
"

Guardian Drugs Medicine Chest


",10013 100 Street,Morinville,AB,T8R 0G1,['780-939-0176']
"

Shoppers Drug Mart


",2512 Main St,Winnipeg,MB,R2V 4Y1,['204-334-6008']
"

I.D.A. - Champlain Pharmacy


",111-9918 100 Street,Morinville,AB,T8R 1K8,['780-939-2438']
"

Falher I.D.A. Pharmacy


",5 Main Street SW,Falher,AB,T0H 1M0,['780-837-2112']
"

Loblaw Pharmacy


",8901 100 Street,Morinville,AB,T8R 1V5,['780-939-2915']
"

Oakfield Pharmacy


",105-1021 Court Ave,Winnipeg,MB,R2P 1V7,['204-338-6355']
"

Winnipeg North Pharmacy


",3-2358 McPhillips St,Winnipeg,MB,R2V 4J6,['204-222-2244']
"

Walmart Supercentre


",2370 McPhillips St,Winnipeg,MB,R2V 4J6,['204-338-0341']
"

Tache Pharmacy at Seven Oaks Hospital


",2300 McPhillips St,Winnipeg,MB,R2V 3M3,['204-633-2233']
"

Rexall


",1795 Henderson Hwy,Winnipeg,MB,R2G 1P3,['204-339-1595']
"

Shoppers Drug Mart


",102-1050 Leila Ave,Winnipeg,MB,R2P 1W6,"['204-339-9221', '1-800-746-7737']"
"

Morinville Pharmacy


",10507 100 Ave Suite 104A,Morinville,AB,T8R 1A2,['780-572-6155']
"

Medicare Clinic Pharmacy


",1287 Jefferson Ave,Winnipeg,MB,R2P 1S7,['204-414-1139']
"

Kingsbury Pharmacy Inc


",7-1099 Kingsbury Ave,Winnipeg,MB,R2P 2P9,['204-633-5499']
"

Clayman Pharmacy


",1-1099 Kingsbury Ave,Winnipeg,MB,R2P 2P9,['204-261-4214']
"

I.D.A. Brintnell Pharmacy & Travel Clinic


",4303 167th Avenue,Edmonton,AB,T5Y 3Y2,['587-525-8650']
"

Pharmacy Professionals Inc


",16534 59A St Nw,Edmonton,AB,T5Y 3S9,['825-400-9801']
"

Springfield Remedy'sRx


",2-30 Co-Op Dr,Oakbank,MB,R0E 1J0,['204-444-4200']
"

Northway Pharmacy Seven Oaks


",632 Leila Ave,Winnipeg,MB,R2V 3N7,['204-560-0727']
"

Loblaw Pharmacy


",2132 McPhillips St,Winnipeg,MB,R2V 3C8,['204-631-6226']
"

Rexall


",2110 Main St,Winnipeg,MB,R2V 3G1,['204-339-5622']
"

Arrowwood Pharmacy


",2-925 Headmaster Row,Winnipeg,MB,R2G 4J4,['204-615-4633']
"

Arrowood Pharmacy


",2-925 Headmaster Row,Winnipeg,MB,R2G 4J4,['204-615-4634']
"

Safeway Pharmacy


",1441 Henderson Hwy,Winnipeg,MB,R2G 1N3,['204-338-0225']
"

Safeway


",1441 Henderson Hwy,Winnipeg,MB,R2G 1N4,"['204-338-4600', '1-800-723-3929']"
"

Pharmasave


",1-559 Main St,Oakbank,MB,R0E 1J1,['204-444-3030']
"

Mandalay Pharmacy


",70 Mandalay Dr,Winnipeg,MB,R2P 1V8,['204-633-9343']
"

I.D.A. - River East Pharmacy


",1417A Henderson Hwy,Winnipeg,MB,R2G 1N3,['204-339-9400']
"

Super Thrifty Drug Mart


",38 4th St SE,Hamiota,MB,R0M 0T0,['204-764-2140']
"

Safeway Pharmacy


",920 Jefferson Ave,Winnipeg,MB,R2P 1W1,"['204-694-1829', '1-800-723-3929']"
"

Safeway


",920 Jefferson Ave,Winnipeg,MB,R2P 1W1,"['204-694-4125', '1-800-723-3929']"
"

FreshCo Pharmacy


",920 Jefferson Ave,Winnipeg,MB,R2P 1W1,['204-694-1829']
"

Guardian Drugs Medicine Chest


",10013 100th St,Morinville,AB,T8R 1R5,['780-939-2898']
"

Save-On-Foods Pharmacy


",1399 McPhillips Street,Winnipeg,MB,R2V 3C4,['204-334-1075']
"

Keewatin Centre & Pharmacy


",6-998 Keewatin St,Winnipeg,MB,R2R 2V1,['204-615-0012']
"

Keewatin Medical Centre & Pharmacy


",6-998 Keewatin St,Winnipeg,MB,R2R 2V1,['204-615-0010']
"

Shoppers Drug Mart


",9980 137th Avenue NW,Edmonton,AB,T5E 6W1,['780-406-7397']
"

I.D.A. in Griesbach


",6881 Ad Astra Blvd Nw,Edmonton,AB,T5E 6X3,['780-540-8585']
"

The Medicine Shoppe Pharmacy


","1399 McPhillips St,10",Winnipeg,MB,R2V 3C4,['204-338-4455']
"

Shoppers Drug Mart


",50-1128 Henderson Hwy,Winnipeg,MB,R2G 3Z7,"['204-339-8173', '1-800-746-7737']"
"

I.D.A. - LifeSmart Pharmacy


",1828-1848 Main St,Winnipeg,MB,R2V 3H2,['204-417-9544']
"

Remedy'sRx - Maples Pharmacy


",3A-1353 McPhillips St,Winnipeg,MB,R2X 3A6,['204-338-1733']
"

Rothesay Pharmacy


",1202 Rothesay St,Winnipeg,MB,R2G 1T7,['204-416-7770']
"

Rothesay Pharmacy


",1202 Rothesay St,Winnipeg,MB,R2G 1T7,['204-421-6664']
"

Luseland Pharmacy Ltd


",502 Grand Ave,Luseland,SK,S0L 2A0,['306-372-4244']
"

Lexiem Pharmacy


",1050 Henderson Hwy,Winnipeg,MB,R2K 2M5,['204-339-7985']
"

Rossmere Pharmacy Inc


",1046D Henderson Hwy,Winnipeg,MB,R2K 2M5,['204-615-6050']
"

West Kildonan Pharmacy


",1750 Main St,West Kildonan,MB,R2V 1Z7,['204-339-2025']
"

Shoppers Drug Mart


",795 Keewatin St,Winnipeg,MB,R2X 3B9,['204-694-8209']
"

Safeway Pharmacy


",850 Keewatin St,Winnipeg,MB,R2R 0Z5,['204-694-4419']
"

Safeway


",850 Keewatin St,Winnipeg,MB,R2R 0Z5,"['204-694-5087', '1-800-723-3929']"
"

Sobeys Pharmacy


",965 Henderson Hwy,Winnipeg,MB,R2K 2M2,['204-668-3277']
"

Rexall


",963 Henderson Hwy,Winnipeg,MB,R2K 2M3,['204-982-4130']
"

Manila Pharmacy


",1054 McPhillips St,Winnipeg,MB,R2X 2K9,['204-505-8224']
"

Manila Pharmacy


",1054 McPhillips St,Winnipeg,MB,R2X 2K9,['204-505-1580']
"

Sioux Lookout Remedy'sRx


",75 King,Sioux Lookout,ON,P8T 1B1,['807-737-4998']
"

Gateway Remedy'sRx Pharmacy


",4-1115 Gateway Rd,Winnipeg,MB,R2G 0A5,['204-668-0015']
"

Rexall


",60A Front St,Sioux Lookout,ON,P8T 1A3,['807-737-1100']
"

Shoppers Drug Mart


",1017 McPhillips St,Winnipeg,MB,R2X 2K6,"['204-586-8091', '1-800-746-7737']"
"

Procurity Inc


",160 Eagle Dr,Winnipeg,MB,R2R 1V5,"['204-632-5506', '1-800-632-5506']"
"

CounterCare Pharmacy


",160 Eagle Dr,Winnipeg,MB,R2R 1V5,['204-632-5506']
"

Counterwise Drug Mart


",160 Eagle Dr,Winnipeg,MB,R2R 1V5,['204-632-5506']
"

Evergreen Pharmacy Ltd


",36 Evergreen Pk Nw,Edmonton,AB,T5Y 4M2,['587-523-0900']
"

I.D.A. Community Pharmacy


",36 Evergreen Pk Nw,Edmonton,AB,T5Y 4M2,['587-523-0900']
"

Ray of Hope Pharmacy


",1-775 Henderson Hwy,Winnipeg,MB,R2K 2K9,['204-800-2593']
"

Loblaw Pharmacy


",1035 Gateway Rd,Winnipeg,MB,R2K 4C1,['204-987-7530']
"

Safeway Pharmacy


",731 Henderson Hwy,Winnipeg,MB,R2K 2K4,"['204-661-9532', '1-800-723-3929']"
"

Safeway


",731 Henderson Hwy,Winnipeg,MB,R2K 2K4,['204-667-4944']
"

Freshco


",731 Henderson Hwy,Winnipeg,MB,R2K 2K4,['431-489-1121']
"

Machray Pharmacy


",561 Machray Ave,Winnipeg,MB,R2W 1B1,['204-615-2215']
"

Machray Pharmacy


",561 Machray Ave,Winnipeg,MB,R2W 1B1,['204-615-2225']
"

I.D.A. - Rx Drug Mart Barrhead


",5028 50 Street,Barrhead,AB,T7N 1A2,['780-674-2121']
"

Walmart Supercentre


",2348 Sissons Dr,Winnipeg,MB,R1N 0G5,['204-885-4470']
"

Freson Bros


",Unavailable,Barrhead,AB,T7N 1B8,['780-674-3784']
"

North Point Pharmacy


",1/2-1412 Main St,Winnipeg,MB,R2W 3V4,['204-505-0560']
"

10047077 Manitoba Ltd


",308 Saskatchewan Ave E,Portage La Prairie,MB,R1N 0K8,['204-239-6923']
"

The Medicine Shoppe Pharmacy


",3-602 Saskatchewan Ave W,Portage La Prairie,MB,R1N 0M6,['204-239-5100']
"

Remedy'sRx - Hills Drug Store


",200 Saskatchewan Ave E,Portage La Prairie,MB,R1N 0K9,['204-857-4631']
"

Shoppers Drug Mart


",124 Saskatchewan Ave E,Portage La Prairie,MB,R1N 0L1,['204-857-7891']
"

Ebbeling Pharmacy


",722 Watt St,East Kildonan,MB,R2K 2S9,['204-668-1593']
"

Safeway Pharmacy


",594 Mountain Ave,Winnipeg,MB,R2W 1L2,['204-589-0788']
"

Safeway


",594 Mountain Ave,Winnipeg,MB,R2W 1L2,"['204-589-2588', '1-800-723-3929']"
"

Aberdeen Pharmacy


",1553 Arlington St,Winnipeg,MB,R2X 1V3,['204-589-2993']
"

Gateway Pharmacy


",4-1115 Gateway,East Kildonan,MB,Unavailable,['204-224-1115']
"

Alentex Pharmacy


",1832B 12 King Edward St,Winnipeg,MB,R2R 0N1,['204-694-5516']
"

Alentex Pharmacy


",12B-1832 King Edward St,St James,MB,R2R 0N1,['204-784-2858']
"

Safeway Pharmacy


",2450 Saskatchewan Ave W,Portage La Prairie,MB,R1N 3N8,['204-239-1407']
"

Remedy'sRx - Hills Clinic Pharmacy


",103-140 9th Street SE,Portage La Prairie,MB,R1N 3V5,['204-239-1368']
"

Provost I.D.A. Drug Store


",5010 50 Street,Provost,AB,T0B 3S0,['780-753-2792']
"

Fyfes Friendly Pharmacy


",5101 50 St,Barrhead,AB,T7N 1A4,['780-674-5808']
"

IGA


",5020 49 St,Barrhead,AB,T7N 1M1,['780-674-2011']
"

The Medicine Shoppe Pharmacy


",5020 49 Street,Barrhead,AB,T7N 1A4,['780-674-3784']
"

Rita's Apothecary & Home Healthcare Ltd


",5036A 50 St,Barrhead,AB,T7N 1A4,['780-674-6656']
"

Lucie Pharmacy


",441 Henderson Hwy,Winnipeg,MB,R2K 2H5,['204-334-4377']
"

Rexall


",1794 Logan Ave,Winnipeg,MB,R3E 1S6,['204-982-4110']
"

Guardian Westbrook Pharmacy


",1794 Logan Ave,Winnipeg,MB,R3E 1S6,['204-633-6700']
"

White Cross Pharmacy


",5006 Crescent Rd W,Portage La Prairie,MB,R1N 0Y6,['204-857-9666']
"

Empire Drugs Ltd


",801 Selkirk Ave,Winnipeg,MB,R2W 2N5,['204-586-2212']
"

Pembina West Co-op


",4711 49 St,Barrhead,AB,T7N 1G8,['780-674-4846']
"

Shoppers Drug Mart


",1155C Main St,Winnipeg,MB,R2W 3S4,"['204-989-8700', '1-800-746-7737']"
"

Good Neighbor Pharmacy


",634 Selkirk Ave,Winnipeg,MB,R2W 2N1,['204-582-7007']
"

Red River Pharmacy (Carmen)


",139 Carmen Ave,Winnipeg,MB,R2L 0E5,['204-663-4670']
"

Redwood Drugs


",1076 Main St,Winnipeg,MB,R2W 5J3,['204-582-4655']
"

Guardian - Fyfe's Friendly Pharmacy


",5103 50 Street,Barrhead,AB,T7N 1G5,['780-674-2206']
"

Emad Pharmacy


",1074 Main St,Winnipeg,MB,R2W 5J3,['204-421-4002']
"

Northway Pharmacy Brothers Ltd


",542 Selkirk Ave,Winnipeg,MB,R2W 2M9,['204-586-2074']
"

Brown's Drug Store


",239 Henderson Hwy,Winnipeg,MB,R2L 1M1,['204-668-0793']
"

Northway Pharmacy Harbourview


",10-1320 Concordia Ave E,Winnipeg,MB,R3W 0G6,['204-799-8401']
"

Shoppers Drug Mart


",100-1155 Concordia,Winnipeg,MB,R2K 2M9,['204-669-1722']
"

I.D.A. - Mel's Pharmacy


",232 3rd Street,Craik,SK,S0G 0V0,['306-734-2215']
"

Sobeys Pharmacy


",50 Kildonan Green Dr,Winnipeg,MB,R3W 0H1,['204-222-6008']
"

Invivo Health Pharmacy


",354 Selkirk Ave,Winnipeg,MB,R2W 2M2,['204-505-6459']
"

Munroe Pharmacy


",525 London St,East Kildonan,MB,R2K 2Z4,['204-669-1267']
"

The Medicine Shoppe Pharmacy


",115-1100 Concordia Ave,Winnipeg,MB,R2K 4B8,['204-661-2121']
"

Apollo Pharmacy


",1200A-305 McPhillips St,Winnipeg,MB,R3E 3H9,['204-338-4984']
"

Springmeadow Medical Clinic & Pharmacy


",19-1783 Plessis Rd,Winnipeg,MB,R3W 1N3,['204-417-0028']
"

Main St Pharmacy


",968 Main St,Winnipeg,MB,R2W 3P5,['204-586-3333']
"

You! Pharmacy


",359 Johnson Ave W,Winnipeg,MB,R2L 0J2,['204-654-9505']
"

You Drugmart


",359 Johnson Ave W,Winnipeg,MB,R2L 0J2,['204-654-9499']
"

Shoppers Drug Mart


",201-1750 Plessis Rd,Winnipeg,MB,R3W 0H5,['204-222-3400']
"

Henderson Highway Pharmacy Ltd


",900 Main St,Winnipeg,MB,R2W 3P3,['204-586-1114']
"

Prescription Man


",906 Main St,Winnipeg,MB,R2W 3P3,['204-589-4444']
"

Canada Drug Mart


",906 Main St,Winnipeg,MB,R2W 3P3,['204-589-2222']
"

MediSystem Pharmacy


",26-1313 Border St,Winnipeg,MB,R3H 0X4,['204-784-2850']
"

C A R I Pharmacy


",893 Main St,Winnipeg,MB,R2W 3P2,['204-944-1764']
"

Rexall


",874 Main St,Winnipeg,MB,R2W 3P1,['204-943-5206']
"

Emerald Hills Pharmasave


",815-8005 Emerald Dr,Sherwood Park,AB,T8H 0P1,['780-570-0711']
"

Healthway Pharmacy


",862 Main St,Winnipeg,MB,R2W 3P1,['204-415-7575']
"

Care Innova Pharmacy


",3-1830 Dublin Ave,Winnipeg,MB,R3H 0H3,['204-694-2099']
"

Save-On-Foods Pharmacy


",4805 167th Ave. NW,Edmonton,AB,T5Y 0S4,['587-459-7683']
"

I.D.A. - Nairn Pharmacy


",297 Nairn Ave,Winnipeg,MB,R2L 0W8,['204-615-0202']
"

Medi-Care Pharmacy


",794 Main St,Winnipeg,MB,R2W 3N7,['204-589-8205']
"

Shoppers Drug Mart


",5351 167 Ave NW,Edmonton,AB,T5Y 0L2,['780-478-7261']
"

Sobeys Pharmacy


",7 Reenders Dr,Winnipeg,MB,R2C 5K5,['204-669-5422']
"

United Clinic


",940 Sherbrook St,Winnipeg,MB,R3A 1N4,['204-615-7700']
"

Safeway


",1000 King Edward St,Winnipeg,MB,R3H 0R2,['204-633-5972']
"

Ray Pharmacy Plus


",181 Higgins Ave,Winnipeg,MB,R3B 3G1,['204-947-9384']
"

Guardian - Notre Dame Pharmacy


",1034 Notre Dame Ave,Winnipeg,MB,R3E 0N5,['204-612-5324']
"

Sobeys Pharmacy


",5119 167 Avenue NW,Edmonton,AB,T5Y 0L2,['780-478-1629']
"

Notre Dame Pharmacy


",1034 Notre Dame Ave,Winnipeg,MB,R3E 0N5,['204-779-0001']
"

Arlington Pharmacy


",X2-909 Notre Dame Ave,Winnipeg,MB,R3E 0M8,['204-505-5940']
"

Safeway


",500-1615 Regent Ave W,Winnipeg,MB,R2C 5C6,"['204-663-6862', '1-800-723-3929']"
"

FreshCo Pharmacy


",500-1615 Rgent Ave W,Winnipeg,MB,R2C 5C6,['204-663-6824']
"

Safeway Pharmacy


",654 Kildare Ave E,Winnipeg,MB,R2C 0P8,"['204-222-6948', '1-800-723-3929']"
"

Safeway


",654 Kildare Ave E,Winnipeg,MB,R2C 0P6,"['204-222-6902', '1-800-723-3929']"
"

Higgins Pharmacy


",670 Main St,Winnipeg,MB,R3B 1E4,['204-942-0333']
"

Via Verde Inc


",1205 Richard Ave,Winnipeg,MB,R3E 3H3,['204-477-1497']
"

Walmart Supercentre


",400-7000 Emerald Dr,Sherwood Park,AB,T8H 0P5,['780-464-4682']
"

I.D.A. - Meyers Drugs


",483 William Ave,Winnipeg,MB,R3A 0J5,"['204-943-1466', '1-866-433-7687']"
"

Medicine Point Pharmacy


",102-5016 162 Ave Nw,Edmonton,AB,T5Y 0E7,['780-250-0811']
"

Save-On-Foods Pharmacy


",4005 Clover Bar Road,Sherwood Park,AB,T8H 0M4,['780-417-0600']
"

Costco Wholesale


",1315 St James St,Winnipeg,MB,R3H 0K9,['204-788-4561']
"

Rexall


",1-1490 Plessis Rd,Winnipeg,MB,R2C 5R5,['204-222-4700']
"

Medic-x Pharmacy


",210 Pacific Ave,Winnipeg,MB,R3B 0M4,['204-942-3173']
"

Shoppers Drug Mart


",777 Sherbrook St,Winnipeg,MB,R3A 1M2,"['204-772-1317', '1-800-746-7737']"
"

Shoppers Drug Mart


","790 Sherbrook St,Unit 106",Winnipeg,MB,R3A 1M3,"['204-779-1996', '1-800-746-7737']"
"

Isabel Pharmacy


",110 Isabel St,Winnipeg,MB,R3A 1G4,['204-775-4488']
"

ARP Pharmacy


",505-180 King St,Winnipeg,MB,R3B 3P7,['204-947-0447']
"

Post Office


",777 Sherbrook St,Winnipeg,MB,R3A 1M2,"['204-772-1317', '1-800-267-1177']"
"

Guardian - 9 To 9 Care Pharmacy


",690 Notre Dame Ave,Winnipeg,MB,R3E 0L7,['204-775-9517']
"

Regent West Medical


",2-1579 Rgent Ave W,Winnipeg,MB,R2C 3B3,['204-221-4414']
"

Crossroads Pharmacy Ltd


",2-1579 Regent Ave W,Winnipeg,MB,R2C 3B3,['204-221-4645']
"

Save-On-Foods Pharmacy


",1555 Regent Ave. W,Winnipeg,MB,R2C 4J2,['204-661-2225']
"

Cinden Pharmacy


",Unavailable,Winnipeg,MB,Unavailable,['204-452-7585']
"

The Prescription Shop


",2-165 Osborne St,Winnipeg,MB,R3L 1Y7,['204-475-0010']
"

Rubicon Pharmacies


",402-1020 Lorimer Blvd,Winnipeg,MB,R3P 1C7,['204-615-2814']
"

Prana Pharmacy


",Unavailable,Winnipeg,MB,Unavailable,['204-777-1749']
"

Nairn Pharmacy & Clinic


",Unavailable,Winnipeg,MB,Unavailable,['204-417-6686']
"

Prana Pharmacy


",Unavailable,Winnipeg,MB,Unavailable,['204-777-1728']
"

Canada Safeway Limited


",Unavailable,Unavailable,Unavailable,Unavailable,['204-694-3718']
"

Safeway Pharmacy


",500 Manning Cross NW,Edmonton,AB,T5A 5A1,['780-475-2736']
"

Safeway


",500 Manning Cross NW,Edmonton,AB,T5A 5A1,"['780-475-2896', '1-800-723-3929']"
"

Shoppers Drug Mart


",20-4005 Clover Bar Rd,Sherwood Park,AB,T8H 0M4,['780-449-3319']
"

Shoppers Drug Mart


",2-360 Main St,Winnipeg,MB,R3C 3Z8,['204-956-0944']
"

The Canadian Pharmacy


",103-1780 Wellington Ave,Winnipeg,MB,R3H 1B3,['204-697-5910']
"

Shoppers Drug Mart


",32-1555 Regent Ave W,Winnipeg,MB,R2C 4J2,['204-661-8068']
"

Plessis Pharmacy


",15-801 Rgent Ave W,Winnipeg,MB,R2C 3A7,['204-960-7517']
"

Walmart Supercentre


",1576 Regent Ave W,Winnipeg,MB,R2C 3B4,['204-661-6956']
"

The Prescription Shop


",218 Regent Ave W,Winnipeg,MB,R2C 1R2,['204-222-7222']
"

Guardian - Regent Park Pharmacy


",18-701 Regent Ave W,Winnipeg,MB,R2C 1S3,['204-222-3257']
"

Prana Pharmacy


",208 Regent Ave W,Winnipeg,MB,R2C 1R2,['204-777-3093']
"

PharmaChoice


",15-801 Regent Ave W,Winnipeg,MB,R2C 3A7,['204-777-1468']
"

Loblaw Pharmacy


",1385 Sargent Ave,Winnipeg,MB,R3E 3P8,['204-784-7935']
"

Clareview Drug Mart


",14061 Victoria Trail NW,Edmonton,AB,T5Y 2B6,['780-473-0832']
"

Costco Wholesale


",1499 Regent Ave W,Winnipeg,MB,R2C 4M4,['204-654-3153']
"

Remedy'sRx - Careplus Transcona Pharmacy


",850 Regent Ave W,Winnipeg,MB,R2C 3A8,['204-222-5584']
"

Exchange District Pharmacy


",100-66 King St,Winnipeg,MB,R3B 1H6,['204-942-0573']
"

The Prescription Shop


",3-555 Balmoral St,Winnipeg,MB,R3B 2R2,['204-944-0954']
"

Loblaw Pharmacy


",1578 Regent Ave W,Winnipeg,MB,R2C 3B4,['204-654-5535']
"

Videl Clinic


",C-711 Sargent Ave,Winnipeg,MB,R3E 0B1,['204-775-5160']
"

Videl Pharmacy


",709 Sargent Ave,Winnipeg,MB,R3E 0B1,['204-774-0940']
"

I.D.A. - Danial Pharmacy


",2-505 Sargent Ave,Winnipeg,MB,R3B 1V9,['204-786-6800']
"

Shoppers Drug Mart


",Hiller Rd,Edmonton,AB,T5J 2G8,['825-202-6387']
"

Safeway


",499 River Ave,Winnipeg,MB,R3L 0C9,"['204-452-2276', '1-800-723-3929']"
"

Safeway


",3393 Portage Ave,Winnipeg,MB,R3K 2G7,"['204-888-3200', '1-800-723-3929']"
"

Parkwave Pharmacy


",Unavailable,Winnipeg,MB,Unavailable,['204-410-4350']
"

Canadian Meds Pharmacy


","266 Graham Avenue , Po Box 1074 Stn Main",Winnipeg,MB,R3C 2X4,['647-258-6406']
"

Walmart Supercentre


",1001 Empress Street,Winnipeg,MB,R3G 3P8,['204-452-8410']
"

Freshco


",600 Sargent Ave,Winnipeg,MB,R3E 0A1,['204-783-0154']
"

Safeway Pharmacy


",600 Sargent Ave,Winnipeg,MB,R3E 0A1,['204-775-2576']
"

Safeway


",600 Sargent Ave,Winnipeg,MB,R3E 0A1,"['204-783-0154', '1-800-723-3929']"
"

Freshco Pharmacy Sargent


",600 Sargent Ave,Winnipeg,MB,R3E 0A1,['204-775-2576']
"

SRx Pharmacy Winnipeg


",228F Waterfront Dr,Winnipeg,MB,R3B 0C5,['204-944-1208']
"

SRx Pharmacy


",228F Waterfront Dr,Winnipeg,MB,R3B 0C5,['204-944-1204']
"

Zoom Pharmacy


",B-405 Ellice Ave,Winnipeg,MB,R3B 2Y5,['204-306-1020']
"

Red River Pharmacy 3


",100-286 Smith St,Winnipeg,MB,R3C 1K4,['204-942-3253']
"

Red River Pharmacy


",100-286 Smith St,Winnipeg,MB,R3C 1K4,['204-219-0740']
"

Rexall


",13610 Victoria Trail NW,Edmonton,AB,T5A 5C9,['780-478-1967']
"

Pharmasave 377


",16636 71 St NW,Edmonton,AB,T5Z 0N5,['780-705-2528']
"

Crestview Pharmacy


",561 Ellice Ave,Winnipeg,MB,R3B 3C6,['204-975-1867']
"

Rexall


",5-101 Bremner Dr,Sherwood Park,AB,T8H 0M5,['780-417-6951']
"

Canada Drugs Ltd


",24 Terracon Pl,Winnipeg,MB,R2J 4G7,['204-949-1394']
"

ARP Pharmacy


",384 Portage Ave,Winnipeg,MB,R3C 0C7,['204-943-4446']
"

Celestial Pharmacy


",842 Ellice Ave,Winnipeg,MB,R3G 0C2,['204-615-1946']
"

PharmAzeem Pharmacy


",602 Ellice Ave,Winnipeg,MB,R3G 0A3,['204-975-3750']
"

Crestview Pharmacy


",561 Ellice Ave,Winnipeg,MB,R3B 3C6,['204-775-5556']
"

Crestview Pharmacy


",561 Ellice Ave,Winnipeg,MB,R3B 3C6,['204-784-0270']
"

Red River Pharmacy Ellice Ave


",724 Ellice Ave,Winnipeg,MB,R3G 0B4,['204-772-2115']
"

Rexall


",676 Portage Ave,Winnipeg,MB,R3G 0M4,['204-783-0151']
"

Shoppers Drug Mart


",125-393 Portage Ave,Winnipeg,MB,R3B 3H6,"['204-943-5431', '1-800-746-7737']"
"

Medi-Drugs


",3504A 137 Avenue NW,Edmonton,AB,T5Y 1Y7,['780-478-9480']
"

Providen Pharmacy Logistics Ltd.


",365-550 Century St,Winnipeg,MB,R3H 0Y1,['204-480-8926']
"

Rexall


",333 St Mary Ave,Winnipeg,MB,R3C 4A5,['204-949-1188']
"

The Medicine Shoppe Pharmacy


",14606 50 Street NW,Edmonton,AB,T5A 4W9,['780-472-2822']
"

Valu Lots


",910 Wall St,Winnipeg,MB,R3G 2V2,['204-784-7787']
"

Global Pharmacy


",144-550 Clareview Rd NW,Edmonton,AB,T5A 4H2,['587-524-1930']
"

Rexall


",14403 Miller Blvd NW,Edmonton,AB,T5Y 0L4,['780-475-1364']
"

Cure Care Pharmacy


",11-9104 179 Ave Nw,Edmonton,AB,T5Z 2K9,['587-459-4999']
"

I.D.A. - Millennium Pharmacy


",311 Balmoral St,Winnipeg,MB,R3C 4A8,['204-504-3250']
"

Amenity Health Care


",300-155 Carlton St,Winnipeg,MB,R3C 3H8,['204-957-7791']
"

Grand Medicine Health Services


",A-220 Cree Cres,Winnipeg,MB,R3J 3W1,['204-885-0768']
"

Rexall


",16703 82nd Street NW,Edmonton,AB,T5E 5S7,['780-476-3168']
"

Al-Shifa Pharmacy


",639 Portage Ave,Winnipeg,MB,R3B 2G4,['204-772-5555']
"

Al-Shifa Pharmacy


",639 Portage Ave,Winnipeg,MB,R3B 2G4,['204-772-4900']
"

Alberta College of Paramedics


",220-2755 Broadmoor Blvd,Sherwood Park,AB,T8H 2W7,"['780-449-3114', '1-877-351-2267']"
"

Shoppers Drug Mart


",120-550 Baseline Rd,Sherwood Park,AB,T8H 2G8,['780-416-1706']
"

Save-On-Foods Pharmacy


",850 St James Street,Winnipeg,MB,R3G 3J7,['204-783-9275']
"

Walmart Supercentre


",13703 40th Street NW,Edmonton,AB,T5Y 3B5,[]
"

Shawano Pharmacy


",360 Broadway Floor 5,Winnipeg,MB,R3C 0T6,['204-944-1577']
"

Compassionate Care


",222 Osborne St N,Winnipeg,MB,R3C 1V4,['204-943-8887']
"

Guardian - White Cross Pharmacy


",647 Broadway,Winnipeg,MB,R3C 0X2,['204-774-9999']
"

St Boniface Hospital


",409 Tache Ave,Winnipeg,MB,R2H 2A6,['204-233-8563']
"

I.D.A. - West Broadway Pharmacy


",595 Broadway Ave,Winnipeg,MB,R3C 0W6,['204-775-9293']
"

Four Rivers Pharmacy


",647 Broadway,Winnipeg,MB,R3C 0X2,['204-774-9999']
"

Tache Pharmacy & Medical Supplies


",400 Tache Ave,Winnipeg,MB,R2H 3C3,['204-233-3469']
"

I.D.A. - Broadway Pharmacy


",618 Broadway Ave,Winnipeg,MB,R3C 0W8,['204-783-0150']
"

Healthway Pharmacy


",865 Portage Ave,Winnipeg,MB,R3G 0N8,['204-415-6070']
"

Shoppers Drug Mart


",4940 137 Avenue NW,Edmonton,AB,T5Y 2V4,['780-670-5097']
"

Loblaw Pharmacy


",4950 137 Avenue NW,Edmonton,AB,T5Y 2V4,['780-472-4735']
"

Shoppers Drug Mart


",917 Portage Ave,Winnipeg,MB,R3G 0P6,"['204-775-5008', '1-800-746-7737']"
"

Remedy'sRx - Peguis Pharmacy Portage


",102-1065 Portage Ave,Winnipeg,MB,R3G 0R8,['204-774-0043']
"

Leclerc Pharmacy


",343 Tache Ave,Winnipeg,MB,R2H 2A5,['204-233-8806']
"

Boyd Medical Pharmacy


",595 Broadway,Winnipeg,MB,R3C 0W6,['204-415-3709']
"

One Recovery Ltd


",595 Broadway,Winnipeg,MB,R3C 0W6,['204-772-4357']
"

Real Canadian Superstore


",4950 137 Ave NW,Edmonton,AB,T5Y 2V4,['780-472-4727']
"

Guardian - Life & Care Pharmacy


",133 Goulet St,Winnipeg,MB,R2H 0R6,['204-233-7888']
"

Pharmasave 430


",518 Main St,Broadview,SK,S0G 0K0,['306-696-2274']
"

Safeway Pharmacy


",285 Marion St,Winnipeg,MB,R2H 0T8,['204-237-6803']
"

Canada Safeway Limited


",285 Marion St,Winnipeg,MB,R2H 0T8,['204-237-6824']
"

Shoppers Drug Mart


",43 Marion St,Winnipeg,MB,R2H 0S8,['204-235-1919']
"

Northway Pharmacy Marion


",191 Marion St,Saint Boniface,MB,R2H 0T5,['204-231-3226']
"

St Boniface Pharmacy


",161 Marion St,Winnipeg,MB,R2H 0T3,['204-415-4888']
"

Health-Wellness Pharmacy


",219 Marion St,Winnipeg,MB,R2H 0T5,['204-414-6966']
"

Rexall Drug Store


",123 Marion St,Winnipeg,MB,R2H 0T3,['204-237-8532']
"

Norwood Pharmacy


",172 Marion St,Winnipeg,MB,R2H 0T4,[]
"

Real Canadian Superstore Pharmacy


",100-410 Baseline Rd,Sherwood Park,AB,T8H 2A7,['780-417-5235']
"

Brathwaite's Pharmacy


",1772 Ness Ave,Winnipeg,MB,R3J 0Y1,['204-888-6093']
"

I.D.A. - Lifesmart Pharmacy St James


",2080 Ness Ave,Winnipeg,MB,R3J 0Z3,['204-504-6577']
"

I.D.A. - Plaza 160 Pharmacy


",8103 160th Avenue NW,Edmonton,AB,T5Z 0G3,['780-457-3305']
"

Synergy Pharmacy Ltd


",153-501 Bethel Dr,Sherwood Park,AB,T8H 0N2,['780-449-2017']
"

Optical in Real Canadian Superstore


",4950 137 Ave NW,Edmonton,AB,T5Y 2V4,['780-472-4743']
"

Life & Care Pharmacy 2


",17 St Mary's Rd,Winnipeg,MB,R2H 1H2,['204-306-6211']
"

South Sherbrook Health Center And Pharmacy


",88 Sherbrook St,Winnipeg,MB,R3C 2B3,['204-774-9260']
"

Sobeys Pharmacy


",3635 Portage Ave,Winnipeg,MB,R3K 2G6,['204-832-8810']
"

Costco Wholesale


",13650 50 St NW,Edmonton,AB,T5A 4Y3,['780-475-8081']
"

Whole Health Pharmacy


",13578 Fort Rd Nw,Edmonton,AB,T5A 1C5,['587-524-9219']
"

Manning Pharmacy


",228 Manning Cross Nw,Edmonton,AB,T5A 5A1,['780-758-9595']
"

Canada Safeway Limited


",Unavailable,Unavailable,AB,T5A 5A1,['780-475-2736']
"

Safeway Pharmacy


",1612 Ness Ave,Winnipeg,MB,R3J 0H7,['204-775-2414']
"

Safeway


",1612 Ness Ave,Winnipeg,MB,R3J 3X3,"['204-775-6348', '1-800-723-3929']"
"

Shoppers Drug Mart


",43 Osborne St,Winnipeg,MB,R3L 1Y2,"['204-958-7000', '1-800-746-7737']"
"

Sobeys Pharmacy


",9611 167 Avenue NW,Edmonton,AB,T5Z 3L1,['780-406-1005']
"

Remedy'sRx - Osborne Village Pharmacy


",433 River Ave,Winnipeg,MB,R3L 2V1,['204-477-6337']
"

Elie Pharmacy


",7 Main St E,Elie,MB,R0H 0H0,['204-353-2339']
"

Elie Medical Clinic


",7 Main St,Elie,MB,R0H 0H0,['204-353-4514']
"

Pharmasave 438


",701 Lalonde St,Whitewood,SK,S0G 5C0,['306-735-2303']
"

Shoppers Drug Mart


",16504 95 Street NW,Edmonton,AB,T5Z 3L7,['780-456-5557']
"

Shoppers Drug Mart


",L178-1485 Portage Ave,Winnipeg,MB,R3G 0W4,['204-775-2478']
"

Safeway Pharmacy


",499 River Ave,Winnipeg,MB,R3L 0C9,['204-474-2297']
"

Safeway


",499 River Ave,Winnipeg,MB,R3L 0C9,['204-453-6900']
"

People's Pharmacy


",1632 Portage Ave,Winnipeg,MB,R3J 0C6,['204-788-0395']
"

Bioscript Pharmacy Ltd


",101-1661 Portage Ave,Winnipeg,MB,R3J 3T7,['204-949-9555']
"

Safeway Pharmacy


",3393 Portage Ave,Winnipeg,MB,R3K 2G7,"['204-888-5600', '1-800-723-3929']"
"

The Medicine Shoppe Pharmacy


",1765 Portage Ave,Winnipeg,MB,R3J 0E7,['204-885-4465']
"

Castledowns Prescription Centre


",16717 100 St NW,Edmonton,AB,T5X 3Z9,['780-456-3200']
"

Walmart Supercentre


","3655, Portage Ave",Winnipeg,MB,R3K 2G6,['204-857-5024']
"

Shoppers Drug Mart


",3665 Portage Av W,Winnipeg,MB,R3K 2G6,"['204-885-1620', '1-800-746-7737']"
"

50th Street Pharmacy


",13046 50th St NW,Edmonton,AB,T5A 4V9,['780-760-0103']
"

50TH ST Pharmacy


",13046 50 St NW,Edmonton,AB,T5A 4V9,['780-761-0108']
"

Dr Abdulgader Elkhemri Medical Corporation


",3250 Portage Ave,Winnipeg,MB,R3K 0Y9,['204-832-4799']
"

The Medicine Shoppe Pharmacy


",1881 Portage Ave,Winnipeg,MB,R3J 0H3,['204-988-4834']
"

Rexall


",633 Lodge Ave,Winnipeg,MB,R3J 0S9,['204-989-4030']
"

Care at Home Pharmacy Inc


",1-3140 Portage Ave,Winnipeg,MB,R3K 0Y4,['204-691-6980']
"

Care at Home Pharmacy Inc


",1-3140 Portage Ave,Winnipeg,MB,R3K 0Y4,['204-691-6982']
"

Remedy'sRx - Homesteader Pharmacy


",590 Hermitage Rd NW,Edmonton,AB,T5A 4N2,['587-459-8080']
"

Pharmasave


",3111D Portage Ave,Winnipeg,MB,R3K 0W4,['204-615-1144']
"

Pharmasave Assiniboine Pharmacy


",3111D Portage Ave,Winnipeg,MB,R3K 0W4,['204-615-1146']
"

Costco Wholesale


",2201 Broadmoor Blvd,Sherwood Park,AB,T8H 0A1,['780-410-2548']
"

Rexall


",3310 Portage Ave,Winnipeg,MB,R3K 0Z1,['204-982-4140']
"

I.D.A. - Parkridge Pharmacy & Health Centre


",1880 Ellice Ave,Winnipeg,MB,R3H 0B9,['204-410-0007']
"

Friend's Pharmacy


",3033 Portage Ave,Winnipeg,MB,R3K 0W4,['204-832-4420']
"

LifeSmart Pharmacy Osborne


",230 Osborne St Suite 2A,Winnipeg,MB,R3L 1Y8,['204-287-5233']
"

Loblaw Pharmacy


",3193 Portage Ave,Winnipeg,MB,R3K 0W4,['204-831-3535']
"

I.D.A. - Silverheights Pharmacy


",4-2015 Portage Ave,Winnipeg,MB,R3J 0K3,['204-895-0665']
"

Northeast Pharmacy


",7210 144 Ave Nw,Edmonton,AB,T5C 2R7,['780-478-3322']
"

Friend's Pharmacy


",3012 Portage Ave,Winnipeg,MB,R3K 0X8,['204-831-8687']
"

R & J Pharma Ltd


",3012 Portage Ave,Winnipeg,MB,R3K 0X8,['204-831-8634']
"

The Medicine Shoppe Pharmacy


",172-270 Baseline Rd,Sherwood Park,AB,T8H 1R4,['780-570-0203']
"

Save-On-Foods Pharmacy


",60 Broadway Boulevard,Sherwood Park,AB,T8H 2A2,['780-449-7255']
"

Rexall


",13709 66 Street NW,Edmonton,AB,T5C 3E1,['780-456-5706']
"

Save-On-Foods Pharmacy


",9510 160 Ave NW,Edmonton,AB,T5Z 3S5,['780-472-7555']
"

Ronald Pharmacy


",2727 Portage Ave,Winnipeg,MB,R3J 0R2,['204-691-7777']
"

Kennedale Drug Mart


",26-12981 50 St NW,Edmonton,AB,T5A 3P3,['780-476-9028']
"

Kennedale Drug Mart


",26-12981 50th Street NW,Edmonton,AB,T5A 3P3,['780-456-1956']
"

Shoppers Drug Mart


",600-2020 Sherwood Rd,Sherwood Park,AB,T8A 0Y0,['780-449-1569']
"

Londondale Guardian Pharmacy


",7606 144 Avenue NW,Edmonton,AB,T5C 2R7,['780-475-0040']
"

Pharmacy 66


",13637 66 St NW,Edmonton,AB,T5C 0B8,['780-456-2526']
"

Aria Pharmacy


",329 St Mary's Rd,Winnipeg,MB,R2H 1K1,['204-231-1212']
"

Safeway


",2020 Sherwood Dr,Sherwood Park,AB,T8A 3H9,"['780-467-3037', '1-800-723-3929']"
"

Healing Hands Pharmacy


",105-2565 Portage Ave,Winnipeg,MB,R3J 0P4,['204-306-3030']
"

Castledowns Drug Centre


",10807 Castle Downs Rd NW,Edmonton,AB,T5X 3N7,['780-456-3555']
"

Archibald Medical Centre


",662 Elizabeth Rd,Winnipeg,MB,R2J 1A4,['204-505-3058']
"

Archibald Pharmacy


",662 Elizabeth Rd,Winnipeg,MB,R2J 1A4,['204-505-3060']
"

Shoppers Drug Mart


",12745 50th St NW,Edmonton,AB,T5A 4L8,['780-478-3319']
"

The Medicine Shoppe Pharmacy


",101 Granada Blvd Suite 112A,Sherwood Park,AB,T8A 4W2,['780-570-3450']
"

Good Shepherd Pharmacy


",2416 Portage Ave,Winnipeg,MB,R3J 0M8,['204-889-5555']
"

Shoppers Drug Mart


",2533 Portage Ave,Winnipeg,MB,R3J 0P1,"['204-896-3256', '1-800-746-7737']"
"

Shoppers Drug Mart


",101-6806 137th Avenue NW,Edmonton,AB,T5C 3C8,['780-478-2921']
"

Safeway Pharmacy


",655 Osborne St,Winnipeg,MB,R3L 2B7,['204-452-8604']
"

Bick's Drugs Ltd


",437 Atlantic Ave,Kerrobert,SK,S0L 1R0,['306-834-2241']
"

Safeway Pharmacy


",3210 118 Ave NW,Edmonton,AB,T5W 0Z3,['780-477-0855']
"

I.D.A. - Coles Pharmacy


",168-3210 11th 8 Avenue NW,Edmonton,AB,T5W 4W1,['780-477-9200']
"

Riverview Medical Centre & Pharmacy


",3210 118 Ave Nw,Edmonton,AB,T5W 4W1,['780-249-8914']
"

Horizon Professionals Ltd


",8218 144 Ave NW,Edmonton,AB,T5E 2H4,['780-478-7713']
"

Remedy'sRx - Evansdale Pharmacy


",8218 144 Avenue NW,Edmonton,AB,T5E 2H4,['780-478-7713']
"

Loblaw Pharmacy


",15411-97th Street NW,Edmonton,AB,T5X 5V3,['780-475-0539']
"

Bridgewater Pharmacy


",3-405 Centre St,Winnipeg,MB,Unavailable,['204-306-2887']
"

Walmart Supercentre


",3210 118 Avenue NW,Edmonton,AB,T5W 4W1,['780-477-5688']
"

Safeway


",3210 118 Avenue NW,Edmonton,AB,T5W 4W1,"['780-477-6923', '1-800-723-3929']"
"

Guardian - Health Central Pharmacy


",489 St Mary's Rd,Winnipeg,MB,R2M 3L1,['204-231-0603']
"

Safeway Pharmacy


",2020 Sherwood Dr,Sherwood Park,AB,T8A 3H9,"['780-467-3222', '1-800-723-3929']"
"

Shoppers Drug Mart


",500-2020 Sherwood Dr,Sherwood Park,AB,T8A 3H9,['780-464-9788']
"

Mywong Pharmacy Inc


",41 Deer Pointe Dr,Headingley,MB,R4H 0B2,['204-253-9338']
"

Fort Rouge Pharmacy


",894 Corydon Ave,Winnipeg,MB,R3M 0Y4,['204-691-1922']
"

Canada Safeway Ltd


",1345-300 Waverley St,Winnipeg,MB,R3M 3L3,['204-259-4564']
"

Clearwater Pharmacy


",15345 97 St NW,Edmonton,AB,T5X 5V3,['780-476-8383']
"

Beverly Towne Pharmacy


",11722 34 St NW,Edmonton,AB,T5W 1Z1,['780-758-7510']
"

The Medicine Shoppe Pharmacy


",6610 132 Avenue NW,Edmonton,AB,T5C 2A5,['780-705-7150']
"

Rexall


",971 Corydon Ave,Winnipeg,MB,R3M 0X1,"['204-453-8331', '1-877-378-4100']"
"

Shoppers Simply Pharmacy


",6603 132 Ave NW,Edmonton,AB,T5C 2A4,['780-475-3331']
"

The Medicine Shoppe Pharmacy


",10423 158 Avenue NW,Edmonton,AB,T5X 5E5,['780-705-8150']
"

Dispensaries Ltd. Pharmacy


",216-52 Sioux Rd,Sherwood Park,AB,T8A 4X1,['780-464-6942']
"

Sobeys Pharmacy


",688 Wye Rd,Sherwood Park,AB,T8A 6G3,['780-416-7925']
"

Shoppers Drug Mart


",3812 118 Avenue NW,Edmonton,AB,T5W 5C7,['780-474-2424']
"

Mint Health + Drugs


",109-65 Chippewa Rd,Sherwood Park,AB,T8A 6J7,['780-467-9839']
"

Mint Travel Clinic


",109-65 Chippewa Rd,Sherwood Park,AB,T8A 6J7,['780-467-9839']
"

Rexall


",80 Chippewa Rd,Sherwood Park,AB,T8A 4W6,['780-464-3454']
"

Nottingham Pharmasave


",140-80 Chippewa Rd,Sherwood Park,AB,T8A 4W6,['780-467-7114']
"

New Nottingham Medical Clinic & Pharmacy


",310-664 Wye Rd,Sherwood Park,AB,T8A 6G3,['780-570-3800']
"

Health Plus Remedy'sRx Phcy


",1075 Autumnwood Dr,Winnipeg,MB,R2J 1C6,['204-254-4626']
"

New Nottingham Pharmacy


",310-664 Wye Rd,Sherwood Park,AB,T8A 6G3,['780-570-0995']
"

New Nottingham Pharmacy


",310-664 Wye Rd,Sherwood Park,AB,T8A 6G3,['780-570-0996']
"

Pharmacy Station Pte


",12857 Fort Rd Nw,Edmonton,AB,T5A 1B2,['780-540-0080']
"

Safeway Pharmacy


",2025 Corydon Ave,Winnipeg,MB,R3P 0N5,"['204-488-4996', '1-800-723-3929']"
"

Safeway


",2025 Corydon Ave,Winnipeg,MB,R3P 0N5,"['204-489-6498', '1-800-723-3929']"
"

Northway Pharmacy Charleswood


",3358 Roblin Blvd,Winnipeg,MB,R3R 0C5,['204-837-3284']
"

Northway Pharmacy Charleswood


",3358 Roblin Blvd,Winnipeg,MB,R3R 0C5,['204-885-9560']
"

Pharmasave Drugs Central Ltd


",206-584 Pembina Hwy,Winnipeg,MB,R3M 3X7,['204-985-0220']
"

Pharmasave Drugs Central Ltd


",206-584 Pembina Hwy,Winnipeg,MB,R3M 3X7,['204-985-0523']
"

Rasha Pharmacy


",584 Pembina Hwy Suite 15B,Winnipeg,MB,R3M 3X7,['204-505-0550']
"

Shoppers Drug Mart


",2025 Corydon Ave,Winnipeg,MB,R3P 0N5,"['204-488-4597', '1-800-746-7737']"
"

Kingsridge Pharmacy


",102-225 Carleton Dr,St. Albert,AB,T8N 4J9,['780-458-9007']
"

Remedy'sRx - Seven Days Pharmacy


",4121 118 Avenue NW,Edmonton,AB,T5W 1A2,['780-244-3300']
"

Rexall


",8-9228 144 Ave NW,Edmonton,AB,T5E 6A3,['780-478-4641']
"

The Medicine Shoppe Pharmacy


",1A-660 Osborne St,Winnipeg,MB,R3L 2B6,['204-504-9333']
"

Beverly Pharmacy


",4243 118 Ave NW,Edmonton,AB,T5W 1A5,['780-756-7711']
"

Safeway


",655 Osborne St,Winnipeg,MB,R3L 2B7,"['204-475-0793', '1-800-723-3929']"
"

Remrx Pharmacy


",16915 127 St NW,Edmonton,AB,T6V 0T1,['780-756-7303']
"

Remrx Pharmacy


",16915 127 St NW,Edmonton,AB,T6V 0T1,['780-756-7302']
"

Stafford Pharmacy Inc


",395 Stafford St,Winnipeg,MB,R3M 2X4,['204-474-2669']
"

Stafford Pharmacy MB


",395 Stafford St,Winnipeg,MB,R3M 2X4,['204-474-2669']
"

Remedy'sRx - Dunluce Pharmacy


",12118 161 Avenue NW,Edmonton,AB,T5X 5M8,['780-756-6223']
"

Glenbrook Pharmacy


",12718 66 St NW,Edmonton,AB,T5C 0A3,['780-478-9093']
"

Saleski Pharmacy Ltd


",730 Desmond St,Grenfell,SK,S0G 2B0,['306-697-2600']
"

Walmart Supercentre


",16940 127 Street NW,Edmonton,AB,T6V 1J6,['780-457-4366']
"

Walmart Supercentre


",16940 127 Street NW,Edmonton,AB,T6V 1J6,['780-457-6795']
"

Corydon Village Pharmacy


",105-1700 Corydon Ave,Winnipeg,MB,R3N 0K1,['204-488-0735']
"

La Verendrye Pharmacy Ltd/pharmacie La Verendrye Ltee O/a Tache


",400 Tache Flr 6,Saint Boniface,MB,Unavailable,['204-233-1178']
"

Positive Health Pharmacy Inc


",414 Westmount Dr,Winnipeg,MB,R2J 1P2,['204-504-6303']
"

Remedy'sRx - Deansgate


",16915 127 Street NW,Edmonton,AB,T6V 1B1,['780-756-7301']
"

Razco Inc


",599 Jackson Ave,Winnipeg,MB,R3M 2J2,['204-691-8855']
"

Costco Wholesale


",1075 St Albert Trail,St Albert,AB,T8N 4K6,['780-544-2010']
"

Qurely Pharmacy


",14117 28 Ave Sw,Edmonton,AB,T6W 4H2,['587-520-1567']
"

Sobeys Pharmacy


",392 St Albert Trail,St. Albert,AB,T8N 5J9,['780-459-8727']
"

Brentwood Pharmasave


",101-50 Brentwood Blvd,Sherwood Park,AB,T8A 2H5,['780-570-0633']
"

Sobeys Pharmacy


",15367 Castle Downs Rd NW,Edmonton,AB,T5X 6C3,['780-472-0100']
"

The Medicine Shoppe Pharmacy


",5011 118 Avenue NW,Edmonton,AB,T5W 1B8,['780-448-6048']
"

London Drugs


",9450 137 Avenue NorthWest,Edmonton,AB,T5E 6C2,['780-944-4521']
"

Shoppers Drug Mart


",14-6670 Roblin Blvd,Winnipeg,MB,R3R 1X1,"['204-831-5222', '1-800-746-7737']"
"

Safeway Pharmacy


",1120 Grant Ave,Winnipeg,MB,R3M 2A6,['204-453-2668']
"

Shoppers Drug Mart


",6000-1120 Grant Ave,Winnipeg,MB,R3M 2A6,['204-453-0130']
"

Mac Pharmacy


",12118 161 Ave NW,Edmonton,AB,T5X 5M8,['780-757-6229']
"

I.D.A. - Health Aid Pharmacy


",12918 167 Avenue NW,Edmonton,AB,T6V 1J6,['780-244-0803']
"

Loblaw Pharmacy


",215 St Anne's Rd,Winnipeg,MB,R2M 2Z9,['204-258-2435']
"

Optical in Real Canadian Superstore


",215 St Anne's Rd,Winnipeg,MB,R2M 2Z9,['204-258-2447']
"

Post Office


",205 North Railway Ave,Miniota,MB,R0M 1M0,"['204-567-3798', '1-800-267-1177']"
"

Castledowns ARP Pharmacy


",122-15277 Castle Downs Rd NW,Edmonton,AB,T5X 3N5,['780-457-0854']
"

London Drugs


",120-9450 137 Avenue NW,Edmonton,AB,T5E 6C2,['780-478-6654']
"

London Drugs


",185-9450 137 Avenue NW,Edmonton,AB,T5E 6C2,['780-478-9916']
"

Canada Safeway Limited


",200-9499 137 Ave NW,Edmonton,AB,T5E 5R8,['780-406-6455']
"

Guest Pharmacy


",715 St Mary's Rd,Winnipeg,MB,R2M 3N3,['204-691-4824']
"

Guest Pharmacy Ltd


",715 St Mary's Rd,Winnipeg,MB,R2M 3N3,['204-414-7695']
"

Safeway Pharmacy


",200-9499 137th Avenue NW,Edmonton,AB,T5E 5R8,['780-472-0907']
"

Safeway


",200 9499 137 Ave NW,Edmonton,AB,T5E 5R8,"['780-406-6455', '1-800-723-3929']"
"

Rexall


",1090-9499 137 Avenue NW,Edmonton,AB,T5E 5R8,['780-406-6233']
"

Northgate Pharmacy


",2074-9499 137 Avenue NW,Edmonton,AB,T5E 5R8,['780-472-0482']
"

Safeway Pharmacy


",2 Alpine Ave,Winnipeg,MB,R2M 0Y5,['204-255-8377']
"

Rexall


",34 Lakewood Blvd,Winnipeg,MB,R2J 2M6,['204-254-8816']
"

Safeway


",2 Alpine Ave,Winnipeg,MB,R2M 0Y5,"['204-256-9430', '1-800-723-3929']"
"

Freshco Pharmacy St Anne's & Niakwa


",2 Alpine Ave,Winnipeg,MB,R2M 0Y5,['204-255-8377']
"

Rexall


",35 Lakewood Blvd,Winnipeg,MB,R2J 2M8,['204-982-4120']
"

Safeway Pharmacy


",77 Vermillion Rd,Winnipeg,MB,R2J 3W7,['204-257-1384']
"

Shoppers Drug Mart


",100-235 Vermillion Rd,Winnipeg,MB,R2J 3Z7,['204-256-5540']
"

Pharmasave


",1883 Grant Ave,Winnipeg,MB,R3N 1Z2,['204-928-2010']
"

Pharmasave 445


",521 Grand Ave,Indian Head,SK,S0G 2K0,['306-695-3333']
"

Walmart Supercentre


",9402 135 Avenue NW,Edmonton,AB,T5E 1N8,['780-478-9415']
"

Delton Super Drugs


",12904 82 Street NW,Edmonton,AB,T5E 2T2,['780-476-8737']
"

Shoppers Drug Mart


",1A-3900 Grant Ave,Winnipeg,MB,R3R 3C2,"['204-888-2112', '1-800-746-7737']"
"

Loblaw Pharmacy


",550 Kenaston Blvd,Winnipeg,MB,R3N 2A1,['204-489-0977']
"

Walmart Supercentre


",9402 135 Avenue NW,Edmonton,AB,T5E 1N8,['780-457-6597']
"

Regina Beach Pharmacy - Remedy'sRx


",399 Centre St,Regina Beach,SK,S0G 4C0,['639-663-0121']
"

Safeway Pharmacy


",3900 Grant Ave,Winnipeg,MB,R3R 3C2,['204-889-2350']
"

Safeway


",3900 Grant Ave,Winnipeg,MB,R3R 3C2,"['204-837-5339', '1-800-723-3929']"
"

Post Office


",3900 Grant Ave,Winnipeg,MB,R3R 3E0,"['204-888-2120', '1-800-267-1177']"
"

Sobeys Pharmacy


",1150 Taylor Ave,Winnipeg,MB,R3M 3Z4,['204-474-1722']
"

NorthTown Pharmacy


",9012 132nd Avenue NW,Edmonton,AB,T5E 0Y2,['780-244-9900']
"

Hardisty Community Drug Mart


",5032 50 St,Hardisty,AB,T0B 1V0,['780-888-3786']
"

Save-On-Foods Pharmacy


",740 St. Albert Trail,St. Albert,AB,T8N 7H5,['780-419-2815']
"

Castledowns Medical And Wellness Pharmacy


",15121 121 St NW,Edmonton,AB,T5X 3C8,['780-758-1313']
"

Shoppers Drug Mart


",387-13514 97 St NW,Edmonton,AB,T5E 4E2,['780-406-7396']
"

Walmart Supercentre


",700 St Albert Trail,St. Albert,AB,T8N 7A5,['780-458-3597']
"

Rexall


",11-301 Wye Rd,Sherwood Park,AB,T8B 0A4,['780-449-1493']
"

Save-On-Foods Pharmacy


",81 Fir Street,Sherwood Park,AB,T8A 6H8,['780-467-7649']
"

VGK Business Solutions


",12955 153 Ave NW,Edmonton,AB,T6V 0C5,['587-520-5775']
"

Prairie Trail Pharmacy


",100-1345 Taylor Ave,Winnipeg,MB,R3M 3Y9,['204-222-3003']
"

The Medicine Shoppe Pharmacy


",6525 118 Avenue NW,Edmonton,AB,T5W 1G5,['780-479-2077']
"

Save-On-Foods Pharmacy


",12903 153 Avenue NW,Edmonton,AB,T6V 0C5,['780-476-7047']
"

Walmart Supercentre


",239 Wye Rd,Sherwood Park,AB,T8B 1N1,['780-464-5107']
"

Walmart Supercentre


",239 Wye Rd,Sherwood Park,AB,T8B 1N1,['780-417-9342']
"

Shoppers Drug Mart


",5-1020 Sherwood Dr,Sherwood Park,AB,T8A 2G4,['780-449-2565']
"

New Nottingham Medical Clinic & Pharmacy


",664 Wye Road,Sherwood Park,AB,T8A 6G3,['780-750-3800']
"

London Drugs


",999 Fir St,Sherwood Park,AB,T8A 4N5,['780-944-4520']
"

London Drugs Pharmacy


",999 Fir St,Sherwood Park,AB,T8A 4N5,"['780-944-4520', '1-888-991-2299']"
"

The Drug Store (Castle Downs)


",11824 145 Ave NW,Edmonton,AB,T5X 2E3,['780-456-0110']
"

Shoppers Drug Mart


",12955 153 Avenue NW,Edmonton,AB,T6V 0C5,['780-476-3738']
"

Shoppers Drug Mart


",101-200 Boudreau Rd,St. Albert,AB,T8N 6B9,['780-459-1128']
"

London Drugs


",999 Fir St,Sherwood Park,AB,T8A 4N5,['780-467-2733']
"

London Drugs


",999 Fir St,Sherwood Park,AB,T8A 4N5,['780-467-2551']
"

London Drugs


",999 Fir St,Sherwood Park,AB,T8A 4N5,['780-467-2680']
"

London Drugs Pharmacy


",999 Fir St,Sherwood Park,AB,T8A 4N5,"['780-467-2613', '1-888-991-2299']"
"

Summit Drug Mart Remedy'sRx


",101-200 Boudreau Rd,St Albert,AB,T8N 6B9,['780-458-2445']
"

Safeway Pharmacy


",985 Fir St,Sherwood Park,AB,T8A 4N5,['780-467-0153']
"

Safeway


",985 Fir St,Sherwood Park,AB,T8A 4N5,"['780-467-0177', '1-800-723-3929']"
"

Inglewood Plaza Pharmacy


",102-24 Inglewood Dr,St. Albert,AB,T8N 6K4,['780-569-3434']
"

Inglewood Plaza Pharmacy


",102-24 Inglewood Dr,St. Albert,AB,T8N 6K4,['780-569-3433']
"

Inglewood Plaza Pharmacy


",102-24 Inglewood Dr,St. Albert,AB,T8N 6K4,['780-569-3432']
"

Shoppers Drug Mart


",1122 Pembina Hwy,Winnipeg,MB,R3T 2A2,"['204-284-8895', '1-800-746-7737']"
"

Capital City Drugs Ltd


",13720 Castle Downs Rd NW,Edmonton,AB,T5X 4H7,['780-457-1469']
"

Capital City Drugs Ltd


",13720 Castle Downs Road Northwest,Edmonton,AB,T5X 4H7,['780-457-1476']
"

Montrose Pharmacy Inc


",7240 118 Ave NW,Edmonton,AB,T5B 0P7,['780-249-4833']
"

Ideal Care Pharmacy


",12147 82 St NW,Edmonton,AB,T5B 2W8,['780-244-7829']
"

Salvus Pharmacy


",44-143 Liberton Dr,St Albert,AB,T8N 6A7,['780-418-3113']
"

South Point Pharmacy


",103-1151 Pembina Hwy,Winnipeg,MB,R3T 2A3,['204-504-9772']
"

I Care Pharmacy


",12851 97 St NW,Edmonton,AB,T5E 4C2,['780-705-2523']
"

I.D.A. - Ideal Care Pharmacy


",12147 82 St,Edmonton,AB,T5B 2W8,['780-756-1236']
"

Serenity Pharmacy


",1189 Pembina Hwy,Winnipeg,MB,R3T 2A5,['204-452-3814']
"

London Drugs


",10-19 Bellerose Dr,St. Albert,AB,T8N 5E1,['780-458-8277']
"

Sherwood Park Mettra Pharmacy


",415-450 Ordze Rd,Sherwood Park,AB,T8B 0C5,['780-570-5316']
"

Dispensaries Ltd. Pharmacy


",937 Fir St,Sherwood Park,AB,T8A 4N6,['780-464-3232']
"

Eastwood Pharmacy


",7919 118 Ave NW,Edmonton,AB,T5B 0R5,['780-761-0505']
"

Safeway


",395 St Albert Trail,St Albert,AB,T8N 5Z9,"['780-458-3620', '1-800-723-3929']"
"

RXDM


",110-31 Liberton Dr,St. Albert,AB,T8N 3X6,['780-459-2227']
"

London Drugs


",375 Saint Albert Trail,St. Albert,AB,T8N 3K8,['780-944-4548']
"

LGC Specialty Pharmacy


",111-31 Liberton Dr,St. Albert,AB,T8N 3X6,['780-459-6688']
"

The Medicine Shoppe Pharmacy


",8111 118 Ave NW,Edmonton,AB,T5B 0R9,['780-477-1192']
"

Canada Safeway Limited


",8118 118 Ave NW,Edmonton,AB,T5B 0S1,['780-461-4880']
"

Safeway Pharmacy


",8118 118 Avenue NW,Edmonton,AB,T5B 0S1,['780-477-6363']
"

Island Lakes Pharmacy


",6-20 Island Shore Blvd,Winnipeg,MB,R3X 1N6,['204-255-7484']
"

Shoppers Drug Mart


",8121 118 Ave NW,Edmonton,AB,T5B 0R9,['780-477-1540']
"

The Medicine Shoppe Pharmacy


",8111 118 Avenue NW,Edmonton,AB,T5B 0R9,['780-477-1192']
"

Shoppers Drug Mart


",108-392 St Albert Trail,St. Albert,AB,T8N 5J9,"['780-458-5880', '1-800-746-7737']"
"

Shoppers Drug Mart


",108-392 St Albert Trail,St. Albert,AB,T8N 5J9,['780-459-2837']
"

Lorimer Pharmacy


",101-1020 boul Lorimer,Winnipeg,MB,R3P 1C7,['204-219-8461']
"

Glengarry Pharmacy


",115-12222 137 Ave NW,Edmonton,AB,T5L 4X5,['780-473-6636']
"

Rexall


",100-10 McKenney Ave,St Albert,AB,T8N 5S8,['780-458-2337']
"

Hudson Medical Clinic & Pharmacy


",14072 127 St NW,Edmonton,AB,T6V 1K4,['587-487-2463']
"

Poundmaker's Pharmacy Inc


",25108 Poundmaker Rd,St. Albert,AB,Unavailable,['780-459-7963']
"

The Medicine Shoppe Pharmacy


",14020 127 Street NW,Edmonton,AB,T6V 1K4,['780-472-9929']
"

Hudson Pharmacy Corp


",14072 127 St Nw,Edmonton,AB,T6V 1K4,['780-760-4525']
"

Freshco


",1319 Pembina Hwy,Winnipeg,MB,R3T 2B6,['204-284-3824']
"

Safeway Pharmacy


",1319 Pembina Hwy,Winnipeg,MB,R3T 2B6,['204-477-5404']
"

Safeway


",1319 Pembina Hwy,Winnipeg,MB,R3T 2B6,"['204-284-3824', '1-800-723-3929']"
"

FreshCo Pharmacy Pembina


",1319 Pembina Hwy,Winnipeg,MB,R3T 2B6,['204-477-5404']
"

Safeway Pharmacy


",395 St Albert Trail,St. Albert,AB,T8N 5Z9,['780-460-2642']
"

London Drugs


",232-375 St Albert Trail,St. Albert,AB,T8N 3K8,['780-458-8000']
"

London Drugs Ltd


",232-375 St Albert Trail,St. Albert,AB,T8N 3K8,"['780-458-8000', '1-888-991-2299']"
"

Loblaw Pharmacy


",12350-137th Avenue NW,Edmonton,AB,T5L 4X6,['780-457-2221']
"

London Drugs


",232-375 St Albert Trail,St Albert,AB,T8N 3K8,['780-459-0507']
"

Real Canadian Superstore


",12350 137 Ave NW,Edmonton,AB,T5L 4X6,['780-406-3768']
"

Safeway


",12807 140 Avenue NW,Edmonton,AB,T6V 1P1,['780-475-5905']
"

River Crest Pharmacy


",367 St Albert Trl,St. Albert,AB,T5N 0R1,['780-569-0345']
"

YourCanada DrugStore


",200-1383 Pembina Hwy,Winnipeg,MB,R3T 2B9,['204-416-1859']
"

Nolan Drugs


",8731 118 Ave NW,Edmonton,AB,T5B 0T2,['780-477-2748']
"

Palisades Pharmarcy


",12802 137 Ave Nw,Edmonton,AB,T5L 4Y8,['780-406-0808']
"

Rexall


",10155 50 Street NW,Edmonton,AB,T6A 2C1,['780-466-1744']
"

Karma Clinic & Pharmacy


",975 St Albert Trail,St. Albert,AB,T8N 4K6,['587-290-3050']
"

Northway Pharmacy Dakota


",1087 St Mary's Rd,Winnipeg,MB,R2M 3T2,['204-255-2988']
"

Safeway Pharmacy


",12950 137 Avenue NW,Edmonton,AB,T5L 4Y8,['780-377-2406']
"

Safeway


",12950 137 Ave NW,Edmonton,AB,T5L 5G1,"['780-377-2402', '1-800-723-3929']"
"

Alberta Ave Medex Drugs Inc


",9004 118 Ave Nw,Edmonton,AB,T5B 0T8,['780-760-2535']
"

Sobeys Pharmacy


",1939 Bishop Grandin Blvd,Winnipeg,MB,R2M 5S1,['204-255-5393']
"

Shoppers Drug Mart


",13040 137 Avenue NW,Edmonton,AB,T5L 5E3,['780-456-4330']
"

Save-On-Foods Pharmacy


",8124 112th Avenue,Edmonton,AB,T5B 4W4,['780-471-6723']
"

Guardian


",950 78 Ave NW,Edmonton,AB,T6P 1L7,['780-577-4931']
"

Alberta Avenue Pharmacy


",9448 118 Ave NW,Edmonton,AB,T5G 0N6,['780-705-4727']
"

Alberta Ave Medical Clinic


",9452 118 Ave NW,Edmonton,AB,T5G 0N6,['780-705-4104']
"

Shoppers Drug Mart


",50 Sage Creek Blvd,Winnipeg,MB,R3X 0J6,['204-254-7771']
"

The Medicine Shoppe Pharmacy


",25 St Michael St,St Albert,AB,T8N 1C7,['780-459-8545']
"

Nprxmanitoba


",120-600 St Anne's Rd,Winnipeg,MB,R2M 2S2,['204-254-4257']
"

Healthy Choice Pharmacy Inc


",30-94 McKenney Ave,St. Albert,AB,T8N 2T7,['780-460-1364']
"

Walmart Supercentre


",1-5004 98 Ave NW,Edmonton,AB,T6A 0A2,['780-469-4469']
"

Super Thrifty Pharmacy


",501 2nd Ave,Rivers,MB,R0K 1X0,['204-328-7420']
"

Capilano Pharmacy


",5818 Terrace Rd NW,Edmonton,AB,T6A 3Y8,['780-761-3331']
"

The Medicine Shoppe Pharmacy


",9559 118 Avenue NW,Edmonton,AB,T5G 0N9,['780-477-3779']
"

Safeway


",1062 5004 98 Ave NW,Edmonton,AB,T6A 3X6,"['780-466-9001', '1-800-723-3929']"
"

Midtown Apothecary Ltd


",100-41 St Thomas St,St Albert,AB,T8N 6Z1,['780-470-5672']
"

Shoppers Drug Mart


",1-785 Dakota St,Winnipeg,MB,R2M 5M3,"['204-257-1639', '1-800-746-7737']"
"

Wellington Pharmacy


",13222 127 St NW,Edmonton,AB,T5L 1B4,['780-761-0041']
"

Kensington Pharmacy


",12620A 132 Ave NW,Edmonton,AB,T5L 3P9,['780-488-6699']
"

Safeway Pharmacy


",300-2 Hebert Rd,St. Albert,AB,T8N 5T8,['780-460-9339']
"

Safeway


",300-2 Hebert Rd,St Albert,AB,T8N 5T8,"['780-460-9356', '1-800-723-3929']"
"

Quick Care Pharmacy Inc


",238-2 Hbert Rd,St. Albert,AB,T8N 5T8,['780-544-9393']
"

Cinden Pharmacy


",1600 Pembina Hwy,Winnipeg,MB,R3T 5Z2,['204-452-7989']
"

Park Plaza Pharmacy


",11826 103 St NW,Edmonton,AB,T5G 2J2,['780-758-2261']
"

Grandin Prescription Centre


",1 St Anne St,St. Albert,AB,T8N 2E8,['780-458-0123']
"

The Medicine Shoppe Pharmacy


",7915 106 Avenue NW,Edmonton,AB,T6A 1H7,['780-469-8222']
"

Real Canadian Superstore


",101 St Albert Trail,St. Albert,AB,T8N 6L5,['780-418-6818']
"

Shoppers Drug Mart


",570-140 St Albert Trail,St. Albert,AB,T8N 7C8,['780-460-9222']
"

Safeway Pharmacy


",5821 Terrace Rd NW,Edmonton,AB,T6A 0A1,['780-469-9806']
"

Safeway


",6015 Terrace Rd NW,Edmonton,AB,T6A 3Z1,['780-468-3363']
"

London Drugs


",1225 St Marys Rd,Winnipeg,MB,R2M 5E5,['204-253-2918']
"

London Drugs


",1225 St Marys Rd,Winnipeg,MB,R2M 5E5,['204-253-2972']
"

London Drugs


",23C-1225 St Mary's Rd,Winnipeg,MB,R2M 5E5,['204-253-2921']
"

Walmart Supercentre


",54-1225 St Mary's Rd,Winnipeg,MB,R2M 5E6,['204-257-8020']
"

London Drugs Pharmacy


",1225 St Mary's Rd,Winnipeg,MB,R2M 5E5,['204-253-2696']
"

London Drugs


",1225 Saint Mary's Rd,Winnipeg,MB,R2M 5E5,['204-253-1650']
"

Smokey's Cannabis


",7223 101 Ave Nw,Edmonton,AB,T6A 0H9,['780-440-2912']
"

Dolar Drug Marts


",13211 132 St NW,Edmonton,AB,T5L 1R9,['587-401-7746']
"

Save-On-Foods Pharmacy


",140 St. Albert Trail,St. Albert,AB,T8N 7C8,['780-460-5493']
"

Core Management Ltd


",1500 Tudor Glen,St. Albert,AB,T8N 3V3,['403-616-0059']
"

Homecare Pharmacy Inc


",1686 Pembina Hwy,Winnipeg,MB,R3T 2G2,['204-334-4248']
"

I.D.A. - Leila Pharmacy


",1686 Pembina Hwy,Winnipeg,MB,R3T 2G2,['204-594-3600']
"

Edgewater Pharmacy


",1D-8508 Jasper Ave NW,Edmonton,AB,T5H 3S4,['780-761-0734']
"

The Medicine Shoppe Pharmacy


",9117 111th Avenue NW,Edmonton,AB,T5B 0C3,['780-425-1384']
"

Safeway


",1345 Waverley St,Winnipeg,MB,R3T 5Y6,['204-487-5726']
"

Remedy'sRx - Dx Pharmacy


",2505 Tudor Glen Market,St Albert,AB,T8N 3V4,['780-418-4777']
"

Shoppers Drug Mart


",7469 101 Avenue NW,Edmonton,AB,T6A 3Z5,['780-485-1602']
"

Village I.D.A. Pharmacy


",9805 71 Street NW,Edmonton,AB,T6A 2T8,['780-440-4555']
"

Southend Pharmacy


",30-166 Meadowood Dr,Winnipeg,MB,R2M 5G8,['204-504-7510']
"

Loblaw Pharmacy


",101 St Albert Rd,St. Albert,AB,T8N 6L5,['780-418-6835']
"

The Medicine Shoppe Pharmacy


",1510D St Mary's Rd,Winnipeg,MB,R2M 3V7,['204-421-9200']
"

Safeway


",200-1345 Waverley St,Winnipeg,MB,R3T 5Y7,['204-487-5800']
"

Safeway


",300-1345 Waverley St,Winnipeg,MB,R3T 5Y7,['204-487-5797']
"

Shoppers Drug Mart


",710 St Anne's Rd,Winnipeg,MB,R2N 0A2,"['204-254-6316', '1-800-746-7737']"
"

I.D.A. - Super Mark Drugs


",130-8930 Jasper Ave NW,Edmonton,AB,T5H 4E9,['780-429-3784']
"

Burnewood Pharmacy Inc


",130-8930 Jasper Ave NW,Edmonton,AB,T5H 4E9,['780-429-3837']
"

Stonewall Pharmacy Ltd


",8-1585 Kenaston Blvd,Tuxedo,MB,R3P 2N3,['204-489-5719']
"

Guardian - Meadowood Pharmacy


",1555 St Mary's Rd,Winnipeg,MB,R2M 5L9,['204-257-3986']
"

The Medicine Shoppe Pharmacy


",9002 Jasper Ave NW,Edmonton,AB,T5H 3S8,['780-424-8998']
"

Safeway Pharmacy


",1625 Kenaston Blvd,Winnipeg,MB,R3P 2M4,"['204-488-9411', '1-800-723-3929']"
"

Safeway


",1625 Kenaston Blvd,Winnipeg,MB,R3P 2M4,"['204-488-9404', '1-800-723-3929']"
"

DRUGStore Pharmacy


",740 St Anne's Rd,Winnipeg,MB,R2N 0A2,['204-257-6806']
"

Boyle McCauley Pharmacy & Home Health Care


",10817 95 St NW,Edmonton,AB,T5H 2E2,['780-705-6333']
"

Santa Maria Pharmacy


",1599 St Mary's Rd,Winnipeg,MB,R2M 3W3,['204-256-0099']
"

Competent Pharmacy Corp


",10130 111 Ave Nw,Edmonton,AB,T5G 0B3,['780-479-5646']
"

The Medicine Shoppe Pharmacy


",10130 111 Avenue NW,Edmonton,AB,T5G 0B3,['780-479-5646']
"

Walmart Supercentre


",1665 Kenaston Blvd,Winnipeg,MB,R3P 2M4,['204-488-1560']
"

Shoppers Drug Mart


","100 665 St Albert Road, Unit 100",St. Albert,AB,T8N 3L3,['780-418-7891']
"

Edmonton Drugs Pharmacy


",111-11010 101 St Nw,Edmonton,AB,T5H 4B9,['587-523-3003']
"

Save-On-Foods Pharmacy


",1910 Pembina Hwy.,Winnipeg,MB,R3T 4S5,['204-275-7450']
"

Shoppers Drug Mart


","1 Kingsway Garden Mall, Unit #192",Edmonton,AB,T5G 3A6,['780-474-8237']
"

St Mercurius Pharmacy


",6-980 St Anne's Rd,Winnipeg,MB,R2N 0A5,['204-255-5222']
"

St Mercurius Pharmacy


",980 St Anne's Rd #6,Winnipeg,MB,R2N 0A5,['204-227-7730']
"

Rexall


",33F-1633 St Mary's Rd,Winnipeg,MB,R2N 1Z3,['204-255-8998']
"

Rexall Pharma Plus St Vital


",1633 St Mary's Rd,Winnipeg,MB,R2N 1Z3,['204-255-8998']
"

Rexall


",6104 90 Avenue NW,Edmonton,AB,T6B 0P2,['780-628-0233']
"

Royal Pharmacy


",9711 108 Ave Nw,Edmonton,AB,T5H 4R9,['780-426-0872']
"

V-Can Pharmacy


",10767 97 St NW,Edmonton,AB,T5H 2M2,['780-425-0723']
"

V-Can Pharmacy Inc


",10767 97 St NW,Edmonton,AB,T5H 2M2,['780-424-4448']
"

Chinatown iPharmacy


",9660 107A Ave NW,Edmonton,AB,T5H 0Z7,['780-756-4000']
"

Evergreen Medical Clinic


",9707 108 Ave NW,Edmonton,AB,T5H 4R9,['780-423-0513']
"

Evergreen Pharmacy


",9707 108 Ave NW,Edmonton,AB,T5H 4R9,['780-423-0194']
"

Sobeys Pharmacy


",1660 Kenaston Blvd,Winnipeg,MB,R3P 2M6,['204-489-3968']
"

I.D.A. - Sedgewick Pharmacy


",4841 47 Street,Sedgewick,AB,T0B 4C0,['780-384-3528']
"

Rexall


",10240 Kingsway Ave,Edmonton,AB,T5H 3V9,['780-735-5296']
"

Rexall


",10507 Kingsway NW,Edmonton,AB,T5H 4K1,['780-634-0461']
"

Linton Drugs Ltd


",10724 97 Street NW,Edmonton,AB,T5H 2L8,['780-424-6577']
"

Shepherd Pharmacy & Clinic  RemedysRx


",10659A 97 Street,Edmonton,AB,T5H 2L7,['780-761-4000']
"

Loblaw Pharmacy


",11541 Kingsway Ave NW,Edmonton,AB,T5G 3E8,['780-733-1415']
"

Rexall


",110 Sherbrooke St,Wolseley,SK,S0G 5H0,['306-698-2553']
"

Metro Pharmacy


",10608 97 Street NW,Edmonton,AB,T5H 2L6,['780-424-4557']
"

Shoppers Drug Mart


",2160 McGillivray Blvd,Winnipeg,MB,R3Y 1S6,['204-487-4453']
"

Remedy'sRx - DD Pharmacy


",10706 101 Street NW,Edmonton,AB,T5H 2S3,['780-428-0889']
"

Hope Pharmacy


",9722 106 Ave Nw,Edmonton,AB,T5H 4M5,['780-250-4673']
"

Hope Pharmacy


",9722 106 Ave Nw,Edmonton,AB,T5H 4M5,['780-250-4606']
"

Inglewood Pharmacy


",11824 124 St NW,Edmonton,AB,T5L 0M3,['780-732-0117']
"

Costco Wholesale


",2365 McGillivray Blvd,Winnipeg,MB,R3Y 0A1,['204-487-5109']
"

United Grocers Supermarket & Pharmacy


",9516 102 Ave NW,Edmonton,AB,T5H 0E3,['780-425-8552']
"

Rexall


",10646 101st Street,Edmonton,AB,T5H 2S1,['780-426-3839']
"

Downtown iPharmacy


",10107 107 Ave NW,Edmonton,AB,T5H 0V4,['780-758-3000']
"

Mint Drugs


",10611 101 St Nw,Edmonton,AB,T5H 2S2,['780-757-1030']
"

Pharmacy One Inc


",10003 106 Ave NW,Edmonton,AB,T5H 0N8,['587-525-8545']
"

Care Access Pharmacy Corp


",12411 118 Ave NW,Edmonton,AB,T5L 2K3,['780-455-0880']
"

Economy Drugs


",12418 118 Ave NW,Edmonton,AB,T5L 2K4,['780-455-8127']
"

Complete Care Pharmacy


",12418 118 Ave NW,Edmonton,AB,T5L 2K4,['780-758-9949']
"

The Medicine Shoppe Pharmacy


",12411 118 Avenue,Edmonton,AB,T5L 2K3,['780-455-0880']
"

Nader Hagag Inc


",14 Britannica Rd,Winnipeg,MB,R2N 1J4,['204-253-5671']
"

Cinden Health Institute


",123A Scurfield Blvd,Winnipeg,MB,R3Y 1L6,['204-615-2170']
"

Cinden Group of Pharmacies


",123G Scurfield Blvd,Winnipeg,MB,R3Y 1L6,['204-615-2170']
"

Cinden Health Institute


",A-123 Scurfield Blvd,Winnipeg,MB,R3Y 1L6,['204-452-2220']
"

CD Whyte Ridge Pharmacy


",A-123 Scurfield Blvd,Winnipeg,MB,R3Y 1L6,['204-488-1819']
"

Safeway


",14040 Yellowhead Trail NW,Edmonton,AB,T5L 3C2,['780-455-3111']
"

Safeway


",14360 Yellowhead Trail NW,Edmonton,AB,T5L 3C5,['780-453-6300']
"

Safeway


",14360 Yellowhead Trail NW,Edmonton,AB,T5L 3C5,['780-453-6325']
"

Canada Safeway Limited


",14360 Yellowhead Trail NW,Edmonton,AB,T5L 3C5,['780-453-6325']
"

Peoples Pharmacy


",10530 101 St NW,Edmonton,AB,T5H 2R8,['780-756-9430']
"

101 Street People's Pharmacy


",10530 101 St NW,Edmonton,AB,T5H 2R8,['780-428-0085']
"

Trinity Pharmacy


",10530 101 St NW,Edmonton,AB,T5H 2R8,['780-752-2220']
"

Family Drugs


",10233 97 St NW,Edmonton,AB,T5J 0L5,['780-426-7007']
"

Market Drugs Medical


",10203 97 St NW,Edmonton,AB,T5J 0L5,"['587-773-2774', '1-844-557-9373']"
"

Medicine Place Pharmacy


",10660 105 St NW,Edmonton,AB,T5H 2W9,['780-784-0475']
"

Medicine Place Pharmacy


",10660 105 St NW,Edmonton,AB,T5H 2W9,['780-784-2045']
"

Autumnwood Pharmacy


",201 Scurfield Blvd,Winnipeg,MB,R3Y 1A5,['204-306-4459']
"

SET Group Enterprises Inc


",170-16 Renault Cres,St. Albert,AB,T8N 4B8,['780-470-4738']
"

Sobeys Pharmacy


",1500 Dakota St,Winnipeg,MB,R2N 3Y7,['204-257-3784']
"

Sherbrooke Pharmacy


",13164 118 Ave NW,Edmonton,AB,T5L 5B4,['780-757-4700']
"

Safeway Pharmacy


",2155 Pembina Hwy,Winnipeg,MB,R3T 5S9,['204-261-9870']
"

Safeway


",2155 Pembina Hwy,Winnipeg,MB,R3T 2H1,"['204-269-6548', '1-800-723-3929']"
"

The Medicine Shoppe Pharmacy


",1600-10104 103 Avenue NW,Edmonton,AB,T5J 0H8,"['780-424-3096', '1-800-267-8877']"
"

Pharmacy On 7th & 9th


",10904 107 Ave NW,Edmonton,AB,T5H 0X5,['780-429-2980']
"

Pharmacy On 7th & 9th


",10904 107 Ave NW,Edmonton,AB,T5H 0X5,['780-429-2985']
"

C & H Properties Inc


",2250-10104 103 Ave NW,Edmonton,AB,T5J 0H8,['780-429-2369']
"

Doan Pharmacy


",10920 107 Ave NW,Edmonton,AB,T5H 0X5,['780-423-8088']
"

The Medicine Shoppe Pharmacy


",100-11910 111 Avenue NW,Edmonton,AB,T5G 0E5,['780-455-1302']
"

AQUA Rx Pharmacy


",10608 105 Ave Nw,Edmonton,AB,T5H 0L2,['780-540-3550']
"

Guardian - Onoway Healthcare Pharmacy


",4927 50th Avenue,Onoway,AB,T0E 1V0,['780-967-2241']
"

Hart's Drug Store Ltd


",9208 95 Ave NW,Edmonton,AB,T6C 1Z7,['780-466-3609']
"

Hart's Drug Store Ltd


",9208 95 Ave NW,Edmonton,AB,T6C 1Z7,['780-468-6291']
"

Medicine Shoppe The


",100-11910 111 Ave NW,Edmonton,AB,T5G 0E5,['780-454-4802']
"

Shoppers Drug Mart


","10200 102 Ave NW,Unit D112",Edmonton,AB,T5J 4B7,['780-428-7110']
"

London Drugs Ltd


",10405 104 Ave Nw,Edmonton,AB,T5J 0K7,"['780-944-4521', '1-888-991-2299']"
"

London Drugs Ltd


",10405 104 Ave Nw,Edmonton,AB,T5J 0K7,"['780-944-4583', '1-888-991-2299']"
"

Shoppers Drug Mart


",2211 Pembina Hwy,Winnipeg,MB,R3T 2H1,"['204-269-8113', '1-800-746-7737']"
"

Safeway


",601 111th Ave,Edmonton,AB,T5M 3L8,"['780-451-1860', '1-800-723-3929']"
"

I.D.A. - G & E Pharmacy


",7326 82 Avenue NW,Edmonton,AB,T6B 0G2,['780-469-7667']
"

Rexall


",190-10220 103 Street NW,Edmonton,AB,T5J 0K4,['780-424-2603']
"

Remedy'sRx - Central Point


",10382 105th St NW,Edmonton,AB,T5J 1E6,['780-250-2616']
"

Rexall Drug Store


",Unavailable,Edmonton,AB,Unavailable,['780-469-5730']
"

Safeway Pharmacy


",2534 Guardian Rd NW,Edmonton,AB,T5T 1K8,['780-490-5498']
"

Shoppers Drug Mart


",417-2331 66th St NW,Edmonton,AB,T6K 4B4,['780-461-1121']
"

Shoppers Drug Mart


",15969 97th Street NW,Edmonton,AB,T5X 0C7,['780-473-2813']
"

Shoppers Drug Mart


",1024 Webber Greens Dr NW,Edmonton,AB,T5T 4K5,['780-483-2052']
"

Pharmacist


",Unavailable,Edmonton,AB,T5M 0H3,['780-452-7474']
"

Shoppers Drug Mart


","10255 101 St NW, Unit 102",Edmonton,AB,T5J 0K3,['780-426-7642']
"

Rexall


",2271 Pembina Hwy,Winnipeg,MB,R3T 2H1,['204-261-0510']
"

Medical Clinic & Pharmacy


",Unavailable,Edmonton,AB,T5J 2G8,['780-278-6512']
"

Costco Wholesale


",12450 149 St NW,Edmonton,AB,T5V 1G9,['780-488-3483']
"

Downtown Prescription Centre


",10419 102 Ave NW,Edmonton,AB,T5J 0B4,['780-429-2988']
"

Safeway Pharmacy


",601-13310 111th Avenue NW,Edmonton,AB,T5M 3L7,"['780-451-4310', '1-800-723-3929']"
"

Health Square Pharmacy & Clinic


",11045 124 St Nw,Edmonton,AB,T5M 0J5,['780-249-4991']
"

Dispensaries (1991) Limited


",21-10405 Jasper Ave NW,Edmonton,AB,T5J 3S2,['780-421-1733']
"

Shoppers Drug Mart


",10405 Jasper Ave NW,Edmonton,AB,T5J 1G5,['780-670-3690']
"

Rexall


",11450 Groat Rd NW,Edmonton,AB,T5M 4B7,['780-452-3525']
"

Healthcure Inc


",11045 127 St NW,Edmonton,AB,T5M 0T3,['780-452-9740']
"

Bonnie Doon Pharmacy


",8130 82 Ave NW,Edmonton,AB,T6C 0Y4,['587-521-8251']
"

Bonnie Doon Pharmacy


",8130 82 Ave NW,Edmonton,AB,T6C 0Y4,['587-521-8250']
"

Dispensaries Ltd. Pharmacy - First Edmonton Place


",10665 Jasper Ave NW,Edmonton,AB,T5J 3S9,['780-424-3579']
"

Alberta Pharmacy Ltd


",12720 111 Ave NW,Edmonton,AB,T5M 3X3,['780-451-5471']
"

First Edmonton Place


",10665 Jasper Ave NW,Edmonton,AB,T5J 3S9,['780-424-8989']
"

First Edmonton Place


",920-10665 Jasper Ave NW,Edmonton,AB,T5J 3S9,['780-425-9050']
"

Dispensaries Wholesale (1991) Limited


",10326 112 Street NW,Edmonton,AB,T5K 1N2,['780-426-0354']
"

Save-On-Foods Pharmacy


",10180 109 Street,Edmonton,AB,T5J 5B4,['780-423-3528']
"

Loblaw Pharmacy


",4410 17 St NW,Edmonton,AB,T6T 0C1,['780-450-2041']
"

Safeway Pharmacy


",11410 104 Avenue NW,Edmonton,AB,T5K 2S5,['780-424-0666']
"

Safeway


",11410 104 Ave NW,Edmonton,AB,T5K 2S5,"['780-424-1087', '1-800-723-3929']"
"

Shoppers Drug Mart


",162-8330 82 Avenue,Edmonton,AB,T6C 4E3,['780-469-2888']
"

Safeway Pharmacy


",8330 82 Avenue NW,Edmonton,AB,T6C 0Y6,['780-469-9485']
"

Safeway


",185-8330 82 Ave,Edmonton,AB,T6C 4E3,"['780-469-9464', '1-800-723-3929']"
"

Shoppers Drug Mart


",3735 17th Street NW,Edmonton,AB,T6T 1A7,['780-463-1867']
"

Walmart


",1 Westmount Shopping Centre NW,Edmonton,AB,T5M 3L7,['780-454-5788']
"

Safeway Pharmacy


",185-8330 82 Ave NW,Edmonton,AB,T6C 4E3,['780-469-9464']
"

Oliver Medical Clinic & Pharmacy


",11423 104 Ave NW,Edmonton,AB,T5K 2S2,['780-761-0010']
"

Rexall Pharmacy Group Ltd


",10818 Jasper Ave NW,Edmonton,AB,T5J 2B2,['780-488-4665']
"

Loblaw Pharmacy


",80 Bison Dr,Winnipeg,MB,R3T 4Z7,['204-275-4135']
"

London Drugs


",11704 104 Avenue Northwest,Edmonton,AB,T5K 2T6,['780-944-4545']
"

P D G Rosedale Estates


",10101 111 St NW,Edmonton,AB,T5K 2W4,['780-428-5558']
"

MediSense Pharmacy


",12246 107 Ave Nw,Edmonton,AB,T5M 4A8,['780-756-1010']
"

Pharmacy Rx


",11704 104 Ave Nw,Edmonton,AB,T5K 2T6,"['780-488-2600', '1-888-991-2299']"
"

London Drugs


",11704 104 Avenue NW,Edmonton,AB,T5K 2T6,['780-488-3366']
"

Sprague Drug Ltd


",9945 108 St NW,Edmonton,AB,T5K 2G6,['780-423-1487']
"

Shoppers Drug Mart


",13310 111 Avenue NW,Edmonton,AB,T5M 3L1,['780-453-5885']
"

McKesson Canada


",11835 149 Street NW,Edmonton,AB,T5L 2J1,['1-866-639-9797']
"

Westmount Pharmacy


",11035 Groat Rd NW,Edmonton,AB,T5M 3J9,['780-705-9045']
"

Jasper Pharmacy


",11217 Jasper Ave NW,Edmonton,AB,T5K 0L5,['587-523-8600']
"

Jasper Pharmacy


",11217 Jasper Ave NW,Edmonton,AB,T5K 0L5,['587-523-8601']
"

Patient Care Pharmacy Inc


",7707 85 St NW,Edmonton,AB,T6C 3B4,['780-705-8100']
"

The Medicine Shoppe Pharmacy


",9122 82 Avenue NW,Edmonton,AB,T6C 0Z5,['780-760-1131']
"

Peble Drugs Ltd


",9122 82 Ave NW,Edmonton,AB,T6C 0Z5,['780-244-1319']
"

Central Care Medical Pharmacy Inc


",406-11456 Jasper Ave NW,Edmonton,AB,T5K 0M1,['780-451-9523']
"

I.D.A. - Pharma-Cure 1


",10530 124 Street NW,Edmonton,AB,T5N 1R9,['780-756-3020']
"

Safeway Pharmacy


",111 Ave NW & Groat Rd NW,Edmonton,AB,T5M 3L8,['780-451-1860']
"

Stratica Pharmacy & Compounding Centre


",102-10140 117 St NW,Edmonton,AB,T5K 1X3,['780-428-5573']
"

Loblaws


",101-12060 104th Avenue NW,Edmonton,AB,T5K 0G6,['780-428-1945']
"

Shoppers Drug Mart


",102-11962 104th Avenue,Edmonton,AB,T5K 0G6,['780-670-6922']
"

ARX Pharmacy & Home Care


",6730 75 St Nw Floor 2,Edmonton,AB,T6E 6T9,['780-761-7575']
"

Shoppers Drug Mart


",11720 Jasper Ave NW,Edmonton,AB,T5K 0N3,['780-482-1011']
"

Shoppers Drug Mart


",520-350 North Town Rd,Winnipeg,MB,R3Y 0Y4,['204-269-1477']
"

Allin Pharmacy


",10155 120 St NW,Edmonton,AB,T5K 2A2,['780-488-6845']
"

Rexall


",11811 Jasper Ave NW,Edmonton,AB,T5K 0N8,['780-482-2360']
"

Lemarchand Dispensary Pharmacy


",105-11523 100 Ave Nw,Edmonton,AB,T5K 0J8,['780-482-3322']
"

Lemarchand Dispensary Pharmacy


",105-11523 100 Ave Nw,Edmonton,AB,T5K 0J8,['780-445-0063']
"

Burnewood Pharmacy


",3416 43 Ave NW,Edmonton,AB,T6L 5W9,['780-757-0098']
"

We Care Pharmacy


",11912 Jasper Ave NW,Edmonton,AB,T5K 0N9,['780-705-0070']
"

Save-On-Foods Pharmacy


",400 North Town Road,Winnipeg,MB,R3Y 0Y3,['204-452-0254']
"

Shoppers Drug Mart


",2656 Pembina Hwy,Winnipeg,MB,R3T 2H6,"['204-269-3927', '1-800-746-7737']"
"

ConnectCare Medical Clinic & Pharmacy


",1756 34 Ave NW,Edmonton,AB,T6T 1B1,['780-462-3008']
"

Health Plus I.D.A. Pharmacy


",8132 - 102 Street NW,Edmonton,AB,T6E 3A3,['780-433-1575']
"

Pembina Drugs


",3-2725 Pembina Hwy,Winnipeg,MB,R3T 2H5,['204-261-4449']
"

Imperial Distributors Canada Inc


",16504 121A Ave NW,Edmonton,AB,T5V 1J9,"['780-453-1701', '1-888-554-8258']"
"

Shoppers Drug Mart


",3945 34 Street NW,Edmonton,AB,T6T 1L5,['780-461-6768']
"

Shoppers Drug Mart


",3945 34th Street NW,Edmonton,AB,T6T 1L5,['780-461-7751']
"

The Medicine Shoppe Pharmacy


",10714 142 Street NW,Edmonton,AB,T5N 2P7,['587-520-2061']
"

Ritchie Pharmacy Remedy'sRx


",9614 76 Avenue NW,Edmonton,AB,T6C 0K3,['780-758-3887']
"

Pharmacy On Whyte


",1-10050 82 Ave NW,Edmonton,AB,T6E 1Z3,['780-758-7600']
"

The Medicine Shoppe Pharmacy


",101-2800 Pembina Hwy,Winnipeg,MB,R3T 5P3,['204-275-3333']
"

Tamarack Medical & Pharmacy Ltd


",2373 Maple Rd Nw,Edmonton,AB,T6T 0Y3,['780-244-2873']
"

Hardik Zankruti Pharmacy


",10712 142 St NW,Edmonton,AB,T5N 2P7,['587-520-2061']
"

Chalo FreshCo Pharmacy Tamarack


",2355 17 St Nw,Edmonton,AB,T6T 1H9,['780-395-2702']
"

Sobeys Pharmacy


",2850 Pembina Hwy,Winnipeg,MB,R3T 6E4,['204-261-5065']
"

Strathcona Prescription Centre


",8225 105 St NW,Edmonton,AB,T6E 4H2,['780-432-0394']
"

Shoppers Drug Mart


",8065 104 Street NW,Edmonton,AB,T6E 4E3,['780-433-3954']
"

The Medicine Shoppe Pharmacy


",4345 50 St Nw,Edmonton,AB,T6L 7E8,['780-250-8081']
"

Old Scona Pharmacy


",10427 80 Ave NW,Edmonton,AB,T6E 1V1,['780-756-1700']
"

Garneau Medical Clinic & Pharmacy Hayawi Professional Corp


",8619 109 St NW,Edmonton,AB,T6G 1E7,['780-250-0033']
"

Bercom Sales Ltd


",16507 116 Ave NW,Edmonton,AB,T5M 3V1,['780-454-6099']
"

Save-On-Foods Pharmacy


",10368 78th Avenue Northwest,Edmonton,AB,T6E 6T2,['780-430-6156']
"

Compounding Ideologies


",6511 94 St NW,Edmonton,AB,T6E 3C7,['780-702-1597']
"

I.D.A. - Millcreek Pharmacy


",4012 50 Street NW,Edmonton,AB,T6L 5N3,['780-450-6429']
"

Edmonton RX Pharmacy


",15012 107 Ave Nw,Edmonton,AB,T5P 4S1,['780-250-3330']
"

Rexall


",10228 142nd Street NW,Edmonton,AB,T5N 2N8,['780-454-6403']
"

Hazeldean Ida Drug Mart


",9611 66 Ave Nw,Edmonton,AB,T6E 0M2,['780-435-4640']
"

Safeway Pharmacy


",10930 82 Avenue NW,Edmonton,AB,T6G 0S8,['780-439-9767']
"

Safeway


",10930 82 Ave NW,Edmonton,AB,T6G 0S8,"['780-433-6930', '1-800-723-3929']"
"

Safeway


",10930 82 Ave Nw,Edmonton,AB,T6G 0S8,['780-433-0215']
"

Safeway


",10930 82 Ave Nw,Edmonton,AB,Unavailable,['780-433-2434']
"

Shoppers Drug Mart


",10907 82 Avenue NW,Edmonton,AB,T6G 0S7,['780-433-2424']
"

Pharmasave


",624 Main St,Moosomin,SK,S0G 3N0,['306-435-4330']
"

Pharmasave (Moosomin)


",630 Main St,Moosomin,SK,S0G 3N0,['306-435-3345']
"

Rexall


",8440 112 Street NW,Edmonton,AB,T6G 2B7,['780-407-6990']
"

Shoppers Drug Mart


",2350 24 St NW,Edmonton,AB,T6T 0G9,['780-469-3036']
"

Garneau Pharmasave


",102-11044 82 Ave NW,Edmonton,AB,T6G 0T2,['780-705-7755']
"

A To Z Care Pharmacy Inc


",15956 109 Ave Nw,Edmonton,AB,T5P 1B7,['780-540-9210']
"

Save-On-Foods Pharmacy


",2390 24th Street NW,Edmonton,AB,T6T 0G9,['780-465-3105']
"

The Medicine Shoppe Pharmacy


",2356 23 Avenue NW,Edmonton,AB,T6T 0R1,['780-485-1378']
"

The Medicine Shoppe Pharmacy


",8219 112 Street NW,Edmonton,AB,T6G 2L9,['780-702-1803']
"

Alberta College of Pharmacists


",1100-8215 112 St NW,Edmonton,AB,T6G 2C8,"['780-990-0321', '1-877-227-3838']"
"

West Health Pharmacy


",10660 156 St NW,Edmonton,AB,T5P 2R9,['780-244-1390']
"

Supreme Health Drug Therapy Management Clinic & Pharmacy


",10120 149 St NW,Edmonton,AB,T5P 1L1,['780-761-3955']
"

Shoppers Drug Mart


",10116 150 St NW,Edmonton,AB,T5P 1P1,"['780-487-9636', '1-800-267-1177']"
"

Safeway Pharmacy


",15007 Stony Plain Rd NW,Edmonton,AB,T5P 4W1,['780-484-3355']
"

Safeway


",15007 Stony Plain Rd NW,Edmonton,AB,T5P 4W1,"['780-483-3255', '1-800-723-3929']"
"

Safeway


",15007 Stony Plain Rd Nw,Edmonton,AB,T5P 4W1,['780-483-2786']
"

London Drugs Pharmacy


",14951 Stony Plain Rd NW,Edmonton,AB,T5P 4W1,"['780-483-8404', '1-888-991-2299']"
"

London Drugs


",14951 Stony Plain Rd NW,Edmonton,AB,T5P 4W1,['780-944-4500']
"

London Drugs Limited


",14951 Stony Plain Rd NW,Edmonton,AB,T5P 4W1,['780-484-0110']
"

London Drugs


",14951 Stony Plain Rd,Edmonton,AB,T5P 4W1,['780-944-4522']
"

Crestwood Apothecary


",9648 142 St Nw,Edmonton,AB,T5N 4B2,['780-455-6979']
"

Rexall


",11400 University Ave NW,Edmonton,AB,T6G 1Z1,['780-407-4881']
"

Maurice Pharmacy


",11212 76 Ave NW,Edmonton,AB,T6G 0K1,['780-436-5416']
"

Global Care Pharmacy


",7006 109 St Nw,Edmonton,AB,T6H 3C1,['825-480-4500']
"

Stony Drugstore Inc


",15506 Stony Plain Rd NW,Edmonton,AB,T5P 3Z2,['780-341-9982']
"

Stony Medical Clinic & Pharmacy


",15506 Stony Plain Rd NW,Edmonton,AB,T5P 3Z2,['780-341-9980']
"

Sacs Guardian Pharmacy


",6913 109 St NW,Edmonton,AB,T6H 3B7,['780-434-8700']
"

RX HealthMed City Center Pharmacy


",10125 157 St NW,Edmonton,AB,T5P 2T9,['780-705-5445']
"

RX HealthMed City Center Pharmacy


",10125 157 St NW,Edmonton,AB,T5P 2T9,['780-705-5705']
"

Corner Pharmacy


",15557 Stony Plain Rd NW,Edmonton,AB,T5P 3Z1,"['780-489-5526', '1-800-267-1177']"
"

Associated Retail Pharmacy


",10931 177 St NW,Edmonton,AB,T5S 1P6,['780-486-8700']
"

Millwoods ARP Drugs


",4213 23 Ave NW,Edmonton,AB,T6L 5Z8,['780-461-9823']
"

Everyday Pharmacy


",2704 48 St NW,Edmonton,AB,T6L 6B8,['587-520-7971']
"

Rexall


",17428 106A Ave NW,Edmonton,AB,T5S 1E6,['780-484-2865']
"

Canada Safeway Limited


",38 Ave. & Millwoods Road,Edmonton,AB,T6K 3L6,['780-462-4424']
"

Save-On-Foods Pharmacy


",360 Mayfield Common N.W.,Edmonton,AB,T5P 4B3,['780-484-4084']
"

Vida Pharmacy


",5320 Calgary Trail Nw,Edmonton,AB,T6H 4J8,['780-761-5320']
"

Rexall Drug Store


",4484 97 St NW,Edmonton,AB,T6E 5R9,['780-496-9366']
"

Guardian - Town & Country Drugs


",4906 50 Street,Killam,AB,T0B 2L0,['780-385-3598']
"

The Medicine Shoppe Pharmacy


",127 Millbourne Road East NW,Edmonton,AB,T6K 1P6,['780-461-8648']
"

Dispensaries Ltd. Pharmacy - Cedars


",2925 66 Street NW,Edmonton,AB,T6K 4C1,['780-461-3021']
"

The Medicine Shoppe Pharmacy


",127 Millbourne Road East NW,Edmonton,AB,T6K 1P6,['780-756-1599']
"

Main St Family Pharmacy


",6127 28 Ave NW,Edmonton,AB,T6L 6N5,['780-540-2662']
"

Pharmasave


",3013 66 Street NW,Edmonton,AB,T6K 4B2,['780-758-7283']
"

Rexall


",4484 97 Street NW,Edmonton,AB,T6E 5R9,['780-496-9366']
"

Vic's Super Drugs


",9202 149 St NW,Edmonton,AB,T5R 1C3,['780-486-3500']
"

Hewes Way Pharmacy


",101-2551 Hewes Way NW,Edmonton,AB,T6L 6W6,['780-462-8757']
"

Dispensaries (1991) Limited


",2925 66 St NW,Edmonton,AB,T6K 4C1,['780-461-3021']
"

Shoppers Drug Mart


",6428 28 Avenue NW,Edmonton,AB,T6L 6N3,['780-463-8833']
"

I.D.A. - Health Net Pharmacy


",106-6203 28 Avenue NW,Edmonton,AB,T6L 6K3,['780-461-1126']
"

Pharmacare Pharmacy


",3M-9509 156 St NW,Edmonton,AB,T5P 4J5,['780-484-9595']
"

Sobeys Pharmacy


",5011 23 Avenue NW,Edmonton,AB,T6L 7G5,['780-485-6627']
"

Safeway Pharmacy


",100 38 Ave NW,Edmonton,AB,T6K 3L6,['780-461-5152']
"

Shoppers Drug Mart


",188 38 Avenue,Edmonton,AB,T6K 3L6,['780-462-4704']
"

Loblaw Pharmacy


",4821 Calgary Trail NW,Edmonton,AB,T6H 5W8,['780-438-0196']
"

Real Canadian Superstore


",4821 Calgary Trail NW,Edmonton,AB,T6H 5W8,['780-430-2769']
"

Pharmacare Fulfillment Centre


",100-17969 106 Avenue NW,Edmonton,AB,T5S 2H1,['780-444-3257']
"

Pharmacare Fulfilment Center Ltd


",100-17969 106 Ave NW,Edmonton,AB,T5S 2H1,['780-484-7869']
"

Optical in Real Canadian Superstore


",4821 Calgary Trail NW,Edmonton,AB,T6H 5W8,['780-430-2797']
"

Guardian Pharmacy Trail South


",10415 51 Avenue NW,Edmonton,AB,T6H 0K4,['780-430-1995']
"

Remedy'sRx - Positive Health Pharmacy


",3556 Pembina Hwy,Winnipeg,MB,R3V 1A7,['204-415-3160']
"

Lendrum Guardian Pharmacy


",5720 111 Street NW,Edmonton,AB,T6H 3G1,['587-759-0708']
"

London Drugs Limited


",10531 51 Ave,Edmonton,AB,T6H 0K5,['780-437-7594']
"

Rexall Drug Stores


",5720 111 St NW,Edmonton,AB,T6H 3G1,['780-434-4746']
"

London Drugs


",10531 51 Avenue Northwest,Edmonton,AB,T6H 0K5,['780-944-4523']
"

London Drugs Pharmacy


",10531 51st Avenue NW,Edmonton,AB,T6H 0K5,"['780-437-7033', '1-888-991-2299']"
"

Pro Care Pharmacy


",8906 149 St Nw,Edmonton,AB,T5R 1B8,['587-523-2230']
"

Dispensaries Compounding Centre


",9631 41st Avenue NW,Edmonton,AB,T6E 5X7,['587-782-6850']
"

Safeway Pharmacy


",2331 66 St,Edmonton,AB,Unavailable,['780-450-4131']
"

Real Canadian Superstore


",17303 Stony Plain Rd NW,Edmonton,AB,T5S 1B5,['780-486-8452']
"

Optical in Real Canadian Superstore


",17303 Stony Plain Rd NW,Edmonton,AB,T5S 1B5,['780-486-8469']
"

Rexall Pharmacy Group


",9540 163 St NW,Edmonton,AB,T5P 3M7,['780-484-5555']
"

Pharmasave


",8764 149th Street NW,Edmonton,AB,T5R 1B6,['780-761-0504']
"

Lynnwood Pharmasave


",8764 149 St NW,Edmonton,AB,T5R 1B6,['780-761-0504']
"

Lynnwood Pharmasave


",8764 149 St NW,Edmonton,AB,T5R 1B6,['780-761-0655']
"

I.D.A. - Johnson's Pharmacy


",116 Main St S,Kenora,ON,P9N 1S9,['807-468-7412']
"

Loblaw Pharmacy


",17303 Stony Plain Rd NW,Edmonton,AB,T5S 1B5,['780-486-8454']
"

I.D.A. - Kenora Medical Centre Pharmacy


",45 Wolsley St,Kenora,ON,P9N 3W7,['807-468-4414']
"

Tipaskan Pharmacy


",3236 82 St NW,Edmonton,AB,T6K 3Y3,['780-761-3336']
"

Millwoods I.D.A. Pharmacy


",2841 Mill Woods Rd NW,Edmonton,AB,T6K 4A9,['780-461-3939']
"

Millwoods iPharmacy


",5708 19A Ave NW,Edmonton,AB,T6L 1L8,['780-757-3000']
"

Shoppers Drug Mart Inc


",8712 150 St NW,Edmonton,AB,T5R 1E4,['780-489-4044']
"

Loblaw Pharmacy


",538 Park St,Kenora,ON,P9N 1A1,['807-468-1868']
"

The Medicine Shoppe Pharmacy


",700 Lakeview Dr,Kenora,ON,P9N 3P7,['807-468-5225']
"

Tilley's Pharmasave


",201 Main St S,Kenora,ON,P9N 1T3,['807-468-7913']
"

South Blvd Pharmacy


",4220 Gateway Blvd,Edmonton,AB,T6J 5J7,['780-466-0688']
"

Shoppers Drug Mart


",305 Main St S,Kenora,ON,P9N 1T4,['807-468-8869']
"

Terra Losa Pharmacy


",17314 99 Ave NW,Edmonton,AB,T5T 5L5,['587-462-1500']
"

Safeway Pharmacy


",9710 170 Street NW,Edmonton,AB,T5T 5L5,['780-486-4248']
"

Safeway


",9710 170 Street NW,Edmonton,AB,T5T 4T7,"['780-486-4242', '1-800-723-3929']"
"

Grand View Pharmacy


",12307 63 Ave NW,Edmonton,AB,T6H 1R4,['780-433-5609']
"

Safeway


",9710 170 St NW,Edmonton,AB,T5T 5L5,['780-486-4248']
"

Canada Safeway Limited


",9710 170 Street,Edmonton,AB,T5T 4T7,['780-486-4242']
"

Pharmacy On 34TH


",9220 34 Ave Nw,Edmonton,AB,T6E 5P2,['780-988-3700']
"

34 Ave Remedy'sRx Pharmacy


",9216 34 Avenue NW,Edmonton,AB,T6E 5P2,['780-988-3700']
"

Rexall


",11080 51st Ave NW,Edmonton,AB,T6H 0L4,['780-434-7120']
"

Shoppers Drug Mart


",9570 170 Street NW,Edmonton,AB,T5T 5R5,['780-443-5800']
"

Safeway Pharmacy


",100A-5015 111 Street NW,Edmonton,AB,T6H 4M6,['780-438-8045']
"

Safeway


","5015 111 St NW,100A",Edmonton,AB,T6H 4M8,"['780-435-5132', '1-800-723-3929']"
"

Rexall


",5015 111 Street NW,Edmonton,AB,T6H 4M6,['780-434-0451']
"

Dispensaries Ltd. Pharmacy - Edmonton West


",15508 87 Avenue NW,Edmonton,AB,T5R 4G5,['780-489-3822']
"

Guardian - Keewatin Pharmacy


",912 Ottawa St,Keewatin,ON,P0X 1C0,['807-547-6337']
"

Safeway


",400 First Ave S,Kenora,ON,P9N 4W1,"['807-468-9023', '1-800-723-3929']"
"

Safeway


",400 First Ave S,Kenora,ON,P9N 1W4,['807-468-9023']
"

The Medicine Shoppe Pharmacy


",128-4211 106 St NW,Edmonton,AB,T6J 6L7,['780-438-1063']
"

Safeway Pharmacy


",8720 156 Street NW,Edmonton,AB,T5R 5W9,['780-486-0669']
"

Safeway


",8720 156 St Nw,Edmonton,AB,T5R 5W9,"['780-486-0584', '1-800-723-3929']"
"

Shoppers Drug Mart


",254 87 Ave & 156 St,Edmonton,AB,T5R 5W9,['780-484-7718']
"

The Medicine Shoppe Pharmacy


",128-4211 106 Street NW,Edmonton,AB,T6J 6L7,['780-438-1040']
"

Walmart Supercentre


",3931 Calgary Trail NW,Edmonton,AB,T6J 5M8,[]
"

Walmart Supercentre


",3931 Calgary Trail NW,Edmonton,AB,T6J 5M8,['780-433-2575']
"

Gateway Pharmacy


",942-3803 Calgary Trail NW,Edmonton,AB,T6J 5M8,['780-466-6337']
"

The Medicine Shoppe Pharmacy


",17715 98A Avenue NW,Edmonton,AB,T5T 5W8,['780-496-9777']
"

Pharmacare Pharmacy


",8704A Meadowlark Rd NW,Edmonton,AB,T5R 5W4,['780-484-7191']
"

The Medicine Shoppe Pharmacy


",17715 98A Avenue NW,Edmonton,AB,T5T 5W8,['780-487-1331']
"

The Medicine Shoppe Pharmacy


",15819 87 Avenue,Edmonton,AB,T5R 4G7,['780-486-1882']
"

Walmart Supercentre


",18521 Stony Plain Rd NW,Edmonton,AB,T5S 2V9,['780-487-8626']
"

Walmart


",1-24 Mikana Way,Kenora,ON,P9N 4J1,['807-468-8307']
"

London Drugs Pharmacy


",1494-8882 170 Street NW,Edmonton,AB,T5T 4M2,"['780-444-1794', '1-888-991-2299']"
"

WEM Pharmasave


",2031-8882 170th St,Edmonton,AB,T5T 3J7,['780-665-4755']
"

Pharmasave


",101-5124 122 Street NW,Edmonton,AB,T6H 3S3,['780-437-9910']
"

Care Plus Medical Clinic


",102-5124 122 St NW,Edmonton,AB,T6H 3S3,['780-437-8818']
"

The Medicine Shoppe Pharmacy


",1071 Knottwood Rd E NW,Edmonton,AB,T6K 3N5,['780-461-8444']
"

Edmonton Pharmacy Remedy'sRx


",168-17010 90 Avenue NW,Edmonton,AB,T5T 1L6,['780-761-3784']
"

I.D.A. - Falk Pharmacy


",135 Main St,Carberry,MB,R0K 0H0,['204-834-2426']
"

Costco Wholesale


",2616 91 St NW,Edmonton,AB,T6N 1N2,['780-577-1228']
"

London Drugs


",1494-8882 170 Street NW,Edmonton,AB,T5T 4M2,['780-444-1880']
"

West Edmonton Mall Pharmacy Co


",210-8882 170 St NW,Edmonton,AB,T5T 4M2,['780-705-0441']
"

Shoppers Drug Mart


",8882 170 St NW,Edmonton,AB,T5T 3J7,['780-487-2673']
"

Save-On-Foods Pharmacy


",3361 Calgary Trail,Edmonton,AB,T6J 6V1,['780-437-1990']
"

Lorette Postal Outlet


",10-1321 Dawson Rd,Lorette,MB,R5K 0S2,['204-878-4109']
"

Waldins Pharmacy


",9124 23rd Ave NW,Edmonton,AB,T6N 1H9,['780-756-3350']
"

London Drugs


",8882 170 Street Northwest,Edmonton,AB,T5T 4M2,['780-944-4526']
"

Lorette Pharmacie Dufresne


",10-1321 Dawson Rd,Lorette,MB,R5K 0S2,['204-878-4122']
"

Imagine Health Centres


",2316 96 St NW,Edmonton,AB,T6N 1J8,['780-468-5999']
"

Loblaw Pharmacy


",9711-23 Avenue NW,Edmonton,AB,T6N 1K7,['780-490-3935']
"

Real Canadian Superstore


",9719 23 Ave Nw,Edmonton,AB,T6N 1K7,['780-490-3918']
"

Post Office


",18224 89th Avenue NW,Edmonton,AB,T5T 2K6,"['780-443-4125', '1-800-267-1177']"
"

Lumsden Drugs


",365 James St N,Lumsden,SK,S0G 3C0,['306-731-2464']
"

Shoppers Drug Mart


",18224 89 Ave NW,Edmonton,AB,T5T 2K6,['780-481-5864']
"

Lymburn Guardian Pharmacy


",7528 178 Street NW,Edmonton,AB,T5T 2Y5,['780-487-9515']
"

The Medicine Shoppe Pharmacy


",5659 Riverbend Rd NW,Edmonton,AB,T6H 5K4,['780-988-8896']
"

London Drugs


",9704 19 Avenue Northwest,Edmonton,AB,T6N 1K5,['780-944-4557']
"

London Drugs


",9704 19 Avenue NW,Edmonton,AB,T6N 1K6,['780-432-3589']
"

London Drugs Pharmacy


",9704 19 Avenue NW,Edmonton,AB,T6N 1K6,"['780-432-0439', '1-888-991-2299']"
"

Lakewood Pharmacy


",1520 Lakewood Road West Nw,Edmonton,AB,T6K 3J4,['780-244-2019']
"

Shoppers Drug Mart


",250 Watt Common SW,Edmonton,AB,T6X 1X2,['780-461-4433']
"

Primrose I.D.A. Pharmacy


",8462 182nd Street NW,Edmonton,AB,T5T 1Y7,['780-487-7270']
"

IDA Pharmacy Co


",8462 182nd Street NW,Edmonton,AB,T5T 1Y7,['780-484-0089']
"

Blue Quill Pharmacy


",108-2841 109 Street NW,Edmonton,AB,T6J 6B7,['780-437-7553']
"

The Medicine Shoppe Pharmacy


",6837 170 Street NW,Edmonton,AB,T5T 4W4,['780-481-0535']
"

Kossowan Drugs Inc


",6837 170 Street NW,Edmonton,AB,T5T 4W4,['780-481-0535']
"

Callingwood Pharmacy


",6911 172 St NW,Edmonton,AB,T5T 5Y1,['780-481-5886']
"

Pharmasave


",6819 Ellerslie Rd SW,Edmonton,AB,T6X 2A1,['780-757-6855']
"

Safeway


",2304 109 Street,Edmonton,AB,T6J 5E5,"['780-430-4278', '1-800-723-3929']"
"

Safeway Pharmacy


",2310 109 Street NW,Edmonton,AB,T6J 3S8,"['780-430-4269', '1-800-723-3929']"
"

Walker Lake Pharmacy


",5007 22 Ave Sw,Edmonton,AB,T6X 2N4,['780-752-2800']
"

Walmart Supercentre


",1203 Parsons Rd NW,Edmonton,AB,T6N 0A9,['780-465-1595']
"

Green Grass


",92-10955 23 Ave NW,Edmonton,AB,T6J 7B9,['780-905-5669']
"

Shoppers Drug Mart


",10955 23rd Avenue,Edmonton,AB,T6J 7B9,['780-434-6884']
"

Shoppers Drug Mart


",10955 23 Avenue NW,Edmonton,AB,T6J 7B9,['780-436-3055']
"

Remedy'sRx - Bearspaw Family Pharmacy


",1929 105 St Nw,Edmonton,AB,T6J 5V9,['780-485-8195']
"

Loblaw Pharmacy


",615 54 St Sw,Edmonton,AB,T6X 1A4,['780-440-0850']
"

Rexall


",2375 111 Street NW,Edmonton,AB,T6J 5E5,['780-433-4555']
"

Terwillegar Heights Pharmacy


",14916 45 Ave Nw,Edmonton,AB,T6H 5T5,['780-244-1870']
"

Blue Quill Pharmacy


",362 Saddleback Rd NW,Edmonton,AB,T6J 4R7,['780-437-7555']
"

Sobeys Pharmacy


",1030 Webber Greens Dr NW,Edmonton,AB,T5T 4K5,['780-489-7762']
"

Lewis Estates Sobeys Pharmacy


",1030 Webber Greens Dr NW,Edmonton,AB,T5T 4K5,['780-489-7762']
"

Post Office


",1024 Webber Green Dr,Edmonton,AB,T5T 2K6,['780-483-2052']
"

Shoppers Drug Mart


",2037 111 Street NW,Edmonton,AB,T6J 4V9,['780-430-8400']
"

FreshCo


",2011 111 St Nw,Edmonton,MB,T6J 4V9,['780-435-1224']
"

I.D.A. - Westwood Pharmacy


",6633 177 Street NW,Edmonton,AB,T5T 4K3,['780-761-3747']
"

Save-On-Foods Pharmacy


",1264 Webber Greens Drive N.W.,Edmonton,AB,T5T 7C5,['780-489-5097']
"

Shoppers Drug Mart


","6655 178th St NW,Unit 400",Edmonton,AB,T5T 4J5,['780-487-1013']
"

Safeway


",600 6655 178 St NW,Edmonton,AB,T5T 4J5,"['780-487-1050', '1-800-723-3929']"
"

The Medicine Shoppe Pharmacy


",831 Saddleback Rd NW,Edmonton,AB,T6J 5R4,['780-435-3345']
"

Safeway Pharmacy


",600-6655 178 Street NW,Edmonton,AB,T5T 4J5,['780-481-7646']
"

Canada Safeway Limited


",600-6655 178 St NW,Edmonton,AB,T5T 4J5,['780-487-1050']
"

Medicine Market Pharmacy


",726 91 St SW,Edmonton,AB,T6X 0E4,['780-705-5656']
"

Summerside Pharmacy


",3-1109 Summerside Dr Sw,Edmonton,AB,T6X 0H5,['780-758-7796']
"

Safeway Pharmacy


",576 Riverbend Square NW,Edmonton,AB,T6R 2E3,['780-435-3906']
"

Safeway


",576 Riverbend Sq NW,Edmonton,AB,T6R 2E3,"['780-434-6124', '1-800-723-3929']"
"

Shoppers Drug Mart


",924 91 Street SW,Edmonton,AB,T6X 1P2,['780-485-5550']
"

Rx Drug Mart Moosomin


",608 Birtle St,Moosomin,SK,S0G 3N0,['306-435-3252']
"

Parsons Drugs Ltd


",101-625 Parsons Rd SW,Edmonton,AB,T6X 0N9,['587-754-6474']
"

The Medicine Shoppe Pharmacy


",9216 Ellerslie Rd Sw,Edmonton,AB,T6X 0K6,['780-250-9454']
"

Rexall


",9404 Ellerslie Rd SW,Edmonton,AB,T6X 0K6,['780-461-6400']
"

Save-On-Foods Pharmacy


",1120 91 Street SW,Edmonton,AB,T6X 0P2,['780-462-7741']
"

Safeway


",2534 Guardian Rd NW,Edmonton,AB,T5P 6X9,"['780-490-0418', '1-800-723-3929']"
"

Rexall


",3004 Granville Dr NW,Edmonton,AB,T5T 4V3,['780-341-6757']
"

Medicus Family Pharmacy Inc


",1532 91 St SW,Edmonton,AB,T6X 1M5,['780-784-3351']
"

Shoppers Drug Mart


",584 Riverbend Sq NW,Edmonton,AB,T6R 2E3,['780-988-6657']
"

Shoppers Drug Mart Inc


",14135 23 Ave NW,Edmonton,AB,T6R 0G4,['587-759-4529']
"

Shoppers Drug Mart


",14135 23 Avenue NW,Edmonton,AB,T6R 0G4,['780-436-5135']
"

Save-On-Foods Pharmacy


",14161 23 Avenue N.W.,Edmonton,AB,T6R 0G4,['780-434-4085']
"

Orchards Pharmacy


",2439 90B St Sw,Edmonton,AB,T6X 1V8,['587-758-0812']
"

Hawkstone Pharmacy & Home Health Care


",100-18332 Lessard Rd NW,Edmonton,AB,T6M 2W8,['780-433-3413']
"

Costco Wholesale


",7259 Winterburn Rd NW,Edmonton,AB,T5T 4K2,['780-341-2801']
"

Sobeys Pharmacy


",18370 Lessard Rd NW,Edmonton,AB,T6M 2W8,['780-428-3907']
"

Shoppers Drug Mart


",6290 199 Street NW,Edmonton,AB,T5T 2K4,['780-483-8443']
"

I.D.A. - Ile Des Chenes Pharmacy


",7-449 Main St,Ile Des Chenes,MB,R0A 0T0,['204-878-2115']
"

Save-On-Foods Pharmacy


",6260 199 Street NW,Edmonton,AB,T5T 2K4,['780-483-8216']
"

The Medicine Shoppe Pharmacy


",121 Haddow Close NW,Edmonton,AB,T6R 3W3,['780-436-4572']
"

Shoppers Drug Mart


",11120 Ellerslie Rd SW,Edmonton,AB,T6W 1A2,['780-438-1131']
"

Save-On-Foods Pharmacy


",11180 Ellerslie Road SW,Edmonton,AB,T6W 1A2,['780-435-2523']
"

Hamptons Pharmacy Remedy's Rx


",5603 199 St NW,Edmonton,AB,T6M 0M8,['780-809-1955']
"

Sobeys Pharmacy


",1109 James Mowatt Trail SW,Edmonton,AB,T6W 1S4,['780-430-9812']
"

Terwillegar Pharmacy


",1717 Towne Centre Blvd NW,Edmonton,AB,T6R 0T7,['780-989-0600']
"

Parkland Village Pharmacy


",32-53222 Range Road 272,Spruce Grove,AB,T7X 3N4,['780-571-1010']
"

Walmart Supercentre


",903 18th St N,Brandon,MB,R7A 7S1,['204-728-4427']
"

Rutherford Pharmacy


",11460 17 Ave SW,Edmonton,AB,T6W 2S5,['780-988-3640']
"

Safeway


",921 18th Street N,Brandon,MB,R7A 7S1,"['204-726-8014', '1-800-723-3929']"
"

Safeway Pharmacy


",921 18th Street N,Brandon,MB,R7A 7S1,['204-727-0924']
"

Shoppers Drug Mart


",5970 Mullen Way NW,Edmonton,AB,T6R 0S9,['780-435-1782']
"

Daysland Apple Drugs


",5023 50 St,Daysland,AB,T0B 1A0,['587-769-0997']
"

Wellwise By Shoppers


",7-439 Government St,Dryden,ON,P8N 2P4,"['807-223-2900', '1-888-294-8056']"
"

Guardian - Wheat City Pharmacy


",1711 Kirkcaldy Dr,Brandon,MB,R7A 0B9,['204-727-1790']
"

Wheat City Medical Clinic


",Suite C1-1711 Kirkcaldy Dr,Brandon,MB,R7A 0B9,['204-727-1711']
"

DRUGStore Pharmacy


",647 Government St,Dryden,ON,P8N 2Z5,['807-221-4444']
"

Pharmasave


",38 King St,Dryden,ON,P8N 1B3,['807-223-2413']
"

Main Street Family Pharmacy


",5405 42 St,Beaumont,AB,T4X 0E4,['780-929-0074']
"

Dryden Pharmasave


",35 Whyte Ave,Dryden,ON,P8N 1Z2,['807-223-7337']
"

Pharmasave


",1-35 Whyte Ave,Dryden,ON,P8N 1Z2,['807-223-2413']
"

Shoppers Drug Mart


",25 Duke St,Dryden,ON,P8N 1E6,['807-223-3535']
"

Shoppers Drug Mart


",6302 50 Street,Beaumont,AB,T4X 0B6,['780-929-4231']
"

Safeway


",75 Whyte Ave,Dryden,ON,P8N 3E6,"['807-223-4960', '1-800-723-3929']"
"

Dryden I.D.A. Pharmacy


",72C Van Horne Ave,Dryden,ON,P8N 2B1,['807-223-7772']
"

Rexall


",10216 110th St,Fairview,AB,T0H 1L0,['780-835-2355']
"

Becher Guardian Pharmacy


",10400 110 St,Fairview,AB,T0H 1L0,['780-835-5698']
"

London Drugs


",6048 Currents Drive Northwest,Edmonton,AB,T6W 0L7,['780-944-4583']
"

Sobeys Pharmacy


",5802 50 Street,Beaumont,AB,T4X 1T8,['780-929-5776']
"

Rexall Pharmacy Group Ltd


",5910 50 St NW,Beaumont,AB,T4X 0A1,['780-929-8808']
"

Shoppers Drug Mart


",2650 James Mowatt Trail SW,Edmonton,AB,T6W 3R3,['780-430-1236']
"

La Salle Pharmacy


",Suite 2-49 rue Principale,La Salle,MB,Unavailable,['204-736-2412']
"

Pharmasave Maina Centre Ville


",104-5010 50 St,Beaumont,AB,T4X 1E6,['587-855-8468']
"

Loblaw Companies Ltd


",2746 James Mowatt Tr SW,Edmonton,AB,T6W 3R3,['780-438-8263']
"

London Drugs


",6048 Currents Dr NW,Edmonton,AB,T6W 0L7,['780-430-3980']
"

Beaumont Centre Pharmacy


",5003 50 Avenue,Beaumont,AB,T4X 1E7,['780-929-9299']
"

Dispensaries (1991) Limited


",5108 49 Ave,Beaumont,AB,T4X 1E4,['780-986-8729']
"

iCare Pharmacy


",101-3514 Allan Dr SW,Edmonton,AB,T6W 1A4,['780-705-8871']
"

Rabbit Hill Pharmacy


",1356 Windermere Way SW,Edmonton,AB,T6W 2J3,['780-989-5100']
"

I.D.A. - Lifecare Pharmacy


",1332 Windermere Way SW,Edmonton,AB,T6W 0P1,['780-710-7107']
"

Windermere Pharmacy


",5544 Windermere Blvd NW,Edmonton,AB,T6W 2Z8,['780-989-4001']
"

Loblaw Pharmacy


",1155 Windermere Way SW,Edmonton,AB,T6W 2B6,['780-438-3553']
"

Seine Pharmacy


",142 Centrale Ave,Ste Anne,MB,R5H 1A1,['1-877-798-7366']
"

Rosser Pharmacy


",841 Rosser Ave,Brandon,MB,R7A 0L1,['204-725-4114']
"

West-Man Medical Centre Pharmacy Ltd


",146 6th St,Brandon,MB,R7A 3N2,['204-727-8451']
"

Save-On-Foods Pharmacy


",3005 Hays Ridge Drive SW,Edmonton,AB,T6W 4T6,['825-410-1015']
"

Remedy'sRx - Enoch Health Services Pharmacy


",43 259th St,Enoch,AB,T7X 3Y3,['780-470-5184']
"

Onoway Health Care Centre


",4919 Lac Ste Anne Trail,Onoway,AB,T0E 1V0,['780-967-4136']
"

Safeway Pharmacy


",5110 Windermere Blvd NW,Edmonton,AB,T6W 0L9,['780-436-4065']
"

Safeway


",5110 Windermere Blvd,Edmonton,AB,T6W 0L9,"['780-436-1854', '1-800-723-3929']"
"

Guardian - Becher Pharmacy


",10400 110th St,Fairview,AB,T0H 1L0,['780-835-4078']
"

Pharmasave Drugs


",Unavailable,Unavailable,SK,S0L 2V0,[]
"

Loblaw Pharmacy


",5201 30th Ave,Beaumont,AB,T4X 1T9,['780-929-2043']
"

Rexall Drug Store


",10216 110 St,Fairview,AB,T0H 1L0,['780-835-2355']
"

ConnectCare Pharmacy


",214-20 Westwind Dr,Spruce Grove,AB,T7X 0Y5,['780-571-8036']
"

Shoppers Drug Mart


",139 Victoria Ave E,Brandon,MB,R7A 1Z1,['204-727-4248']
"

Haven IDA Pharm


",1-16424 Ellerslie Rd SW,Edmonton,AB,T6W 1A4,['780-540-8929']
"

St Adolphe Pharmacy


",457 Main St,St Adolphe,MB,R5A 1B4,['204-883-2284']
"

Medsafe Pharmacy


",335 18th St,Brandon,MB,R7A 5A8,['204-571-0120']
"

Hillside Pharmasave


",114-636 King St,Spruce Grove,AB,T7X 4K5,['780-666-2575']
"

Loblaw Pharmacy


",11839 26 Avenue SW,Edmonton,AB,T6W 3R3,['780-988-8145']
"

Shoppers Drug Mart


",1307 170 St SW,Edmonton,AB,T6W 4H3,['825-202-6613']
"

Access Pharmacy


",6255 Andrews Loop Sw,Edmonton,AB,T6W 3G9,['780-391-1315']
"

Crowborough Pharmacy Inc


",111-6055 Andrews Way Sw,Edmonton,AB,T6W 3S9,['780-391-8282']
"

Compassion Pharmacy


",8307 Chappelle Way Sw,Edmonton,AB,T6W 4S1,['780-760-6337']
"

Desrochers Village Pharmacy and Medical Clinic


",819 Daniels Way SW,Edmonton,AB,T6W 4T5,['780-447-5964']
"

Ste Rose Memorial Chapel


",604 1st St,Brandon,MB,R7A 6K5,['204-447-2444']
"

Loblaw Pharmacy


",920 Victoria Av,Brandon,MB,R7A 1A7,['204-729-4646']
"

Pharmasave


",4-42 McTavish Ave E,Brandon,MB,R7A 2B2,['204-728-3642']
"

The Medicine Shoppe Pharmacy


",3-547 8th Street,Brandon,MB,R7A 3X8,['204-717-7200']
"

Pharmasave


",2425 Victoria Ave,Brandon,MB,R7B 4H7,['204-728-1062']
"

Home Health Care Pharmacy


",3000A Victoria Ave,Brandon,MB,R7B 3Y3,"['204-727-2483', '1-800-572-1002']"
"

I.D.A. - Millers Pharmacy


",624A 18th Street,Brandon,MB,R7A 5B4,['204-727-8995']
"

Beaumont MedX


",108-6202 29 Ave,Beaumont,AB,T4X 0H5,['780-737-5323']
"

Abex Pharmacy Beaumont Ltd


",112 6102 29 Av,Beaumont,AB,T4X 0H5,['780-929-1810']
"

Shoppers Drug Mart


",100-131 Century Crossing Rd,Spruce Grove,AB,T7X 0C8,['780-962-3555']
"

Save-On-Foods Pharmacy


",121 Century Crossing,Spruce Grove,AB,T7X 0C8,['780-962-5968']
"

Super Thrifty Drugs Canada Ltd


",381 Park Ave E,Brandon,MB,R7A 7A5,"['204-728-1522', '1-800-572-1002']"
"

Super Thrifty Pharmacies


",381 Park Ave E,Brandon,MB,R7A 7A5,"['204-728-1522', '1-800-572-1002']"
"

White Butte Pharmacy Ltd


",8-1505 Aaron Dr,Pilot Butte,SK,S0G 3Z0,['306-522-1212']
"

The Medicine Shoppe Pharmacy


",4A-420 King St,Spruce Grove,AB,T7X 2C6,['780-571-1500']
"

Rexall


",5006 50 St,Mayerthorpe,AB,T0E 1N0,['780-786-2044']
"

Flatland Drugs Ltd


",1340 10th St,Brandon,MB,R7A 6Z3,['204-727-0011']
"

Rexall


",505 Queen St,Spruce Grove,AB,T7X 2V2,['780-962-2757']
"

Sams Drug Mart


",322 McLeod Ave,Spruce Grove,AB,T7X 0J6,['780-571-1221']
"

The Medicine Shoppe Pharmacy


",108-1 Hawthorne Gate,Spruce Grove,AB,T7X 0A6,['780-760-7621']
"

Super Thrifty Pharmacy


",1100 Richmond Ave,Brandon,MB,R7A 1M6,['204-728-5730']
"

Pharma-Medic Services Incorporated


",1100 Richmond Ave,Brandon,MB,R7A 1M6,['204-727-6045']
"

Progressive Health Pharmacy


",100-210 McLeod Ave,Spruce Grove,AB,T7X 2K5,['780-571-2121']
"

Safeway Pharmacy


",94 McLeod Ave,Spruce Grove,AB,T7X 1R2,['780-962-0705']
"

Safeway


",94 McLeod Ave,Spruce Grove,AB,T7X 1R2,"['780-962-9183', '1-800-723-3929']"
"

Safeway


",1570 18th Street,Brandon,MB,R7A 5C5,['204-725-0117']
"

Shoppers Drug Mart


",15A-1570 18th Street,Brandon,MB,R7A 5C5,['204-729-8100']
"

Safeway Pharmacy


",1610 18 St,Brandon,MB,R7A 5C5,['204-727-1126']
"

Shoppers Drug Mart


","70 Mcleod Ave,Hwy 16",Spruce Grove,AB,T7X 3C7,['780-962-5202']
"

Real Canadian Superstore


",10-110 Jennifer Heil Way,Spruce Grove,AB,T7X 3Z3,['780-960-7418']
"

Sobeys Pharmacy


",1645B 18th Street,Brandon,MB,R7A 5C6,['204-727-1126']
"

Spruce Pro Pharmacy


",50-172 16A Hwy,Spruce Grove,AB,T7X 3X3,['780-948-8998']
"

Pharmasave Store 436


","D, 7 Great Plains Rd",Emerald Park,SK,S4L 1B6,['306-347-1270']
"

Shoppers Drug Mart


","22B Great Plains Rd, Unit 100",Emerald Park,SK,S4L 1B6,['306-721-7290']
"

Remedy'sRx - Spruce Grove Pharmacy


",113-187 Hwy 16A,Spruce Grove,AB,T7X 4P9,['780-960-5490']
"

Loblaw Pharmacy


",10-110 Jennifer Heil Way,Spruce Grove,AB,T7X 3Z3,['780-960-7435']
"

Loblaw Pharmacy


",336 McCarthy Blvd,Regina,SK,S4R 7M2,['306-924-2620']
"

Walmart Supercentre


",90 Campsite Rd,Spruce Grove,AB,T7X 4H4,['780-962-9053']
"

Eastside Pharmacy Ltd


",80 Great Plains Rd,Emerald Park,SK,S4L 1C3,['306-205-1472']
"

Shoppers Drug Mart


",4-4420 Rochdale Blvd,Regina,SK,S4X 4N9,['306-949-3077']
"

Loblaw Pharmacy


",4450 Rochdale Blvd,Regina,SK,S4X 4N9,['306-546-6635']
"

Sobeys Pharmacy


",4101 Rochdale Blvd,Regina,SK,S4X 4P7,['306-546-5881']
"

Northwest Pharmacy


",4535 Rochdale Blvd,Regina,SK,S4X 4R3,['306-559-6666']
"

The Medicine Shoppe Pharmacy


",2310 9th Ave N,Regina,SK,S4R 8C5,['306-543-5555']
"

Shoppers Drug Mart


",306-5875 Rochdale Blvd,Regina,SK,S4X 2P9,['306-949-6616']
"

The Green Alternative


",1047 N Devonshire Dr,Regina,SK,S4X 2X4,['306-347-3420']
"

The Medicine Shoppe Pharmacy


",6380 Rochdale Blvd,Regina,SK,S4X 4C2,['306-775-1343']
"

Shoppers Drug Mart


",303 Albert St N,Regina,SK,S4R 3C4,['306-777-8010']
"

Safeway Pharmacy


",353 Albert St N,Regina,SK,S4R 3C3,['306-775-3606']
"

FreshCo Pharmacy


",3859 Sherwood Dr,Regina,SK,S4R 4A8,['306-949-7488']
"

Shoppers Drug Mart


",400-4300 South Park Dr,Stony Plain,AB,T7Z 2W7,['780-963-6946']
"

Safeway Pharmacy


",4202 South Park Dr,Stony Plain,AB,T7Z 1L1,['780-963-2264']
"

Safeway


",4202 South Park Dr,Stony Plain,AB,T7Z 1X8,"['780-963-2330', '1-800-723-3929']"
"

Apollo Drug Store


","4305 South Park Dr,800",Stony Plain,AB,T7Z 1L1,['780-968-0066']
"

I.D.A. - RX Drug Mart - 2022


",4911 50 Street,Camrose,AB,T4V 1P9,['780-672-2222']
"

Value Drug Mart


",4911 50 St,Camrose,AB,T4V 1P9,['780-672-2222']
"

Meridian Medical Clinic


",3-4402 37 St,Stony Plain,AB,T7Z 2A9,['780-963-7800']
"

Meridian Pharmacy


",2-4402 37 St,Stony Plain,AB,T7Z 2A9,['780-591-0262']
"

Shoppers Drug Mart


",380 McCarthy Blvd N,Regina,SK,S4R 7M2,['306-777-8070']
"

Safeway


",353 Albert St N,Regina,SK,S4R 5R9,"['306-543-8749', '1-800-723-3929']"
"

Rexall


",420 Albert St,Regina,SK,S4R 2N8,['306-543-1446']
"

Canada Safeway Limited


",3859 Sherwood Dr,Regina,SK,S4R 4A8,['306-949-7488']
"

Safeway


",3859 Sherwood Dr,Regina,SK,S4R 4A8,"['306-949-7488', '1-800-723-3929']"
"

Towers Pharmacy


",2713 Avonhurst Dr,Regina,SK,S4R 3J3,['306-586-9377']
"

GT Pharmacy


",2735 Avonhurst Dr,Regina,SK,S4R 3J3,['306-949-8798']
"

Pharmacy West


",1148 Dorothy St,Regina,SK,S4X 4L1,['306-206-1246']
"

RX Drug Mart


",1-6601 48 Ave,Camrose,AB,T4V 3G8,['780-672-0100']
"

Remedy'sRx - RX Drug Mart


",1-6601 48 Avenue,Camrose,AB,T4V 3G8,['780-672-0100']
"

Save-On-Foods Pharmacy


",4820 66th Street,Camrose,AB,T4V 4P6,['780-672-0310']
"

The Medicine Shoppe Pharmacy


",103-4807 44 Avenue,Stony Plain,AB,T7Z 1V5,['780-968-9646']
"

Winnipeg St Pharmacy


",1106 Winnipeg St,Regina,SK,S4R 1J6,['306-949-0900']
"

Shoppers Drug Mart


",1A-6601 48 Avenue,Camrose,AB,T4V 3G8,['780-672-4111']
"

Shoppers Drug Mart


",180 Cornerstone,Camrose,AB,T4V 4T1,['780-672-4961']
"

Pharmasave


",1010-6708 48 Avenue,Camrose,AB,T4V 4S3,['780-672-4460']
"

DRUGStore Pharmacy


",7005 48 Ave,Camrose,AB,T4V 4W1,['780-608-2235']
"

London Drugs Pharmacy


",2072 Prince of Wales Dr,Regina,SK,S4V 3A6,['306-546-1600']
"

Safeway Pharmacy


",143 Pth 12 N Steinbach,Unavailable,MB,R0A 0C0,['204-346-1322']
"

Safeway Pharmacy


",200-6800 48th Avenue,Camrose,AB,T4V 4T1,['780-672-1680']
"

Safeway


",200-6800 48th Avenue,Camrose,AB,T4V 4T1,"['780-672-1211', '1-800-723-3929']"
"

Safeway Pharmacy


",6800 48 Ave,Camrose,AB,T4V 4T1,['780-672-1211']
"

London Drugs


",2072 Prince of Wales Dr,Regina,SK,S4V 3A6,['306-546-1617']
"

London Drugs Limited


",2072 Prince Of Wales Dr,Rgina,SK,S4V 3A6,['306-546-1605']
"

Rexall


",4801 50th Avenue,Stony Plain,AB,T7Z 1L8,['780-963-5005']
"

City Centre Pharmacy Ltd


",1042 Albert St,Regina,SK,S4R 2P8,['306-584-2101']
"

Guardian - Stony Plain Wellness & Compounding Pharm


",106-5013 48 Street,Stony Plain,AB,T7Z 1L8,['780-968-2433']
"

D&D Pharmacy


",3015 5Th Ave,Rgina,SK,S4T 0L6,['306-352-5626']
"

Shoppers Drug Mart


",E4-2223 Victoria Ave E,Regina,SK,S4N 6E4,['306-777-8060']
"

Sam's Drug Mart


",5012 50 St,Stony Plain,AB,T7Z 1T2,['780-591-4554']
"

Mint Health + Drugs


",5106 50 St,Stony Plain,AB,T7Z 1T4,['780-963-3728']
"

Costco Wholesale


",665 University Park Dr,Regina,SK,S4V 2V8,['306-789-2029']
"

Safeway Pharmacy


",2223 Victoria Ave E,Regina,SK,S4N 6E4,['306-789-8112']
"

Safeway


",2223 Victoria Ave E,Regina,SK,S4N 6E4,"['306-789-3191', '1-800-723-3929']"
"

The Medicine Shoppe Pharmacy


",930 Victoria Ave,Regina,SK,S4N 0R7,['306-352-4624']
"

Stapleford Pharmacy


",4113 5Th Ave,Rgina,SK,S4T 0M3,['306-545-5904']
"

Guardian - Niverville Pharmacy


",72 Main St,Niverville,MB,R0A 1E0,['204-388-4533']
"

Shoppers Drug Mart


",5060 4th Avenue,Regina,SK,S4T 0J6,['306-777-8181']
"

Victoria Park Pharmacy


",532 Victoria Ave E,Regina,SK,S4N 0N7,['306-559-3892']
"

Shoppers Drug Mart


",2028 Park St,Regina,SK,S4N 2G6,['306-777-8030']
"

Balfour Drugs Ltd


",526 Main St,Kipling,SK,S0G 2S0,['306-736-2242']
"

Queen City Wellness Pharmacy


",1120 11th Ave,Regina,SK,S4P 0G3,['306-522-2266']
"

Kipling Pharmasave


",506 Main St,Kipling,SK,S0G 2S0,['306-736-2810']
"

The Pharmacy On Dewdney


",3034 Dewdney Ave,Regina,SK,S4T 0Y2,['306-757-8604']
"

Victoria Park Pharmacy


",532 Victoria Ave E,Regina,SK,S4N 0N7,['306-559-3894']
"

I.D.A. - St Claude Pharmacy


",109 Aspen Ave S,St Claude,MB,R0G 1Z0,['204-379-2626']
"

Shoppers Drug Mart


",T035-2102 11th Avenue,Regina,SK,S4P 3Y6,['306-777-8192']
"

The Medicine Shoppe Pharmacy


",104-2125 11th Avenue,Regina,SK,S4P 3X3,['306-546-4462']
"

The Medicine Shoppe Pharmacy


",3934 Dewdney Ave,Regina,SK,S4T 1A1,['306-522-5300']
"

Mervitz D Dr


",3914 Dewdney Ave,Regina,SK,S4T 1A1,['306-352-7695']
"

Park Street Drugs


",2415 Park St,Regina,SK,S4N 2H1,['306-757-9164']
"

The Medicine Shoppe Pharmacy


",104-2550 12th Avenue,Regina,SK,S4P 3X1,['306-777-8099']
"

Stony Plain Peoples Pharmacy


",118-100 Genesis Dr,Stony Plain,AB,T7Z 0K4,['780-968-7302']
"

Safeway Pharmacy


",2223 Victoria Ave,Regina,SK,S4P 0S4,['306-789-3191']
"

Pioneer Village Pharmacy


",430 Pioneer Dr,Regina,SK,S4T 6L8,['306-949-1233']
"

Shoppers Drug Mart


",1440 14th Avenue,Regina,SK,S4P 0W5,['306-565-8088']
"

Pharmasave


",338 University Park Dr,Regina,SK,S4V 0Y8,['306-791-9780']
"

College Ave. Drugs


",636 College Ave,Regina,SK,S4N 0X5,['306-525-2513']
"

Shoppers Drug Mart


",2202 Broad St,Regina,SK,S4P 4V6,['306-777-8166']
"

Lorne Drugs


",2255 14th Ave,Regina,SK,S4P 0X9,['306-757-9667']
"

Safeway Pharmacy


",2931 13th Ave,Regina,SK,S4T 1N8,['306-522-5453']
"

Shoppers Drug Mart


",3709 Chuka Blvd,Regina,SK,S4V 3P7,['306-789-3940']
"

I.D.A. - University Park Pharmacy


",210 University Park Dr,Regina,SK,S4V 1A3,['306-789-3333']
"

Safeway


",2931 13th Avenue,Regina,SK,S4T 1N8,"['306-522-5453', '1-800-723-3929']"
"

Wellness Pharmacy


",1713 Badham Blvd,Regina,SK,S4P 0L9,['306-545-4503']
"

Loblaw Pharmacy


",2055 Prince of Wales Dr,Regina,SK,S4V 3A3,['306-546-6535']
"

Pulse Pharmacy


",200A-2101 E Quance St,Regina,SK,S4V 3L9,['306-559-8440']
"

Loblaw Pharmacy


",1341 Broadway Ave,Regina,SK,S4P 1E5,['306-569-7575']
"

Save-On-Foods Pharmacy


",3701 Chuka Boulevard,Regina,SK,S4V 3P7,['306-584-4491']
"

Greens Pharmacy


",3850 Green Falls Dr,Rgina,SK,S4V 3T6,['306-775-2777']
"

Alliance Health Pharmacy - Remedy'sRx


",225-3737 Wascana Pky,Regina,SK,S4S 0A2,['306-337-3279']
"

Kaival Chemist Inc


",3-602 Saskatchewan Ave W,Brandon,MB,R7A 7W2,['204-239-5100']
"

River Heights Drugs


",2730 Montague St,Regina,SK,S4S 0J9,['306-584-2455']
"

Rx Pharma Choice


",2730 Montague St,Rgina,SK,S4S 0J9,['306-584-1455']
"

Super Thrifty Drug Mart


",333 7th Ave S,Virden,MB,R0M 2C0,['204-748-1666']
"

Guardian Beach Pharmacy Rx Centre


",101-4705 46A Avenue,Alberta Beach,AB,T0E 0A0,['780-924-3647']
"

Loblaw Pharmacy


",16 Superior St,Devon,AB,T9G 1Z1,['780-987-8925']
"

Bashaw Drugs


",16 Superior St,Devon,AB,T9G 1Z1,['780-372-3548']
"

Hardy's Your Independent Grocer


",16 Superior St,Devon,AB,T9G 1Z1,['780-987-8930']
"

I.D.A. - Virden Drugs


",310 King St E,Virden,MB,R0M 2C0,['204-748-2211']
"

Lakeshore Pharmacy


",1380 23rd Ave,Regina,SK,S4S 3S5,['306-584-0717']
"

Hill Ave Drugs Ltd


",3410 Hill Ave,Regina,SK,S4S 0W9,['306-586-6262']
"

Safeway


",6112 50 Street,Leduc,AB,T9E 6N7,"['780-986-0407', '1-800-723-3929']"
"

Leduc Plaza Pharmacy


",102-6207 50th St,Leduc,AB,T9E 7A9,['780-612-7970']
"

Pharmasave


",3737 Wascana Pky,Regina,SK,S4S 0A2,['403-327-3279']
"

Shoppers Drug Mart


",7-6108 50 St,Leduc,AB,T9E 6P1,['780-986-2422']
"

Safeway


",6106 50 Street,Leduc,AB,T9E 6P2,['780-986-0050']
"

Safeway Leduc


",6112 50 St,Leduc,AB,T9E 6N7,['780-986-0390']
"

Safeway Pharmacy


",6112 50th Street,Leduc,AB,T9E 6N7,['780-986-0364']
"

Leduc Pharmasave Pharmacy


",5905 50 St,Leduc,AB,T9E 6S7,['780-612-6994']
"

Devon Central Pharmacy


",1-102 Erie St S,Devon,AB,T9G 2J4,['780-738-1122']
"

Shoppers Drug Mart


",100-106 Erie St S,Devon,AB,T9G 1A7,['780-987-3412']
"

Rexall


","180 Miquelon Ave, Unit 101",Devon,AB,T9G 1A6,['780-987-3793']
"

Pasqua South Wellness Pharmacy


",3515 Pasqua St,Regina,SK,S4S 7G9,['306-522-2925']
"

Leduc Co-Op Pharmacy


",5421 50 Street,Leduc,AB,T9E 6Z7,['780-900-8362']
"

Leduc Co-op Grocery


",5421 50th Street,Leduc,AB,T9E 6Z7,['780-980-3214']
"

Sobeys Pharmacy


",5421 50 St,Leduc,AB,T9E 6Z7,['780-980-3214']
"

Safeway Pharmacy


",3801 Albert st,Regina,SK,S4S 3R4,['306-586-6933']
"

Canada Safeway Limited


",3801 Albert st,Regina,SK,S4S 3R4,['306-586-6933']
"

Loblaw Pharmacy


",1200-3806 Albert St,Regina,SK,S4S 3R2,['306-585-8883']
"

The Medicine Shoppe Pharmacy


","3806 Albert St,1052",Regina,SK,S4S 3R2,['306-559-2220']
"

Value Drug Mart


",15-5201 50 Street,Leduc,AB,T9E 6T4,['780-986-4333']
"

Health Check Pharmacy


",4901 48 St,Leduc,AB,T9E 6V1,['780-980-2000']
"

Medi-Drugs


",3992A Albert St,Regina,SK,S4S 3R1,['306-586-6366']
"

Medi-Drugs


",3992 Albert St,Regina,SK,S4S 3R1,['306-584-6366']
"

Rexall


","5201 50th St,Unit #2",Leduc,AB,T9E 6T4,['780-986-8313']
"

Leduc Remedy'sRx Pharmacy


",4904 48 Street,Leduc,AB,T9E 6V1,['587-782-3777']
"

Shoppers Drug Mart


",4130 Albert St,Regina,SK,S4S 3R8,['306-777-8040']
"

Pharmacy Association Of Saskatchewan


",700-4010 Pasqua St,Regina,SK,S4S 7B9,['306-359-7277']
"

The Medicine Shoppe Pharmacy


",2104D Grant Rd,Regina,SK,S4S 5C8,['306-757-5050']
"

Walmart Supercentre


",5302 Discovery Way,Leduc,AB,T9E 8J7,['780-986-1995']
"

Leduc Community Pharmacy


",105-4809 43A Ave,Leduc,AB,T9E 8J6,['780-739-7711']
"

The Medicine Shoppe Pharmacy


",18-4302 50 Street,Leduc,AB,T9E 6J9,['780-986-7030']
"

Save-On-Foods Pharmacy


",4520 Albert Street South,Regina,SK,S4S 6B4,['306-546-5744']
"

Loblaw Pharmacy


",3915-50th St,Leduc,AB,T9E 6R3,['780-980-8281']
"

Craig's No Frills


",3915 50 Street,Leduc,AB,T9E 6R3,['1-866-987-6453']
"

I.D.A. - Treherne Pharmacy


",206 Railway Ave,Treherne,MB,R0G 2V0,['204-723-2334']
"

Gordon Road Pharmacy


",4661 Rae St,Regina,SK,S4S 6K6,['306-586-4661']
"

Walmart Supercentre


",184 Hwy 12 N,Steinbach,MB,R5G 0Y1,['204-346-9781']
"

Safeway Pharmacy


",3015 Gordon Rd,Regina,SK,S4S 6H7,['306-586-5145']
"

Safeway


",3015 Gordon Rd,Regina,SK,S4S 6H7,"['306-586-5140', '1-800-723-3929']"
"

London Drugs


",4800 Gordon Rd,Regina,SK,S4W 0B7,['306-949-1986']
"

London Drugs Pharmacy


",4800 Gordon Rd,Regina,SK,S4W 0B7,['306-566-4000']
"

I.D.A. - Southeast Wellness Pharmacy


",116C Park Rd W,Steinbach,MB,R5G 1V6,['204-346-1970']
"

Community Health Pharmacy Ltd


",5016 50 St,Sangudo,AB,T0E 2A0,['780-785-3784']
"

Safeway Pharmacy


",143 PTH 12 N,Steinbach,MB,R5G 1T5,['204-346-1322']
"

Loblaw Pharmacy


",130 PTH 12 N,Steinbach,MB,R5G 1T4,['204-320-4135']
"

Sobeys Pharmacy


",1-178 Provincial Trunk Hwy 12,Steinbach,MB,R5G 0C3,['204-326-3493']
"

Pharmacie Centre De Sante Labrocquerie


",89 Principale St,La Broquerie,MB,R0A 0W0,['204-424-9977']
"

Pharmacie Centre de Sant La Broquerie


",89 Principale St,La Broquerie,MB,R0A 0W0,['204-424-9977']
"

Safeway


",143 Pth 12 N,Steinbach,MB,R5G 1T5,['204-346-1555']
"

Shoppers Drug Mart


",382 Main St,Steinbach,MB,R5G 1Z1,['204-326-3747']
"

Galloway's Pharmacy Ltd


",199 Main St,Central Butte,SK,S0H 0T0,['306-796-2040']
"

I.D.A. - The Apothecary Shoppe


",638-4910 50th Street,Forestburg,AB,T0B 1N0,['780-582-3501']
"

Guardian - Steinbach Primary Care Pharmacy


",102 381 Stone Bridge Crossing,Steinbach,MB,R5G 0C3,['204-326-6400']
"

Calmar Pharmacy


",5002 50 Ave,Calmar,AB,T0C 0V0,['780-985-3121']
"

Carman Pharmacy Ltd


",34 1st St SW,Carman,MB,R0G 0J0,['204-745-3620']
"

Benefitsrx Pharmacy Ltd


",66 Main St S,Carman,MB,R0G 0J0,['204-745-2946']
"

Rexall


",4705 50 Avenue,Valleyview,AB,T0H 3N0,['780-524-3593']
"

Walmart


",710 11th Avenue E,Kindersley,SK,S0L 1S2,['306-463-1333']
"

Notre Dame Pharmacy


",44 Rogers St,Notre Dame De Lourdes,MB,R0G 1M0,['204-248-2297']
"

The Medicine Bottle Ltd


",4705 50 Ave,Valleyview,AB,T0H 3N0,['780-524-3508']
"

Pharmasave


",301 Main St,Kindersley,SK,S0L 1S0,['306-463-3373']
"

Elrose Pharmacy Ltd


",203 Main St,Elrose,SK,S0L 0Z0,['306-378-2335']
"

Pharmasave Drugs


",117 Main St,Rosetown,SK,S0L 2V0,['306-882-2134']
"

pharmasave


",3808 Highway St,Valleyview,AB,T0H 3N0,['780-524-2183']
"

Rexall


",5010 50 Ave,Millet,AB,T0C 1Z0,['780-387-2200']
"

Millet Pharmacy


",4818 50 St,Millet,AB,T0C 1Z0,['780-393-0040']
"

Walmart


",5005 Dahl Dr,Whitecourt,AB,T7S 1P6,['780-706-3347']
"

Medhouse Pharmacy & Travel Clinic


",2-4439 52 Av,Whitecourt,AB,T7S 1M4,['780-779-9900']
"

Loblaw Pharmacy


",4420 52nd Ave,Whitecourt,AB,T7S 1P8,['780-706-4091']
"

Glenboro Pharmacy


",512 Railway Ave,Glenboro,MB,R0K 0X0,['204-827-2841']
"

Life Med Pharmacy


",4740 50 Ave,Whitecourt,AB,T7S 1P1,['780-706-5012']
"

St Pierre Pharmacy


",465 Sabourin St,St-Pierre-Jolys,MB,R0A 1V0,['204-433-7481']
"

Advance Health Pharmasave


",5112 50 St,Whitecourt,AB,T7S 1A1,['780-778-8737']
"

Rexall


",1-4702 51 Street,Whitecourt,AB,T7S 1R9,['780-778-3676']
"

I.D.A. - Wabamun Pharmacy


",5120 51 Avenue,Wabamun,AB,T0E 2K0,['780-892-2278']
"

Guardian - Whitfield Drugs


",15 Crescent Ave W,Souris,MB,R0K 2C0,['204-483-2155']
"

Grunthal Pharmacy


",A-169 Main St,Grunthal,MB,R0A 0R0,['204-434-6923']
"

Post Office


",4913 50 St,Wetaskiwin,AB,T9A 1J6,['403-577-3833']
"

Town & Country Pharmacy


",5104 50 Avenue,Wetaskiwin,AB,T9A 0S6,['780-361-0011']
"

Shoppers Drug Mart


",4825 50 Street,Wetaskiwin,AB,T9A 1J6,['780-352-9225']
"

Shoppers Drug Mart


",5215A 50 Avenue,Wetaskiwin,AB,T9A 0S7,['780-352-5202']
"

Rod's Pharmacy Ltd


",5520B 50 Ave,Wetaskiwin,AB,T9A 0T3,['780-312-2225']
"

Loblaw Pharmacy


",30 Thatcher Dr E,Moose Jaw,SK,S6J 1L7,['306-691-6035']
"

Safeway


",3901 56 Street,Wetaskiwin,AB,T9A 2V6,"['780-352-2041', '1-800-723-3929']"
"

Safeway Pharmacy


",3901 56th Street,Wetaskiwin,AB,T9A 2B1,['780-352-2848']
"

Walmart Supercentre


",300-3600 56th St,Wetaskiwin,AB,T9A 3T5,['780-352-8494']
"

Care Gateway Pharmacies (Wetaskiwin) Ltd


",1260-3725 56 St,Wetaskiwin,AB,T9A 2V6,['780-312-2113']
"

TLC Pharmacy


",149-1235 Main St N,Moose Jaw,SK,S6H 6M4,['306-972-7200']
"

Rexall


",735 Main St,Moose Jaw,SK,S6H 0W7,['306-694-5556']
"

Shoppers Drug Mart


",710F Main St N,Moose Jaw,SK,S6H 3K5,['306-693-5184']
"

Pharmasave


",278 4th Ave NE,Moose Jaw,SK,S6H 0C6,['306-693-5000']
"

Moose Jaw Main Street Pharmacy


",115-361 Main St N,Moose Jaw,SK,S6H 0W2,['306-691-0101']
"

Pharmasave


",212 Main St N,Moose Jaw,SK,S6H 3J8,['306-692-6433']
"

Safeway Pharmacy


",200 1st Avenue NW,Moose Jaw,SK,S6H 1K9,['306-694-2112']
"

Safeway


",200 1st Avenue NW,Moose Jaw,SK,S6H 1S6,"['306-693-8033', '1-800-723-3929']"
"

Guardian - Reston Drugs


",209 4th Street,Reston,MB,R0M 1X0,['204-877-3641']
"

Guardian - Royal Care Guardian


",4902 Hankin St,Thorsby,AB,T0C 2P0,['780-789-3686']
"

Canada Post


",30 Main St,Donalda,AB,T0B 1H0,['403-883-2121']
"

The Medicine Shoppe Pharmacy


",323 4th Avenue SW,Moose Jaw,SK,S6H 5V2,['306-693-3520']
"

Shoppers Drug Mart


",428 Lillooet St W,Moose Jaw,SK,S6H 7T1,['306-691-4870']
"

Pharmasave


",890B Lillooet St W,Moose Jaw,SK,S6H 8B4,['306-692-2900']
"

Post Office


",105 Waterloo St,Unavailable,AB,T0C 2S0,['403-575-3992']
"

Sobeys


",Clearspring Vllge,Steinbach,MB,R0A 2A0,['204-326-3493']
"

I.D.A. - Westaway Pharmacy


",445 Norton Ave,Miami,MB,R0G 1H0,['204-435-2471']
"

Guardian - St Malo Pharmacy


",122 st-malo street,St Malo,MB,R0A 1T0,['204-347-5574']
"

Value Drug Mart


",4926 Victoria Ave,Coronation,AB,T0C 1C0,['403-578-3588']
"

I.D.A. - Fort Nelson Pharmacy


",4904 50th Avenue N,Fort Nelson,BC,V0C 1R0,['250-774-2323']
"

Save-On-Foods Pharmacy


",5104 Airport Drive,Fort Nelson,BC,V0C 1R0,['250-233-8914']
"

Fort Nelson Drug Store


",4904 50th Ave N,Fort Nelson,BC,V0C 1R0,['250-774-2323']
"

Rexall


",4508 50th Street,Spirit River,AB,T0H 3G0,['780-864-3872']
"

Evansburg Pharmacy


",5107 50 St,Evansburg,AB,T0E 0T0,['780-727-2732']
"

Baldur Pharmacy


",531 Elizabeth Ave E,Baldur,MB,R0K 0B0,['204-535-2577']
"

Value Drug Mart


",5106 50 Ave,Castor,AB,T0C 0X0,['403-882-3055']
"

Roots and Berries Pharmacy Remedy'sRx


",14 Ermineskin Ave,Maskwacis,AB,T0C 1N0,['780-585-2379']
"

Guardian - Ignace Pharmacy


",118-1100 Main St,Ignace,ON,P0T 1T0,['807-934-2525']
"

Pharmasave 404


",24 Broadway St,Redvers,SK,S0C 2H0,['306-452-3313']
"

Gaudet Family Pharmacy Inc


",5010 50 St,Bashaw,AB,T0B 0H0,['780-372-3503']
"

Rexall Pharmacy Group Ltd


",14 Commercial Crt,Fox Creek,AB,T0H 1P0,['780-622-3990']
"

Thrifty Meds Now


",347 Main St,Manitou,MB,R0G 1G0,['204-242-6350']
"

Valley Super Thrifty Pharmacy


",212 Main St N,Morris,MB,R0G 1K0,['204-746-2542']
"

Walmart


",1000 Navigator Rd,Winkler,MB,R6W 4B6,['204-325-4212']
"

Guardian - Leibel's Pharmacy


",7B Village Dr,Westerose,AB,T0C 2V0,['780-586-0796']
"

Shoppers Drug Mart


",R08-777 Norquay Dr,Winkler,MB,R6W 2S2,"['204-325-4744', '1-800-746-7737']"
"

Loblaw Pharmacy


",175 Cargill Rd,Winkler,MB,R6W 1H6,['204-331-2535']
"

Pfahl's Drugs


",215-320 Main St,Winkler,MB,R6W 4B1,['204-325-4703']
"

Clinic Drugstore


",135-30 Stephen St,Morden,MB,R6M 2G3,['204-822-6667']
"

Apothecary Of Morden Inc Doctors Line


",135-30 Stephen St,Morden,MB,R6M 2G3,['204-822-5219']
"

Remedy'sRx - Apothecary of Morden


",118 Stephen St,Morden,MB,R6M 1T3,['204-822-5222']
"

Pharmasave


",360 Stephen St,Morden,MB,R6M 1T5,['204-822-4444']
"

Pfahl's Drugs


",215-320 6th St,Winkler,MB,R6W 4B1,['204-325-8201']
"

Guardian - Eston Pharmacy


",103 Main St,Eston,SK,S0L 1A0,['306-962-3243']
"

Shoppers Drug Mart


",302 North Railway St,Morden,MB,R6M 1S7,['204-822-4403']
"

Hfw Pharmacy


",650 South Railway Ave,Winkler,MB,R6W 0L6,['204-331-5235']
"

Winkler Pharmacy


",ALG Professional Centre,Winkler,MB,R6W 4A8,['204-325-4231']
"

Dueck Drug Store


",209 Railway Ave,Vita,MB,R0A 2K0,['204-425-3473']
"

St Pierre Pharmacy


",Unavailable,Roseau River Indian Reserve,MB,R0A 0H0,['204-427-3498']
"

Newhope Pharmacy


",316 Main St,Stoughton,SK,S0G 4T0,['306-457-2522']
"

Our Drug Store Inc


",115 Main St,Unity,SK,S0K 4L0,['306-228-2121']
"

Guardian - Pilot Mound Pharmacy


",143 Broadway Ave W,Pilot Mound,MB,R0G 1P0,['204-825-2500']
"

I.D.A. - Breton Pharmacy


",5031 50 Avenue,Breton,AB,T0C 0P0,"['780-696-3594', '1-888-696-3598']"
"

Stettler IDA Pharmacy


",4934 50 Ave,Stettler,AB,T0C 2L2,['403-743-0383']
"

Shoppers Drug Mart


",4718 50 St,Stettler,AB,T0C 2L0,['403-742-3367']
"

Rexall


",67 2nd Street NE,Altona,MB,R0G 0B0,['204-324-6461']
"

Central Alberta Co-op


",4821 62 St,Stettler,AB,T0C 2L0,['403-742-2828']
"

Pembina Valley Pharmacy


",58 2Nd St Nw,Altona,MB,R0G 0B1,['204-324-5550']
"

Ponoka I.D.A Drugstore


",5020 50 Street,Ponoka,AB,T4J 1S3,['403-790-1970']
"

Shoppers Drug Mart


",5015 50 Street,Ponoka,AB,T4J 0C1,['403-783-3240']
"

Walmart


",4721 70th Street,Stettler,AB,T0C 2L1,['403-742-4404']
"

Walmart


",4721 70th Street,Stettler,AB,T0C 2L1,['403-742-4275']
"

Ponoka Professional Pharmacy


",20-5011 48 Ave,Ponoka,AB,T4J 1J3,['403-783-7333']
"

Rexall


",4502 50th Street,Ponoka,AB,T4J 1J5,['403-783-5568']
"

Hackett Drugs Ltd


",4502 50 St,Ponoka,AB,T4J 1J5,['403-783-1825']
"

Loblaw Pharmacy


",5106 47th Avenue,Stettler,AB,T0C 2L1,['403-742-9180']
"

Loblaw Pharmacy


",5561 Hwy 53,Ponoka,AB,T4J 1M4,['403-783-9160']
"

Gord's No Frills


",5561 Hwy 53,Ponoka,AB,T4J 1M4,"['403-783-9164', '1-866-987-6453']"
"

Hazlewood Drugs


",323 South Railway St,Boissevain,MB,R0K 0E0,['204-534-6569']
"

Killarney Pharmacy Ltd


",7A-530 Williams Ave,Killarney,MB,R0K 1G0,['204-523-4273']
"

Harder's Pharmacy


",604 Herbert Ave,Herbert,SK,S0H 2A0,['306-784-2249']
"

Winter's Pharmacy


",108-4930 55 Ave,Drayton Valley,AB,T7A 1W2,['780-542-5102']
"

Value Drug Mart


",5014 56 Ave,Drayton Valley,AB,T7A 1S5,['780-542-5366']
"

Winter's Pharmacy Ltd


",5004 50 Av,Drayton Valley,AB,T7A 1S5,['780-542-2895']
"

Loblaw Pharmacy


",5212 50 Street,Drayton Valley,AB,T7A 1S6,['780-542-3337']
"

Rexall Drug Store


",4341 50 St,Drayton Valley,AB,T7A 1M4,['780-542-4486']
"

Walmart Supercentre


",5217 Power Centre Blvd,Drayton Valley,AB,T7A 0A5,['780-514-3214']
"

Rexall


",4341 50th St,Drayton Valley,AB,T7A 1S7,['780-542-4485']
"

Malone Pharmacy


",4955 41 Ave,Drayton Valley,AB,T7A 1V4,['780-514-3700']
"

Guardian - Emerson Pharmacy


",21 Main St,Emerson,MB,R0A 0L0,['204-373-2746']
"

Super Thrifty Pharmacy


",112 Main St,Melita,MB,R0M 1L0,['204-522-3255']
"

Alix Drugs


",4904 50 Avenue,Alix,AB,T0C 0B0,['403-747-2405']
"

Prairie Sky Co-Op Association Ltd


",215 2nd St,Weyburn,SK,S4H 0V1,['306-848-3682']
"

DRUGStore Pharmacy


",115 Souris Ave Nw,Weyburn,SK,S4H 3N6,['306-848-3407']
"

Remedy'sRx - Weyburn Health Centre Pharmacy


",32 4th Street NE,Weyburn,SK,S4H 0X7,['306-848-3888']
"

Pharmasave


",30 3rd St,Weyburn,SK,S4H 0V9,['306-848-3850']
"

McCoys Drugs


",30 3rd St,Weyburn,SK,S4H 0V9,['306-848-3870']
"

Pharmasave 416


",30 3rd St,Weyburn,SK,S4H 0V9,['306-848-3851']
"

Price Rite Drugs


",27 3rd St,Weyburn,SK,S4H 0W1,['306-842-4221']
"

Walmart


",1000 Sims Ave,Weyburn,SK,S4H 3N9,['306-842-6036']
"

Value Drug Mart


",101 1 Ave E,Oyen,AB,T0J 2J0,['403-664-3732']
"

Stettler Apple Drugs


",4825 50 St,Stettler,AB,T0C 2L1,['403-742-8688']
"

Loblaw Pharmacy


",12225 99 Street,Grande Prairie,AB,T8V 6X9,['780-831-3835']
"

Real Canadian Superstore


",12225 99th Street,Grande Prairie,AB,T8V 6X9,['780-831-3827']
"

London Drugs Limited


",10820 - 104B Ave,Grande Prairie,AB,T8V 7L6,['780-538-3700']
"

Safeway Liquor


",9929 114 Avenue,Grande Prairie,AB,T8V 4A9,['780-830-4936']
"

Shoppers Drug Mart


",11801 100 St,Grande Prairie,AB,T8V 3Y2,['780-532-2540']
"

Health Hub Pharmacy & Clinic


",10127 121 Ave Suite 106B,Grande Prairie,AB,T8V 7V3,['587-495-0058']
"

Shoppers Drug Mart


",9930 92 Street,Grande Prairie,AB,T8X 0E7,['780-357-9301']
"

The Medicine Shoppe Pharmacy


",101-10071 120 Avenue,Grande Prairie,AB,T8V 8H9,['780-539-9710']
"

Safeway Pharmacy


",9925 114 Ave,Grande Prairie,AB,T8V 4A9,['780-532-3044']
"

Safeway Pharmacy


",9925 114 Ave,Grande Prairie,AB,T8V 4A9,['780-532-1627']
"

Safeway Pharmacy


",9925 114 Avenue,Grande Prairie,AB,T8V 4A9,['780-532-7100']
"

Safeway


",9925 114 Avenue,Grande Prairie,AB,T8V 2N7,"['780-532-7517', '1-800-723-3929']"
"

Grande Prairie Pharmacy


",102-9625 97 St,Grande Prairie,AB,T8V 8B9,['780-832-9179']
"

First Response Drug & Bio


",101-10601 82 Av,Grande Prairie,AB,T8V 5Z4,['587-259-3838']
"

Shoppers Drug Mart


",5-9701 84 Ave,Grande Prairie,AB,T8V 4Z8,"['780-532-3318', '1-800-746-7737']"
"

Save-On-Foods Pharmacy


",10819 106th Avenue,Grande Prairie,AB,T8V 7X1,['780-402-2530']
"

London Drugs


",10820 104B Ave,Grande Prairie,AB,T8V 7L6,['780-538-3700']
"

London Drugs Pharmacy


",10820 104B Avenue,Grande Prairie,AB,T8V 7L6,"['780-538-3715', '1-888-991-2299']"
"

Safeway


",8100 100 Street,Grande Prairie,AB,T8V 6H7,"['780-833-8620', '1-800-723-3929']"
"

Safeway Pharmacy


",8100 100 Street,Grande Prairie,AB,T8V 6H7,['780-833-8625']
"

Walmart Supercentre


",11050 103rd Avenue,Grande Prairie,AB,T8V 7H1,['780-513-3745']
"

Pharmacare


",11460 104 Ave,Grande Prairie,AB,T8V 3G9,['780-538-4222']
"

Mint Health + Drugs


",106-11601 101 Ave,Grande Prairie,AB,T8V 3X9,['587-299-9555']
"

Shoppers Drug Mart


",10720 78th Ave,Grande Prairie,AB,T8W 0G9,['780-814-9028']
"

Costco Wholesale


",9901 116 St,Grande Prairie,AB,T8V 5W3,['780-833-7014']
"

Arcola Pharmacy Ltd


",111 Main St,Arcola,SK,S0C 0G0,['306-455-2333']
"

Ramsey Drugs


",118 Main St,Carlyle,SK,S0C 0R0,['306-453-2422']
"

Carlyle Pharmasave


",218 Main St,Carlyle,SK,S0C 0R0,['306-453-4466']
"

Cabri Primary Health Clinic


",519 1st St N,Cabri,SK,S0N 0J0,['306-587-2286']
"

Lidia's Pharmacy Inc


",4501 College Ave,Lacombe,AB,T4L 2M8,['403-782-6337']
"

Fisher's Pharmasave


",5838 Highway 2A,Lacombe,AB,T4L 2G5,['403-782-3999']
"

Loblaw Pharmacy


",5700 Highway 2A,Lacombe,AB,T4L 1A3,['403-782-7354']
"

Shoppers Drug Mart


",5700 Hwy 2A,Lacombe,AB,T4L 1A3,['403-782-3220']
"

Bailey Pharmacy


",5025 50 Ave,Lacombe,AB,T4L 1K4,['403-782-3377']
"

Lacombe I.D.A. Pharmacy


",5019E 51 Street,Lacombe,AB,T4L 2A3,['403-789-3333']
"

Lacombe Pharmacy


",4952 Highway 2A,Lacombe,AB,T4L 1J9,['403-786-8008']
"

Rexall


",5010 53rd Street,Lacombe,AB,T4L 1J6,['403-782-2900']
"

I.D.A. - Rainy River Drugs


",212 4 Street,Rainy River,ON,P0W 1L0,['807-852-3264']
"

Guardian - Leader Pharmacy


",100 1st Avenue W,Leader,SK,S0N 1H0,['306-628-4000']
"

Dirk Family Pharmacy Ltd


",116 1st Ave W,Leader,SK,S0N 1H0,['306-628-3744']
"

Rexall


",101 King St,Longlac,ON,P0T 2A0,['807-876-1212']
"

Value Drug Mart


",4917 50 Ave,Rimbey,AB,T0C 2J0,['403-843-2020']
"

Rimbey Pharmasave


",4934 50 Ave,Rimbey,AB,T0C 2J0,['403-843-3714']
"

Spencer's Pharmacy


",222 Main St,Oxbow,SK,S0C 2B0,['306-483-2262']
"

Carnduff Drug Mart


",101 Broadway St,Carnduff,SK,S0C 0S0,['306-482-3637']
"

Hanna I.D.A. Pharmacy


",610 2nd Ave W,Hanna,AB,T0J 1P0,['403-864-3711']
"

Walmart Supercentre


",1800 22nd Ave NE,Swift Current,SK,S9H 0E5,['306-778-3780']
"

Anderson Drug Pharmacy


",2-602 2 Ave W,Hanna,AB,T0J 1P0,['403-854-3254']
"

Freson Bros.


",602 2 Ave W,Hanna,AB,T0J 1P0,['403-854-3553']
"

Anderson Drug


",2-602 2 Ave W,Hanna,AB,T0J 1P0,['403-854-4357']
"

Pharmasave


",610 2nd Avenue W,Hanna,AB,T0J 0Y3,['403-854-3711']
"

Pharmasave


",610 2nd Avenue W,Hanna,AB,T0J 1P0,['403-854-4508']
"

Pharmasave 304


",610 2 Ave W,Hanna,AB,T0J 1P0,['403-854-4154']
"

I.D.A. - Sandstone Pharmacies Blackfalds


",5013 Parkwood Rd,Blackfalds,AB,T0M 0J0,['403-885-2000']
"

Safeway Pharmacy


",1 Springs Dr,Swift Current,SK,S9H 3X6,['306-773-6325']
"

Safeway


",1 Springs Dr,Swift Current,SK,S9H 3X6,"['306-773-6325', '1-800-723-3929']"
"

Blackfalds Professional Pharmacy


",1-5049 Parkwood Rd,Blackfalds,AB,T0M 0J0,['403-600-2280']
"

Shoppers Drug Mart


",911 Central Ave N,Swift Current,SK,S9H 3V3,['306-773-5301']
"

Rexall


",780 Central Ave N,Swift Current,SK,S9H 0M3,['306-773-4633']
"

Meditrust Pharmacy


",780 Central Ave N,Swift Current,SK,S9H 0M3,"['306-773-8277', '1-888-792-3667']"
"

Pharmasave


",390 Central Ave N,Swift Current,SK,S9H 0L4,['306-773-7261']
"

Real Canadian Wholesale Club The


",1501 North Service Rd E,Swift Current,SK,S9H 3X6,['306-778-5648']
"

Loblaw Pharmacy


",4431 4th Avenue,Edson,AB,T7E 1Z1,['780-712-7573']
"

Guardian


",1-4127 Henry St,Red Deer,AB,T0M 0J0,['403-356-9139']
"

Switzer's Drugs


",224 50 St,Edson,AB,T7E 1T7,['780-723-4666']
"

Shoppers Drug Mart


",100-302 53 St,Edson,AB,T7E 0A6,['780-723-3514']
"

Swift Current Family Pharmacy - Remedy'sRx


","1921 Saskatchewan Dr,Suite 102",Swift Current,SK,S9H 5T1,['306-971-3045']
"

Fort St John Claim Centre


",10507 100 St,Fort St. John,BC,V1J 3Z4,"['250-787-0771', '1-800-663-2684']"
"

Shoppers Drug Mart


",10351 100 Street,Fort St. John,BC,V1J 3Z2,['250-785-6155']
"

Fort St John Pharmacy


",100-9807 101 Ave,Fort St. John,BC,V1J 2B1,['250-785-3234']
"

Peace Pharmacy Ltd


",9840 101 Ave,Fort St. John,BC,V1J 2B2,['250-785-1140']
"

Anchor Compounding Pharmacy


",9822 101 Ave,Fort St. John,BC,V1J 2B2,['250-785-1140']
"

Loblaw Pharmacy


",1-9831 98A Ave,Fort St. John,BC,V1J 1S3,['250-785-2527']
"

Walmart Supercentre


",9007 96A Street,Fort St John,BC,V1J 7B6,['250-261-5585']
"

Safeway Pharmacy


",9123 100 Street,Fort St John,BC,V1J 3X3,['250-261-5479']
"

Safeway


",9123 100 Street,Fort St John,BC,V1J 5Z2,"['250-261-5477', '1-800-723-3929']"
"

Pharmasave


",121 Main St,Radville,SK,S0C 2G0,['306-869-2272']
"

Central Alberta Co-op


",4104-499 Timberlands Dr,Red Deer,AB,Unavailable,['587-802-8573']
"

Central Alberta Co-op Food Store


",3101-499 Timberlands Dr,Unavailable,AB,Unavailable,['587-802-8558']
"

Central Alberta Co-op Gas Bar/Carwash


",6101-499 Timberlands Dr,Unavailable,AB,Unavailable,['587-802-8480']
"

Central Alberta Co-op Pharmacy


",3101-499 Timberlands Dr,Unavailable,AB,Unavailable,['587-802-8559']
"

Shoppers Drug Mart


",1 Chambers Avenue,Red Deer,AB,T4P 0M9,['403-342-5548']
"

Northern Pharmacy


",20 First St,Moosonee,ON,P0L 1Y0,['705-336-3391']
"

Northey Remedy's RX Pharmacy


",190 Northey Ave,Red Deer,AB,T4P 3J6,['403-346-2367']
"

Pharmasave


",10200 8th Street,Dawson Creek,BC,V1G 3P8,['250-782-1902']
"

Walmart


",600 Hwy 2,Dawson Creek,BC,V1G 0A4,['250-719-0241']
"

Central Alberta Co-op


",6201 46 Ave,Red Deer,AB,T4N 6Z1,['403-343-2667']
"

Pharmasave


",10200 8 St,Dawson Creek,BC,V1G 3P8,['250-782-1538']
"

Johnstone IDA Pharmacy


",2-100 Jewell St,Red Deer,AB,T4P 3W3,['403-348-8203']
"

Clinic Pharmacy Ltd


",816 103 Ave,Dawson Creek,BC,V1G 2E9,['250-782-3100']
"

Nordlys Pharmacy Ltd


",102-1100 Alaska Ave,Dawson Creek,BC,V1G 4V8,['250-782-0601']
"

Save-On-Foods Pharmacy


",6720 52 Avenue,Red Deer,AB,T4N 4K9,['403-343-7744']
"

Save-On-Foods Pharmacy


",11000 8th Street,Dawson Creek,BC,V1G 4K6,['250-719-0167']
"

Walmart Supercentre


",6375 50th Avenue,Red Deer,AB,T4N 4C7,['403-358-5849']
"

Shoppers Drug Mart


",22-11000 8 Street,Dawson Creek,BC,V1G 4K6,['250-782-5903']
"

Safeway Pharmacy


",6319 50 Ave,Red Deer,AB,T4N 4C7,['403-341-4404']
"

Safeway


",6319 50 Ave,Red Deer,AB,T4N 4C7,['403-343-0224']
"

Shoppers Drug Mart


",1-6320 50 Avenue,Red Deer,AB,T4N 4C6,['403-348-8164']
"

Safeway


",11200 8 Street,Dawson Creek,BC,V1G 4K6,"['250-782-2253', '1-800-723-3929']"
"

Dave's No Frills


",1401 Alaska Ave,Dawson Creek,BC,V1G 1Z6,['1-866-987-6453']
"

Safeway Pharmacy


",11200 8 Street,Dawson Creek,BC,V1G 3R4,['250-782-9561']
"

Sobeys Pharmacy


",200-6380 50 Ave,Red Deer,AB,T4N 4C6,['403-347-1197']
"

Total Wellness Pharmacy


",6845 66 St,Red Deer,AB,T4P 3T5,['403-967-1777']
"

Plaza 67 I.D.A. Pharmacy


",120-6075 67A Street,Red Deer,AB,T4P 2Z9,['587-457-7118']
"

Pharmasave


",150-6900 Taylor Dr,Red Deer,AB,T4P 1K4,['403-342-2292']
"

Central Alberta Co-op


",700-6730 Taylor Dr,Red Deer,AB,T4P 1K4,['403-340-8787']
"

The Medicine Shoppe Pharmacy


",3805 50 Street,Red Deer,AB,T4N 1W1,['403-343-8088']
"

Central Alberta Co-op


",3101-499 Timberlands Dr,Red Deer,AB,Unavailable,['587-802-8559']
"

Central Alberta Co-op


",1-69 Dunlop St,Red Deer,AB,T4R 2H6,['403-342-4865']
"

Central Alberta Co-op


",69 Dunlop St,Red Deer,AB,T4R 2H6,['403-341-5775']
"

Shoppers Drug Mart


",2A-6315 Horn St,Red Deer,AB,T4N 6H5,['403-341-4166']
"

I.D.A. - Plaza Dispensary


",6A-5030 47 Avenue,Red Deer,AB,T4N 3P7,['403-340-3784']
"

Central Alberta Co-Op


",5118 47 Ave,Red Deer,AB,T4N 3P7,['403-309-8906']
"

Central Alberta Co-op


",5118 47 Avenue,Red Deer,AB,T4N 3P7,['403-340-1766']
"

Central Alberta Co-op


",5118 47 Ave,Red Deer,AB,T4N 3P7,[]
"

Highland Green Remedys Rx Pharmacy


",3-88 Howarth St,Red Deer,AB,T4N 6V9,['403-986-5531']
"

Care Gateway Pharmacies (Red Deer Ltd)


",5209 50 Ave,Red Deer,AB,T4N 4B4,['403-341-4911']
"

Ross Street I.D.A.


",4814 50 Street,Red Deer,AB,T4N 1X4,['403-340-1800']
"

Parsons Pharmacy


",D-4755 49 St,Red Deer,AB,T4N 1T6,['403-986-0700']
"

Rexall


",4826 Ross St,Red Deer,AB,T4N 1X4,['403-342-6535']
"

Bishop Place


",4826 50 St,Red Deer,AB,T4N 1X4,['403-348-0039']
"

Moose Factory Pharmacy


",107 Johnathan Cheechoo Dr,Moose Factory,ON,P0L 1W0,['705-658-2000']
"

Eastview Apple Drugs


",3831 40 Ave,Red Deer,AB,T4N 2W4,['403-346-3888']
"

East View Apple Drugs


",3831 40 Ave,Red Deer,AB,T4N 2W4,['403-347-4008']
"

Rexall


",600-1032 1 Avenue,Beaverlodge,AB,T0H 0C0,['780-354-2088']
"

Rexall


",4705 48th Avenue,Red Deer,AB,T4N 3T1,['403-342-6575']
"

Loblaw Pharmacy


",5016A 51st Avenue,Red Deer,AB,T4N 4H5,['403-350-3535']
"

Real Canadian Superstore


",5016A 51 Avenue,Red Deer,AB,T4N 4H5,['403-350-3527']
"

Mountview IDA Sproules


",3757 43 Ave,Red Deer,AB,T4N 3B7,['403-346-7181']
"

Mountview IDA Sproules


",3757 43 Ave,Red Deer,AB,T4N 3B7,['403-346-1215']
"

Mountview IDA Sproules


",3757 43 Ave,Red Deer,AB,T4N 3B7,['403-314-9184']
"

Sproule's Mountview I.D.A.


",3757 43 Avenue,Red Deer,AB,T4N 3B7,['403-347-2345']
"

Safeway


",4408 50 Avenue,Red Deer,AB,T4N 3Z6,"['403-346-1886', '1-800-723-3929']"
"

Safeway Pharmacy


",4407 50th Avenue,Red Deer,AB,T4N 3Z5,['403-346-3200']
"

Remedy'sRx


",5-6791 50 Ave,Red Deer,AB,T4N 4C9,['403-343-2234']
"

Sagewood Pharmacy


",5560 45 St Suite 12E,Red Deer,AB,T4N 1L1,['587-457-0933']
"

Royal Oaks Pharmasave Inc


",115-4309 52 Ave,Red Deer,AB,T4N 6S4,['587-457-0080']
"

South Hill Pharmacy


",3947 50A Ave,Red Deer,AB,T4N 6V7,['403-341-4488']
"

Mortar & Pesto Natural Pharmacy


",200-3947 50A Ave,Red Deer,AB,T4N 6V7,['403-347-0990']
"

Mortar & Pesto Natural Pharmacy


",200-3947 50A Ave,Red Deer,AB,T4N 6V7,['403-986-1700']
"

Guardian - Millerdale Pharmacy


",5201 43 Street,Red Deer,AB,T4N 1C7,['403-342-1434']
"

The Medicine Shoppe Pharmacy


",130-2950 22 Street,Red Deer,AB,T4R 0H9,['403-343-8831']
"

Save-On-Foods Pharmacy


",3020 22nd St,Red Deer,AB,T4R 3J5,['403-309-0520']
"

I.D.A. - Gaetz Avenue Pharmacy


",120-3410 50 Avenue,Red Deer,AB,T4N 3Y4,['403-340-1200']
"

I.D.A. - Piper Pharmacy


",105-3215 49 Avenue,Red Deer,AB,T4N 0M8,['403-343-1800']
"

Westpark Drugs


",3722 57 Ave,Red Deer,AB,T4N 4R7,['403-346-0123']
"

Westpark Drugs


",2-3722 57 Ave,Red Deer,AB,T4N 4R7,['403-346-9812']
"

Westpark I.D.A. Drugs


",3722 57th Avenue,Red Deer,AB,T4N 4R7,['403-346-8809']
"

Rexall


",511 Main St,Gravelbourg,SK,S0H 1X0,['306-648-3331']
"

CDM Elnora Pharmacy


",205 Main St,Elnora,AB,T0M 0Y0,['403-773-3678']
"

The Beauty Control Group Ltd


",2-4900 Molly Bannister Dr,Red Deer,AB,T4R 1N9,['403-356-0022']
"

Guardian - Sandstone Rx


","10404 100 St,Unit C",Hythe,AB,T0H 2C0,['780-356-3990']
"

Shoppers Drug Mart


","4900 Molly Bannister Drive,,Unit A06",Red Deer,AB,T4R 1N9,['403-343-3355']
"

Aspire Remedy Rx Pharmacy


",120-2810 Bremner Ave,Red Deer,AB,T4R 1M9,['403-986-0444']
"

Sobeys Pharmacy


",2110 50 Avenue,Red Deer,AB,T4R 2K1,['403-348-0858']
"

Walmart Supercentre


",2010 50th Avenue,Red Deer,AB,T4R 3A2,['403-347-1123']
"

London Drugs Pharmacy


",109-2004 50th Avenue,Red Deer,AB,T4R 3A2,"['403-342-1242', '1-888-991-2299']"
"

London Drugs Limited


",109-2004 50 Ave,Red Deer,AB,T4R 3A2,['403-342-6677']
"

London Drugs


",2004 50 Ave,Red Deer,AB,T4R 3A2,['403-342-5222']
"

Bentley I.D.A. Pharmacy


",5018 50 Avenue,Bentley,AB,T0C 0J0,['403-748-3820']
"

Walmart Supercentre


",413 Kensington Ave,Estevan,SK,S4A 2A5,['306-634-7296']
"

Loblaw Pharmacy


",137 King St,Estevan,SK,S4A 2T5,['306-636-1608']
"

Sobeys Pharmacy


",440 King St,Estevan,SK,S4A 2B4,['306-637-2580']
"

Costco Wholesale


",162 Leva Ave,Red Deer,AB,T4E 0A5,['403-347-1503']
"

Pharmasave 427


",1239 5th St,Estevan,SK,S4A 0Z5,['306-637-3801']
"

Henders Drugs


",1220 4th St,Estevan,SK,S4A 0W9,['306-634-3666']
"

AMP


",421 4Th St,Estevan,SK,S4A 0T9,['306-634-7231']
"

DRUGStore Pharmacy


",70 Hewlett Park Landng,Sylvan Lake,AB,T4S 2J3,['403-887-1310']
"

Walmart Supercentre


",3420 47 Ave,Sylvan Lake,AB,T4S 0B6,['403-887-7640']
"

Shoppers Drug Mart


",800-3715 47 Avenue,Sylvan Lake,AB,T4S 0C8,['403-887-5392']
"

Shoppers Drug Mart


","5043 50A St,Bay 8-13",Sylvan Lake,AB,T4S 1R1,['403-887-4200']
"

I.D.A. - Emo Drugs


",9 Front St,Emo,ON,P0W 1E0,['807-482-2430']
"

Sylvan Lake Remedy'sRx


",102-5007 46 Street,Sylvan Lake,AB,T4S 1C2,['403-864-0688']
"

The Medicine Shoppe Pharmacy


","1 Sylvan Drive,Bay 5",Sylvan Lake,AB,T4S 1J9,['403-864-1234']
"

Rexall


",123 Marks St,Atikokan,ON,P0T 1C0,['807-597-2785']
"

Atikokan Pharmacy Ltd


",123 Marks,Atikokan,ON,P0T 1C0,['807-597-2785']
"

Rainy Lake First Nations Pharmacy


",1460 Idylwild Dr,Fort Frances,ON,P9A 3M3,['807-274-3319']
"

Pharmasave


",140 Scott St,Fort Frances,ON,P9A 1G6,['807-274-5383']
"

Shoppers Drug Mart


",375 Scott St,Fort Frances,ON,P9A 1H1,['807-274-5351']
"

Safeway Pharmacy


",417 Scott St,Fort Frances,ON,P9A 1H3,['807-274-0363']
"

Safeway


",417 Scott St,Fort Frances,ON,P9A 1H3,"['807-274-4521', '1-800-723-3929']"
"

Walmart


",1250 King's Hwy,Fort Frances,ON,P9A 2X6,['807-274-4143']
"

Pharmasave


",301 Victoria Ave,Fort Frances,ON,P9A 2C1,['807-274-6204']
"

Fort Frances Clinic Dispensary


",301 Victoria Ave,Fort Frances,ON,P9A 2C1,['807-274-6204']
"

Forhans I.D.A. Pharmacy


",5017 50th Street,Eckville,AB,T0M 0X0,['403-746-2622']
"

Forhan's Pharmacy


",Unavailable,Eckville,AB,T0M 0X0,['403-746-2624']
"

Forhan's Pharmacy


",Unavailable,Eckville,AB,T0M 0X0,['403-746-3184']
"

Shoppers Drug Mart


",424 Centre St,Assiniboia,SK,S0H 0B0,['306-642-7370']
"

I.D.A. - Penhold Pharmacy


",3-1380 Robinson Ave,Penhold,AB,T0M 1R0,['403-886-4466']
"

Balkwill's Pharmacy Ltd


",Po Box 480,Trochu,AB,T0M 2C0,['403-442-3823']
"

Bengough Drug's Ltd


",100 Main St,Bengough,SK,S0C 0K0,['306-268-2002']
"

I.D.A. - Sandstone Pharmacies Henday Centre


",127-4804 50 Street,Innisfail,AB,T4G 1C2,['403-227-1111']
"

Pharmasave Jackson' s


",5011 49 St Innisfail,Unavailable,AB,T4G 1M1,['403-227-3500']
"

Pharmasave


",5011 49 Street,Innisfail,AB,T4G 1S7,['403-227-3500']
"

Parkland Pharmacy


",A-5027 49 Street,Innisfail,AB,T4G 1M1,['403-227-3488']
"

I.D.A. - Sandstone Pharmacies Innisfail


",4620 50 Avenue,Innisfail,AB,T4G 1M9,['403-227-5211']
"

Gull Lake Pharmacy


",3460 Rutland Ave,Gull Lake,SK,S0N 1A0,['306-672-3337']
"

Rexall


",54 Front St,Nipigon,ON,P0T 2J0,['807-887-2325']
"

Three Hills Pharmacy I.D.A.


",424 Main St,Three Hills,AB,T0M 2A0,['403-443-5551']
"

Peter's Pharmacy


",419 Main St,Three Hills,AB,T0M 2A0,['403-443-2433']
"

Value Drug Mart


",167 Centre St,Drumheller,AB,T0J 0Y0,['403-823-3784']
"

Post Office


",96 Railway Ave E,Drumheller,AB,T0J 0Y0,['900-565-2634']
"

DRUGStore Pharmacy


",5520 46th Street,Rocky Mountain House,AB,T4T 1X1,['403-846-4715']
"

Extra Foods


",5520 46 Street,Rocky Mountain House,AB,T4T 1A5,['403-846-4700']
"

Walmart


",1801 South Railway Ave,Drumheller,AB,T0J 0Y0,['403-820-7743']
"

Walmart


",1801 South Railway Ave,Drumheller,AB,T0J 0Y0,['403-820-7741']
"

Shoppers Drug Mart


",1-5207 48 Street,Rocky Mountain House,AB,T4T 0B1,['403-845-3066']
"

OChiese Guardian Pharmacy


",O'chiese Market Place,Rocky Mountain House,AB,T4T 1L6,['587-798-0456']
"

Extra Foods


",1252 Hwy 9 S,Drumheller,AB,T0J 0Y0,['403-823-3487']
"

DRUGStore Pharmacy


",1252 Hwy 9 S,Drumheller,AB,T0J 0Y0,['403-823-4795']
"

Value Drug Mart


",5132 49 St,Rocky Mountain House,AB,T4T 1B8,['403-845-3727']
"

Rocky IDA Pharmacy


",5033B 50 Street,Rocky Mountain House,AB,T4T 1C1,['403-871-5572']
"

Value Drug Mart


",5107 50 St,Rocky Mountain House,AB,T4T 1A1,['403-845-3727']
"

Shoppers Drug Mart


",41 Railway Ave W,Drumheller,AB,T0J 3R0,['403-823-5955']
"

Rexall Drug Store


",4919 50 St,Rocky Mountain House,AB,T4T 1T1,['403-845-2663']
"

Central Alberta Co-op


",PO Box 120,Spruce View,AB,T0M 1V0,['403-728-3770']
