Company Name,Street Address,City,Province,Postal Code,Phone Numbers
"

Brown's Guardian Pharmacy


",331 Durham St W,Mount Forest,ON,N0G 2L1,['519-881-2420']
"

Queen Street Pharmacy


",4421 Queen St,Niagara Falls,ON,L2E 2L2,['289-438-2871']
"

Falls Pharmacy


",6635 Drummond Rd,Niagara Falls,ON,L2G 4N4,"['289-932-3201', '1-844-378-5674']"
"

Mariposa Pharmacy


",40 Colborne St W,Orillia,ON,L3V 2Y4,['705-242-2870']
"

Parkwood Pharmacy


",117 Simcoe St N,Oshawa,ON,L1G 4S4,['289-312-1548']
"

Sarnia Pharmacy Inc


",206 Maxwell St,Sarnia,ON,N7T 5C3,['226-778-4274']
"

Central Parkway Pharmacy


",106-1300 Central Pky W,Mississauga,ON,L5C 4G8,['289-326-0921']
"

Highland I.D.A. Pharmacy


",3-75 Dundas St N,Cambridge,ON,N1R 6G5,['519-740-7070']
"

Stouffville I.D.A. Pharmacy


",6212 Main St,Stouffville,ON,L4A 2S5,['905-640-3324']
"

I.D.A. - Scotts Drug Mart


",1000 Simcoe St N,Oshawa,ON,L1G 4W4,['289-274-0023']
"

King Street Pharmacy


",621 King St E,Oshawa,ON,L1H 1G3,['289-274-0435']
"

Pastime Gold Mine


",502 Queen St S,Paisley,ON,N0G 2N0,"['519-353-4263', '1-844-816-8563']"
"

Mediserve Pharmacy


",591 King St E,Hamilton,ON,L8N 1E4,['905-577-6667']
"

Durham Drug Store


",780 Kingston Rd,Pickering,ON,L1V 1A8,['905-831-7977']
"

Connaught Place Pharmacy


",900 Ray Lawson Blvd,Brampton,ON,L6Y 5H7,['905-454-5430']
"

Pharmasave


",3485 Kingston Rd,Toronto,ON,M1M 1R4,['416-261-3346']
"

Wortley Village Pharmasave


",190 Wortley Rd,London,ON,N6C 4Y7,['519-438-6600']
"

Carlton Heights Pharmasave


",595 Carlton St,St Catharines,ON,L2M 4Y2,['905-934-2222']
"

Neighbourhood Pharmasave


",10323 Yonge St,Richmond Hill,ON,L4C 3C1,['905-737-2024']
"

Medical Pharmacy Bathurst


",4430 Bathurst St,North York,ON,M3H 3S3,['416-398-0188']
"

Simpson's Apothecary


",233 King St,Niagara-On-The-Lake,ON,L0S 1J0,['905-468-8400']
"

Pharmasave Health Centre


",30 Main St N,Hagersville,ON,N0A 1H0,['905-768-1144']
"

Pharmasave


",301 Blake St,Barrie,ON,L4M 1K7,['705-728-2429']
"

Cahoon's Pharmasave


",95 Deep River Rd,Deep River,ON,K0J 1P0,['613-584-1116']
"

Pharmasave


",108-1 Quarry Ridge Rd,Barrie,ON,L4M 7G1,['705-719-9449']
"

Pharmasave


",1 Massey St,Angus,ON,L0M 1B0,['705-424-1881']
"

Rexdale Pharmacy


",1620 Albion Rd,Etobicoke,ON,M9V 4B4,['416-913-2002']
"

Courtice Pharmasave


",2727 Courtice Rd,Courtice,ON,L1E 3A2,['905-432-8888']
"

Toronto East Pharmasave


",C114-825 Coxwell Ave,East York,ON,M4C 3E7,['416-778-1221']
"

River Run Pharmacy


",1525 Bristol Rd W,Mississauga,ON,L5M 4Z1,['905-819-1999']
"

Holly Pharmacy


",104-611 Holly Ave,Milton,ON,L9T 0K4,['905-878-9001']
"

Supercare Pharmacy


",410 Highway 8,Stoney Creek,ON,L8G 1G2,['905-664-1922']
"

Simpson's Pharmacy


",1882 Niagara Stone Rd,Niagara On The Lake,ON,L0S 1J0,['905-468-2121']
"

Huron Heights Pharmasave


",C1-1295 Highbury Ave,London,ON,N5Y 5L3,['519-453-0920']
"

Medcen Pharmasave


",339 Wellington Rd S,London,ON,N6C 5Z9,['519-672-1337']
"

Pharmasave


",409 Lyndoch St,Corunna,ON,N0N 1G0,['519-862-2020']
"

Brown's Pharmasave


",198 Josephine St,Wingham,ON,N0G 2W0,['519-357-1629']
"

Brant Plaza Pharmasave


",561 Brant St,Burlington,ON,L7R 2G6,['905-333-4088']
"

Robinson's Pharmasave


",2547 Trout Lake Rd,North Bay,ON,P1B 7S8,['705-495-4515']
"

Pharmasave Drugs (Head Office)


",404-3100 Steeles Ave E,Markham,ON,L3R 8G5,"['905-477-7820', '1-800-515-8620']"
"

Pharmasave


",1-13126 Tecumseh Rd E,Tecumseh,ON,N8N 3T6,['519-979-6222']
"

Minden Pharmasave


",110 Bobcaygeon Rd,Minden,ON,K0M 2K0,['705-286-1220']
"

Fenelon Falls Pharmacy-Pharmasave


",53 Colborne St,Fenelon Falls,ON,K0M 1N0,['705-887-2320']
"

Kawartha Lakes Pharmacy


",4A-55 Angeline St N,Lindsay,ON,K9V 5B7,['705-324-2929']
"

Pharmasave Grantham Plaza


",400 Scott St,St Catharines,ON,L2M 3W4,['905-934-3333']
"

Grand River Pharmacy


",334 Broad St W,Dunnville,ON,N1A 1T1,['905-229-2050']
"

Rowan's Pharmasave


",115 Pembroke St W,Pembroke,ON,K8A 5M7,['613-732-2522']
"

Pharmasave


",21 Essa Rd,Barrie,ON,L4N 3K4,['705-728-2823']
"

Pharmasave


",52 Queen St,Cookstown,ON,L0L 1L0,['705-458-1292']
"

Thorncliffe Pharmacy


",104-65 Overlea Blvd,Toronto,ON,M4H 1P1,['416-421-9359']
"

Pharmasave


",462 Birchmount Rd,Toronto,ON,M1K 1N8,['416-698-1616']
"

Courtland Pharmasave


",1144 Courtland Ave E,Kitchener,ON,N2C 2H5,['519-743-1484']
"

Val Est Pharmacy Pharmasave


",17-3140 Hwy 69 N,Val Caron,ON,P3N 1G7,['705-897-1867']
"

Nickel Centre Pharmacy Pharmasave


",10-3098 Falconbridge Hwy,Garson,ON,P3L 1P5,['705-693-2738']
"

Health Care Pharmacy Pharmasave


",1276 Lasalle Blvd,Sudbury,ON,P3A 1Y8,['705-566-5551']
"

Wilson Pharmacy


",10 Serpentine St,Copper Cliff,ON,P0M 1N0,['705-682-2841']
"

Village Square Pharmacy


",101-2 Poyntz St,Penetanguishene,ON,L9M 1M2,['705-549-3141']
"

Eustace Jacksons Point Pharmasave


",936 Lake Dr E,Jacksons Point,ON,L0E 1L0,['905-722-7622']
"

Village Gate Pharmacy


",101 East St S,Bobcaygeon,ON,K0M 1A0,['705-738-2372']
"

Tottenham Pharmasave


",55 Queen St S,Tottenham,ON,L0G 1W0,['905-936-4141']
"

Dixon Medical Pharmasave Ltd


",531 Davis Dr,Newmarket,ON,L3Y 6P5,['905-830-9660']
"

College Manor Pharmasave & Wellness Centre Ltd


",883 Mulock Dr,Newmarket,ON,L3Y 8S3,['905-830-5677']
"

Pharmasave


",126 Wellington St W,Aurora,ON,L4G 2N9,['905-841-2133']
"

Pharmasave


",184 Marina Blvd,Peterborough,ON,K9H 6M9,['705-743-1004']
"

Pharmasave


",26 Hospital Dr,Peterborough,ON,K9J 7C3,['705-748-5859']
"

Pharmasave


",1040 Lansdowne St W,Peterborough,ON,K9J 1Z9,['705-742-2461']
"

Nobleton Pharmasave


",13305 Hwy 27,Nobleton,ON,L0G 1N0,['905-859-0037']
"

Pharmasave Gunter Apothecary


",102-15955 Airport Rd,Caledon East,ON,L7C 1H9,['905-584-1010']
"

Pharmasave Dundas Centre


",220 Dundas St W,Whitby,ON,L1N 8M7,['905-430-2999']
"

Bramcity Pharmacy


",14 Lisa St,Brampton,ON,L6T 4W2,['905-460-0330']
"

Pharmasave Health First Pharmacy


",12 Harrison Garden Blvd,North York,ON,M2N 7K6,['416-228-8811']
"

Pharmasave Malvern Drug Mart


",1152 Morningside Ave,Scarborough,ON,M1B 3A4,['416-281-7900']
"

Westbram Pharmacy


",100 Pertosa Dr,Brampton,ON,L6X 0H9,['905-454-5111']
"

Rylander Pharmasave


",8-6758 Kingston Rd,Scarborough,ON,M1B 1G8,['416-281-4223']
"

Wexford Heights Pharmacy


",2050 Lawrence Ave E,Scarborough,ON,M1R 2Z6,['416-757-1114']
"

Pharmasave Wynford Heights


",150 Wynford Heights Crescent,Toronto,ON,M3C 1K6,['416-449-9933']
"

Healthsmart Pharmasave


",10-2425 Eglinton Av E,Scarborough,ON,M1K 5G8,['416-759-0000']
"

Pharmasave Pape


",1018 Pape Ave,East York,ON,M4K 3V9,['416-429-8448']
"

Swansea Village Pharmacy


",2388 Bloor St W,Toronto,ON,M6S 1P5,['416-604-1234']
"

Pharmasave On Wyndham


",101-45 Wyndham St N,Guelph,ON,N1H 4C9,['519-763-0695']
"

Pharmasave


",Unavailable,Unavailable,Unavailable,Unavailable,['519-265-5880']
"

Pharmasave Cobourg Pharmacy


",2-995 Elgin St W,Cobourg,ON,K9A 5J3,['905-372-5466']
"

Campus Pharmasave


",170 University West Ave,Waterloo,ON,N2L 3E9,['519-886-2420']
"

Central Pharmasave


",149 Union St E,Waterloo,ON,N2J 1C4,['519-585-0019']
"

Pharmasave The Tannery Pharmacy


",121 Charles St W,Kitchener,ON,N2G 1H6,['519-744-1000']
"

Driftwood Pharmasave Pharmacy


",12-450 Westheights Dr,Kitchener,ON,N2N 2B9,['519-584-7484']
"

Pharmasave Monarch Pharmacy


",2A-95 Saginaw Pky,Cambridge,ON,N1T 1W2,['519-740-2400']
"

Kanata Pharmasave Drugs


",99 Kakulu Rd,Kanata,ON,K2L 3C8,['613-592-6955']
"

Pharmasave Victoria


",1065 Wellington St W,Ottawa,ON,K1Y 2Y2,['613-729-6149']
"

Astley's Pharmasave


",423 Rideau St,Ottawa,ON,K1N 5Y9,['613-233-8454']
"

Green Street Pharmacy


",16 Green St,Ottawa,ON,K2J 3R2,['613-825-7700']
"

Supercare Pharmasave


",1575 Upper Ottawa St,Hamilton,ON,L8W 3E2,['905-385-1010']
"

Paramount Pharmasave


",5001-1795 Stone Church Rd E,Stoney Creek,ON,L8J 0B4,['905-578-1111']
"

Springbank Dispensary Pharmasave


",35 Springbank Ave N,Woodstock,ON,N4S 7P6,['519-539-4888']
"

Ingersoll Pharmasave


",19 King St E,Ingersoll,ON,N5C 1G3,['519-485-2300']
"

Forest Pharmacy


",19 King St W,Forest,ON,N0N 1J0,['519-786-5161']
"

Pharmasave


",16 Main St E,Athens,ON,K0E 1B0,['613-924-2070']
"

Henderson's Pharmacy Limited


",15 Front St S,Thorold,ON,L2V 1W8,['905-227-2511']
"

Pharmasave Hanna


",5233 Stanley Ave,Niagara Falls,ON,L2E 7C2,['289-341-0122']
"

Pharmasave


",220 King St E,Gananoque,ON,K7G 1G2,['613-382-1333']
"

Pharmasave


",1012 Prince St,Lansdowne,ON,K0E 1L0,['613-659-4800']
"

Pharmasave


",105 Main St of Delhi,Delhi,ON,N4B 2L8,['519-582-0006']
"

Pharmasave


",221 Main Street,Delhi,ON,N4B 2M4,['519-582-1530']
"

Clark's Pharmasave


",381 Cedar Street,Simcoe,ON,N3Y 2J2,['519-428-4226']
"

Clark's Pharmasave


",216 West Street,Simcoe,ON,N3Y 1S8,['519-426-7750']
"

Clark's Pharmasave


",454 Norfolk Street South,Simcoe,ON,N3Y 2X3,['519-426-6580']
"

Pharmasave


",155A-417 Wellington St,St Thomas,ON,N5R 5J5,['519-631-5551']
"

Port Rowan Pharmasave


",1024 Bay St,Port Rowan,ON,N0E 1M0,['519-586-3983']
"

Pharmasave


",8 Queen St N,Tilbury,ON,N0P 2L0,['519-682-0867']
"

Pharmasave Administrative Office


",Unavailable,Unavailable,Unavailable,Unavailable,['416-265-3304']
"

Valley Plaza Phrmacy


",5085 Old Hwy 69,Hanmer,ON,P3P 1P7,['705-969-4400']
"

PharmaChoice


",229 John St,Pontypool,ON,L0A 1K0,['705-277-1234']
"

Village Pharmacy


",Unavailable,Westport,ON,K0G 1X0,['613-273-2922']
"

Main Drug Mart


",2437 Finch Ave W,North York,ON,M9M 2E7,['416-745-2332']
"

Lakeside Pharmacy


",2438 Lake Shore Blvd W,Etobicoke,ON,M8V 1C4,['416-252-2999']
"

Northview Pharmacy


",4949 Bathurst St,North York,ON,M2R 1Y1,['416-224-8555']
"

Mrs O's Pharmacy


",118 Jarvis St,Fort Erie,ON,L2A 2S4,['905-994-0200']
"

Guardian - Dundalk Village Pharmacy


",1 Main St E,Dundalk,ON,N0C 1B0,['519-923-2215']
"

Hills Pharmacy


",35 Talbot St E,Aylmer,ON,N5H 1H3,['519-773-9263']
"

Kensington Pharmacy


",Kensington Pky,Brockville,ON,K6V 6C3,['613-342-2894']
"

Yurek Specialties


",Unavailable,Unavailable,Unavailable,Unavailable,['519-631-6502']
"

Noelville Pharmacy


",20 St David St N,Noelville,ON,P0M 2N0,['705-898-2999']
"

Westmount Pharmacy


",1293 Clonsilla Ave,Peterborough,ON,K9J 5Z3,['705-741-5008']
"

Pellow Pharmacy


","232 Durham St E,",Walkerton,ON,N0G 2V0,['519-881-0151']
"

Marina Pharmacy


",1568 Merivale Rd,Nepean,ON,K2G 3J9,['613-723-7003']
"

Gillingham Pharmacy


",10 Gillingham Dr,Brampton,ON,L6X 5A5,['905-459-7800']
"

Wardrop Pharmasave


",639 Goderich,Port Elgin,ON,N0H 2C0,['519-832-2015']
"

Bothwell Pharmacy


",231 Main N,Bothwell,ON,N0P 1C0,['519-695-2723']
"

Gordon Pharmasave


",767 Queen St,Kincardine,ON,N2Z 2Y2,['519-396-3364']
"

Ohsweken Pharmasave


",1769 Chiefswood Rd,Ohsweken,ON,N0A 1M0,['519-445-4471']
"

Ernest Pharmacy


",1401 Ernest Ave,London,ON,N6E 2P6,['519-681-1888']
"

Lefko Drugs


",842 Wilson Ave,North York,ON,M3K 1E5,['416-635-6802']
"

Cotton Mill Pharmacy


",703 Cotton Mill St,Cornwall,ON,K6H 0E7,['613-936-0000']
"

Lyan Pharmacy


",752A Somerset St W,Ottawa,ON,K1R 6P8,['613-232-3187']
"

Sundridge Pharmacy


",Unavailable,Unavailable,Unavailable,Unavailable,['1-800-461-5423']
"

Barriefield Pharmasave


",760 Hwy 15,Unavailable,ON,Unavailable,['613-766-8250']
"

Health + Plex Medical Centre & Walk-In Clinic


",150 West Dr,Brampton,ON,L6T 4P9,['905-454-7410']
"

Peters Drugs Ltd


",640 King St W,Kingston,ON,K7M 2E5,['613-546-5165']
"

Queen Lynch Pharmacy


",157 Queen St E,Brampton,ON,L6W 3X4,['905-450-3500']
"

Brantford Medical Pharmacy


","40 Place Shellington, 1st floor",Brantford,ON,N3S 0C5,['519-754-2888']
"

Pharmasave Devon Pharmacy


",360 Wilson Rd S,Oshawa,ON,L1H 6C7,['905-725-6513']
"

Community Health Pharmacy


",4790 Victoria Ave,Niagara Falls,ON,L2E 4C2,['905-354-4383']
"

Bristol Medical Pharmacy


",2315 Bristol Cir,Oakville,ON,L6H 6P8,['905-829-4495']
"

Lorraine's Pharmasave


",Old Barry's Bay Rd,Madawaska Valley,ON,K0J 1B0,['613-756-2013']
"

Fairway Lackner Pharmacy


",900 Fairway Cres,Kitchener,ON,N2A 0A1,['519-954-8794']
"

Lucan Drug Mart


",163 Ailsa Craig Main,Ailsa Craig,ON,N0M 1A0,['519-293-3246']
"

Bronte Centre Pharmacy


",78 Jones St,Oakville,ON,L6L 6C5,['905-847-0002']
"

Erindale Medical Centre


",1101 McBride Ave,Mississauga,ON,L5C 1M6,['905-270-4020']
"

Pharmasave Port Hope


",60 Ontario St,Unavailable,ON,Unavailable,['905-885-1294']
"

Ottawa Apothecaries Ltd


",214 Main St E,Hawkesbury,ON,K6A 1A5,['613-632-8839']
"

Ridge Apothecary Pharmasave


",22 Main E,Ridgetown,ON,N0P 2C0,['519-674-3400']
"

Gilmer Pharmacy Ltd


",Shopping Centre,Iroquois,ON,K0E 1K0,['613-652-4379']
"

Robinson's Pharmasave


",119 Tudhope St,Espanola,ON,P5E 1S6,['705-869-1561']
"

Bridlewood Drug Mart


",64 Stonehaven Dr,Kanata,ON,K2M 2Y2,['613-254-9918']
"

Paul's Pharmasave


",7-990 River Rd,Manotick,ON,K4M 1B9,['613-692-0015']
"

Dispensary Pharmasave The


",105-510 Ingersoll Ave,Woodstock,ON,N4S 4X9,['519-539-7272']
"

Geen's Pharmasave


",305 North Front,Belleville,ON,K8P 3C2,['613-962-4576']
"

Pringle Creek Pharmasave


",728 Anderson St,Whitby,ON,L1N 3V6,['905-666-9922']
"

Prism's Pharmacy


",155 James St S,Hamilton,ON,L8P 3A4,['905-527-5771']
"

B D R Drug Mart


",15 Station Rd,Unavailable,ON,P2N 3J1,['705-567-3315']
"

Guardian - Sinclair Pharmacy Ltd


",12 Wellington St,Stratford,ON,N5A 7V4,['519-271-8940']
"

Aylmer I.D.A.


",6 Talbot St E,Aylmer,ON,N5H 1H4,['519-765-1088']
"

Allan's Community Pharmacy


",531 Atkinson Ave,Thornhill,ON,L4J 8L7,['905-709-3414']
"

Tobia's Guardian Pharmacy


",12357 Hwy 41,Northbrook,ON,K0H 2G0,['613-336-8111']
"

Kelly's Guardian Pharmacy


",411 Bridge St E,Belleville,ON,K8N 1P7,['613-962-5387']
"

I.D.A. - Highland Drug Mart


",222 Colborne St,Port Stanley,ON,N5L 1C2,['519-782-3324']
"

Pharma Viva Pharmacy Inc


",6 Clairmont St,Thorold,ON,L2V 1R1,['905-680-7077']
"

South River Pharmacy


",311 Hwy 11,South River,ON,P0A 1X0,['705-386-0636']
"

Pharmasave Mary's Pharmacy


",460 Hume St,Collingwood,ON,L9Y 1W6,['705-444-7997']
"

West Main Community Pharmacy


",154 West Main St,Welland,ON,L3C 5A2,['905-735-0600']
"

Niagara Falls Centre Pharmacy


",6453 Morrison St,Niagara Falls,ON,L2E 7H1,['905-374-2050']
"

Pharmasave Lane Family Pharmacy


",4 Pine Dr,Parry Sound,ON,P2A 3B8,['705-746-2187']
"

Pharmasave Balmoral Chemists Inc


",1366 Yonge St,Toronto,ON,M4T 3A7,['416-934-9555']
"

Medical Arts Pharmacy


",179 James St S,Hamilton,ON,L8P 3A3,['905-522-1117']
"

Michael's Pharmasave


",181 Cambria Rd N,Goderich,ON,N7A 2R2,['519-524-2242']
"

Toronto Manning Drug Mart


",260 Spadina Ave,Toronto,ON,M5T 2E4,['416-348-8895']
"

Huron Street Dispensary Pharmasave


",95 Huron St,Woodstock,ON,N4S 6Z5,['519-539-2888']
"

Yurek Pharmacy & Home Healthcare


",519 Talbot St,St Thomas,ON,N5P 1C3,"['519-631-3330', '1-866-631-3330']"
"

Lakefield IDA Pharmacy


",32 Queen,Douro,ON,K0L 2H0,['705-652-3451']
"

I.D.A. - Levack Pharmacy


",2 1st Ave,Levack,ON,P0M 2C0,['705-966-3612']
"

I.D.A. - Tavistock Pharmacy


",17 Woodstock St S,Tavistock,ON,N0B 2R0,['519-655-2111']
"

Guardian - MacKay's Island Pharmacy


",1186 Richard St,Richard's Landing,ON,P0R 1J0,['705-246-0650']
"

I.D.A. - MacLaren Pharmacy


",79 Bridge St E,Campbellford,ON,K0L 1L0,['705-653-1960']
"

L & A Pharmacy Ltd


",1485 Gerrard St E,Toronto,ON,M4L 2A4,['416-465-1515']
"

Herman's IDA Pharmacy


",240 Régent St,Sudbury,ON,P3C 4C5,['705-674-3339']
"

I.D.A. - High Park Pharmacy


",1938 Bloor St W,Toronto,ON,M6P 3K8,['416-769-2222']
"

I.D.A. - Killaloe Village Pharmacy


",7 Lake St,Killaloe,ON,K0J 2A0,['613-757-2281']
"

I.D.A. - Pharmacy By The Grange


",275 Dundas St W,Toronto,ON,M5T 1G1,['416-593-4696']
"

I.D.A. - Health Care Centre Pharmacy


",835 King W,Kitchener,ON,N2G 1G3,['519-749-4227']
"

I.D.A. - Bathurst & Bloor Drug Mart


",800 Bathurst St,Toronto,ON,M5R 3G1,['416-537-2427']
"

Guardian - Sundridge Pharmacy


",107 Main St,Sundridge,ON,P0A 1Z0,['705-384-5335']
"

Jean Coutu Pharmacy


",2701 St Joseph Blvd,Orléans,ON,K1C 1G4,['613-837-8689']
"

I.D.A. - Roulstons Pharmacy


",17 Norfolk St S,Simcoe,ON,N3Y 2V8,['519-426-1731']
"

Jean Coutu Pharmacy


",2246 Laurier St,Rockland,ON,K4K 1L4,['613-446-5054']
"

Pharmacie Jean Coutu


",867 Notre Dame St,Embrun,ON,K0A 1W0,['613-443-3552']
"

Jean Coutu (Pharmacies Affiliees)


",629 Principale St,Casselman,ON,K0A 1M0,['613-764-5455']
"

Jean Coutu (Pharmacies Affiliees)


",80 Main St E,Hawkesbury,ON,K6A 1A3,['613-632-2743']
"

Jean Coutu (Pharmacies Affiliees) PJC Clinique


",1062 Ghislain St,Hawkesbury,ON,K6A 3B2,['613-632-4488']
"

Watson's Pharmacy & Compounding Centre


",1308 Wellington St W,Ottawa,ON,K1Y 3B2,['613-238-1882']
"

Yurek Specialties Ltd


",629 Consortium Crt,St Thomas,ON,N5P 1C3,"['519-680-7474', '1-888-631-6502']"
"

Gardiners Pharmasave


",500 Gardiners Rd,Kingston,ON,K7M 7W9,['613-507-5555']
"

Pharmasave


",220 King Street,Sturgeon Falls,ON,P2B 1R9,['705-223-0494']
"

Lucknow Pharmasave


",622 Campbell St,Lucknow,ON,N0G 2H0,['519-528-3004']
"

Jean Coutu (Affiliated Pharmacies)


",262 Montreal Rd,Vanier,ON,K1L 6C3,['613-749-5957']
"

Timmins Pharmacy


",57-1500 Riverside Drive,Timmins,ON,P4R 1A1,['705-267-6660']
"

Pharmasave


",118 7th Ave.,Hanover,ON,N4N 2G9,['519-364-4422']
"

Acheson Pharmacy


",16 Elora St. South,Harriston,ON,N0G 1Z0,['519-338-3230']
"

Pharmasave


",221 King Street East,Bowmanville,ON,L1C 1P7,['905-697-3784']
"

Pharmasave Perth Downtown


",57 Foster,Perth,ON,K7H 1R9,['613-267-1578']
"

Queens Pharmacy Ltd


",110 Bearbrook Rd,Gloucester,ON,K1B 5R2,['613-830-4500']
"

Tottenham Medical Pharmacy


",2-120 Mill St E,Tottenham,ON,L0G 1W0,['905-936-3771']
"

Pharmasave Westboro


",421 Richmond Rd,Ottawa,ON,K2A 4H1,['613-722-7647']
"

Jean Coutu (Affiliated Pharmacies)


",Unavailable,Unavailable,Unavailable,Unavailable,['613-744-3777']
"

Jean Coutu (Pharmacies Affiliées)


",262 Ch Montréal Vanier,Unavailable,ON,Unavailable,['613-749-5957']
"

Jean Coutu (Pharmacies Affiliées)


",Fax,Unavailable,ON,Unavailable,[]
"

Yurek Pharmacy Ltd


",629 Consortium Court,London,ON,N5P 1C3,"['519-631-3330', '1-888-631-6502']"
"

Model Guardian Drug Store


",32 Birch St E,Chapleau,ON,P0M 1K0,['705-864-0472']
"

Lalonde's Pharmacy


",23 Young St Gd,Capreol,ON,P0M 1H0,['705-858-1231']
"

Loblaw Pharmacy


",5200 Hwy 69 N,Hanmer,ON,P3P 1Z3,['705-969-4971']
"

Shoppers Drug Mart


",5118 Hwy 69 N,Hanmer,ON,P3P 1B9,['705-969-8000']
"

Pharmasave


",5085 Hwy 69 N,Hanmer,ON,P3P 1P6,['705-969-4400']
"

Pharmasave


",5085 Hwy 69 N,Hanmer,ON,P3P 1P6,['705-969-4409']
"

Pharmasave


",5085 Hwy 69 N Hanmer,Hanmer,ON,P3P 1P7,['705-969-4400']
"

Valley Prescription Centre


",2956 Hwy 69,Val Caron,ON,P3N 1E3,['705-897-1127']
"

Rexall


",3080 Hwy 69 N,Val Caron,ON,P3N 1R8,['705-897-4994']
"

Pharmasave


",3140 Hwy 69 N Val Caron,Unavailable,ON,Unavailable,['705-897-1867']
"

Rexall


",93 Notre Dame St W,Azilda,ON,P0M 1B0,['705-983-4211']
"

Guardian - Chelmsford Pharmacy


",46 Main St,Chelmsford,ON,P0M 1L0,['705-855-2371']
"

Loblaw Pharmacy


",4764 Regional Rd 15,Chelmsford,ON,P0M 1L0,['705-855-8200']
"

Guardian - Northeast Medical Pharmacy


",101-3557 Errington Ave Gd,Chelmsford,ON,P0M 1L0,['705-855-0444']
"

Chelmsford I.D.A


",3672 Hwy 144,Chelmsford,ON,P0M 1L0,['705-855-1454']
"

MediSystem Pharmacy


",1899 Lasalle Blvd,Sudbury,ON,P3A 2A3,['705-524-3542']
"

Lasalle Clinic Pharmacy


",1813 Lasalle Blvd,Sudbury,ON,P3A 2A3,['705-525-1771']
"

Lasalle Clinic Pharmacy


",1813 Lasalle Blvd,Sudbury,ON,P3A 2A3,['705-521-1811']
"

Good Guys Pharmacy


",1536 Lasalle Blvd,Sudbury,ON,P3A 1Z7,['705-885-1888']
"

Loblaw Pharmacy


",1485 Lasalle Blvd,Sudbury,ON,P3A 5H7,['705-521-1031']
"

Walmart Supercentre


",1349 Lasalle Blvd,Sudbury,ON,P3A 1Z2,['705-566-9692']
"

Shoppers Drug Mart


",1349 Lasalle Blvd,Sudbury,ON,P3A 1Z2,['705-566-9300']
"

Health Care Pharmacy Pharmasave


",1276 Lasalle Blvd,Sudbury,ON,P3A 1Y8,['705-566-5592']
"

Propharm Ltd


",1276 Lasalle Blvd,Unavailable,ON,P3A 1Y8,[]
"

Remedy'sRx - Clinic Pharmacy


",103-1122 Lasalle Blvd,Sudbury,ON,P3A 1Y4,['705-560-7788']
"

Rexall


",848 Lasalle Blvd,Sudbury,ON,P3A 1X5,['705-525-0120']
"

Rexall


",555 Barrydowne Rd,Sudbury,ON,P3A 3T4,['705-566-5200']
"

Rexall Drug Store#6905


",555 Barrydowne Rd,Sudbury,ON,P3A 3T4,['705-525-7541']
"

Costco Wholesale


",1465 Kingsway,Sudbury,ON,P3B 0A5,['705-524-5650']
"

Goulet C


",4690 Regional Rd,Unavailable,ON,P0M 1L0,['705-590-3121']
"

Dowling I.D.A. Pharmacy


",30 Main St,Dowling,ON,P0M 1R0,['705-855-4562']
"

Guardian - Coniston Pharmacy


",24 Amanda St,Coniston,ON,P0M 1M0,['705-694-5346']
"

Shaw Pharmacy


",401 Frood Rd,Sudbury,ON,P3C 4Z7,['705-673-2365']
"

Lakeside Pharmacy


",1485 Bancroft Dr,Sudbury,ON,P3B 1R6,['705-524-2221']
"

Guardian - Cobalt Pharmacy


",24 Prospect Ave,Cobalt,ON,P0J 1C0,['705-679-2146']
"

Rexall


",1975 Bancroft Dr,Sudbury,ON,P3B 1T1,['705-560-1234']
"

Shoppers Drug Mart


",86 Elm St,Sudbury,ON,P3C 1T2,['705-671-9230']
"

VitaHeal Pharmacy


",128 Cedar St,Sudbury,ON,P3E 1B4,['705-805-6381']
"

Rexall


",117B Cedar St,Sudbury,ON,P3E 1A9,['705-675-2471']
"

Medical Pharmacies


",65 Larch St,Sudbury,ON,P3E 1B8,['705-675-1900']
"

Loblaw Pharmacy


",82 Lorne St,Sudbury,ON,P3C 4N8,['705-671-4721']
"

Shoppers Drug Mart


",112-359 Riverside Dr,Sudbury,ON,P3E 1H5,['705-673-3731']
"

Seasons Pharmacy Sudbury


",815 Lorne St,Sudbury,ON,P3C 4R5,['705-222-2200']
"

Loblaw Pharmacy


",55 Scott St,New Liskeard,ON,P0J 1P0,['705-647-8728']
"

Findlay's Drug Store


",247 Whitewood Ave W,New Liskeard,ON,P0J 1P0,['705-647-8186']
"

I.D.A. - Earlton Pharmacy


",14 10th Street E,Earlton,ON,P0J 1E0,['705-563-8300']
"

Medical Pharmacies Group Inc


",1351 Kelly Lake Rd,Sudbury,ON,P3E 5P5,['705-522-3137']
"

Carerx Corp.


",1351G Kelly Lake Rd,Sudbury,ON,P3E 5P5,"['705-671-0808', '1-866-553-8369']"
"

Walmart Supercentre


",133 Hwy 11,New Liskeard,ON,P0J 1P0,['705-647-5210']
"

Shoppers Drug Mart


",1935 Paris St,Sudbury,ON,P3E 3C6,['705-522-2121']
"

Food & Drug Basics


",1875 Regent St,Sudbury,ON,P3E 3Z7,['705-523-9994']
"

Metro Pharmacy


",1933 Regent St,Sudbury,ON,P3E 5R2,['705-523-9994']
"

Shoppers Drug Mart


",2015 Long Lake Rd,Sudbury,ON,P3E 4M8,['705-522-3030']
"

Rexall


",2009 Long Lake Rd,Sudbury,ON,P3E 6C3,['705-523-1171']
"

Walmart Supercentre


",2416 Long Lake Rd,Sudbury,ON,P3E 5H5,['705-523-6287']
"

Pharmasave


",43 3rd St,Englehart,ON,P0J 1H0,['705-544-7878']
"

Guardian - Walden Family Drugstore


",135 Regional Rd 24,Lively,ON,P3Y 1J1,['705-692-5868']
"

Loblaw Pharmacy


",65 Regional Rd 24,Lively,ON,P3Y 1C3,['705-692-3310']
"

St Charles Pharmacy


",1 King E,St Charles,ON,P0M 2W0,['705-867-2020']
"

Pharmacy Nipissing


",26 Principale St E,Verner,ON,P0H 2M0,['705-581-2013']
"

Loblaw Pharmacy


",15 McChesney Ave,Kirkland Lake,ON,P2N 3R9,['705-567-4941']
"

Kirkland Pharmacy


",38 Government Rd W,Kirkland Lake,ON,P2N 2E2,['705-567-3223']
"

Pharmasave


",15 Station Rd N,Kirkland Lake,ON,P2N 3J1,['705-567-3315']
"

I.D.A. - Rx Drug Mart King St


",228 King St,Sturgeon Falls,ON,P2B 1R9,['705-753-0150']
"

Narin Ctr Medical Pharmacy


",36 McIntyre St,Nairn Centre,ON,P0M 2L0,['705-583-3061']
"

Alban Pharmacy


",24 Delamere Rd,Alban,ON,P0M 1A0,['705-857-2349']
"

Loblaw Pharmacy


",12035 Hwy 17,Sturgeon Falls,ON,P2B 2S6,['705-753-5850']
"

Alemax Drugs


",12006 Highway 17 E,Sturgeon Falls,ON,P2B 3K8,['705-753-0202']
"

Larder Lake Pharmacy


",15-B Godfrey St,Larder Lake,ON,P0K 1L0,['705-643-2400']
"

Remedy'sRx Espanola


",111-800 Centre St,Espanola,ON,P5E 1J3,['705-869-1860']
"

DRUGStore Pharmacy


",745 Centre St,Espanola,ON,P5E 1S8,['705-869-0330']
"

Espanola Clinic Pharmacy


",801 McKinnon Dr,Espanola,ON,P5E 1T2,['705-862-7000']
"

McDonald's Pharmacy


",67 Bruce Ave Gd,South Porcupine,ON,P0N 1H0,['705-235-3941']
"

Dupuis G


",30 Father Costello Dr,Timmins,ON,Unavailable,['705-268-3080']
"

Rexall


",119 Pine St S,Timmins,ON,P4N 2K3,['705-267-6422']
"

Shoppers Drug Mart


",5-681 Algonquin Blvd E,Timmins,ON,P4N 8S6,['705-264-6511']
"

Shoppers Home Health Care


",4-681 Algonquin Blvd E,Timmins,ON,P4N 8S6,['705-264-6511']
"

Loblaw Pharmacy


",654 Algonquin Blvd E,Timmins,ON,P4N 8R4,['705-264-8300']
"

Uniprix Boumediene Sellaf - Pharmacie affiliée


","550, chemin Kipawa",Témiscaming,QC,J0Z 3R0,['819-627-3373']
"

Medimart Pharmacy


",27 2nd Ave,Cochrane,ON,Unavailable,['705-272-3700']
"

Health Care Guardian Pharmacy


",27 Cedar St S,Timmins,ON,P4N 2G5,['705-267-2048']
"

Shoppers Drug Mart


",227 Algonquin Blvd W,Timmins,ON,P4N 2R8,['705-264-4311']
"

Walmart Supercentre


",1870 Riverside Dr,Timmins,ON,P4N 7C3,['705-267-3101']
"

Shoppers Drug Mart


",66 Josephine St,North Bay,ON,P1B 0A7,['705-497-8542']
"

North Bay Guardian Drugs


",1950 Algonquin Ave,North Bay,ON,P1B 4Z2,['705-472-5500']
"

Pharmasave


",1221 Algonquin Ave,North Bay,ON,P1B 4Y3,['705-474-8630']
"

Northern Shores Pharmacy


",10 Maplewood Ave,North Bay,ON,P1B 5H2,['705-474-9999']
"

Algonquin Pharmasave


",1221 Algonquin Ave,North Bay,ON,P1B 4Y3,['705-474-8630']
"

Guardian - Willis Pharmacy


",414 5th Ave,Matheson,ON,P0K 1N0,['705-273-2202']
"

Harris Guardian Pharmacy


",111 Main St,North Bay,ON,P1B 2T6,['705-472-8280']
"

Medical Pharmacies


",133 Main St W,North Bay,ON,P1B 2T6,['705-472-8030']
"

North Bay Lifecare Pharmacy


",142 Main St E,North Bay,ON,P1B 1A8,['705-223-9226']
"

Pharmasave


",239 Main St E,North Bay,ON,P1B 1B2,['705-478-8836']
"

Shoppers Drug Mart


",2025 Cassells St,North Bay,ON,P1B 4E1,['705-474-8200']
"

Loblaw Pharmacy


",1 Laurentian Ave,North Bay,ON,P1B 9T2,['705-472-8155']
"

Robinson's Pharmasave


",2547 Trout Lake Rd,North Bay,ON,P1B 7S8,['705-495-4059']
"

Rexall


",1205 Fisher St,North Bay,ON,P1B 2H2,['705-476-2307']
"

Walmart Supercentre


",1500 Fisher St,North Bay,ON,P1B 2H3,['705-472-4877']
"

Pharmasave


",41 Lakeshore Dr,North Bay,ON,P1A 2A1,['705-476-4016']
"

Shoppers Drug Mart


",276 Lakeshore Dr,North Bay,ON,P1A 2C2,['705-476-3244']
"

Loblaw Pharmacy


",300 Lakeshore Dr,North Bay,ON,P1A 3V2,['705-494-7224']
"

Metro Pharmacy


",390 Lakeshore Dr,North Bay,ON,P1A 2C7,['705-840-2999']
"

Marshall Park Pharmacy


",104-524 Lakeshore Dr,North Bay,ON,P1A 2E4,['705-478-7087']
"

Janeway PharmaChoice


",180 Sable St E,Massey,ON,P0P 1P0,['705-865-2600']
"

I.D.A. - Mattawa Pharmacy


",300 Main St S Gd,Mattawa,ON,P0H 1H0,['705-744-5981']
"

Callander I.D.A. Pharmacy


",93 Main St N,Callander,ON,P0H 1H0,['705-752-3388']
"

Clement's I.D.A. Pharmacy


",497 Main St,Powassan,ON,P0H 1Z0,['705-724-3523']
"

Mattawa Pharmacy


",300 Main Sreet,Mattawa,ON,P0H 1V0,['705-744-2625']
"

DRUGStore Pharmacy


",177 Hwy 108 N,Elliot Lake,ON,P5A 2S9,['705-461-6299']
"

Island I D A Pharmacy


",19 Water E,Little Current,ON,P0P 1K0,['705-368-3227']
"

I.D.A. - Rx Drug Mart Iroquois Falls


",201 Ambridge Dr,Iroquois Falls,ON,P0K 1G0,['705-232-6625']
"

Guardian - Iroquois Falls Pharmacy


",125 Ambridge Dr,Iroquois Falls,ON,P0K 1E0,['705-232-4940']
"

Bonfield Life Care Pharmacy


",105 Landon St,Bonfield,ON,P0H 1E0,['705-776-2222']
"

Angus Pharmacy


",14 Brunswick Walk,Elliot Lake,ON,P5A 2A8,['705-847-0022']
"

Pharmasave


",36 Prince Edward Walk,Unavailable,ON,P5A 1Z7,['705-848-1026']
"

Rexall


",31 Nova Scotia Walk,Elliot Lake,ON,P5A 1Y9,['705-848-2451']
"

Shoppers Drug Mart


",220 Ontario Ave,Elliot Lake,ON,P5A 1Y5,['705-848-7125']
"

Elliot Lake Health Centre


",267 Hillside Dr S,Elliot Lake,ON,P5A 1N7,['705-848-0004']
"

Mereb Pharmacy


",18 Hills Trail,Wikwemikong,ON,P0P 2J0,['705-859-2041']
"

Parkway Pharmacy


",18 Hill's Trail,Wikwemikong,ON,Unavailable,['705-859-3535']
"

Mnis I.D.A. Pharmacy


",2098 Wikwemikong Way E,Wikwemikong,ON,P0P 2J0,['705-859-2866']
"

Guardian - Manitowaning Pharmacy


",147 Arthur St,Manitowaning,ON,P0P 1N0,['705-859-2323']
"

Glenn's Pharmacy


",496 Main St,Powassan,ON,P0H 1Z0,['705-724-2741']
"

P O S Line Manitowaning Pharmacy


",147 Arthur,Manitowaning,ON,Unavailable,['705-859-1500']
"

South River Pharmacy


",311 Hwy11,South River,ON,P0A 1X0,['705-386-1225']
"

The Edgewater


",3 Water St Rr 1,Gore Bay,ON,P0P 1H0,['705-368-3131']
"

Guardian - Central Pharmacy


",45 Meredith St,Gore Bay,ON,P0P 1H0,['705-282-2409']
"

Guardian - Little Current Pharmacy


",41 Meredith St Gd,Gore Bay,ON,P0P 1H0,['705-368-2530']
"

I.D.A. - Robertson's Drug Store


",39 Meredith St Gd,Gore Bay,ON,P0P 1H0,['705-282-2147']
"

Guardian - Mindemoya Medical Pharmacy


",11 Yonge St,Mindemoya,ON,P0P 1S0,['705-377-5411']
"

Cochrane Pharmacy


",A-134 3rd St,Cochrane,ON,P0L 1C0,['705-272-1333']
"

I D A Drug Stores


",27 Woodward Ave,Blind River,ON,P0R 1B0,['705-356-2633']
"

Mitchell Pharmacy


",27 Woodward Ave,Blind River,ON,P0R 1B0,['705-356-2633']
"

Gore Bay Pharmacare Inc


",39 Meredith,Evansville,ON,P0P 1H0,['705-282-2147']
"

Arnica Medical Pharmacy


",162 Huston St,Burks Falls,ON,P0A 1C0,['705-382-2111']
"

Pollard Ida


",37 Seguin St,Parry Sound,ON,P2A 1B3,['705-774-9954']
"

Pollard Pharmacy


",37 Seguin St,Parry Sound,ON,P2A 1B3,['705-746-4443']
"

Ben's Pharmacy


",60 Bowes St,Parry Sound,ON,P2A 2L3,['705-746-4811']
"

Shoppers Drug Mart


",90 Bowes St,Parry Sound,ON,P2A 2L7,['705-746-2932']
"

Rexall


",19 Pine Dr,Parry Sound,ON,P2A 3B7,['705-746-4769']
"

Walmart Supercentre


",1 Pine Dr,Parry Sound,ON,P2A 2C3,['705-746-5772']
"

Omnivet Pharma Inc


",58 Emily,Parry Sound,ON,P2A 2P5,['705-746-7540']
"

Smooth Rock Falls Pharmacy Ltd


",133 5th St,Smooth Rock Falls,ON,P0L 2B0,['705-338-4470']
"

Guardian - Main Street Pharmacy


",156 Main St,Thessalon,ON,P0R 1L0,['705-842-2322']
"

Walmart Supercentre


",10-111 Howland Dr,Huntsville,ON,P1H 2P4,['705-788-7194']
"

Remedy'sRx - Campus Trail Pharmacy


",1-39 Campus Trail,Huntsville,ON,P1H 0E5,['705-789-5331']
"

Loblaw Pharmacy


",131 Howland Dr,Huntsville,ON,P1H 2P7,['705-787-0922']
"

Remedy'sRx - Muskoka Medical Centre Pharmacy


",348 Muskoka Rd N,Huntsville,ON,P1H 1H8,['705-789-1785']
"

Huntsville Place Mall Pharmacy


",70 King William St,Huntsville,ON,P1H 2A5,['705-788-2896']
"

Shoppers Drug Mart


",51 King William St,Huntsville,ON,P1H 1G4,['705-789-4471']
"

Price Chopper


",12 Cann St,Huntsville,ON,P1H 1H3,['705-789-9172']
"

I.D.A. - Huntsville's Hometown Drugstore


",10 Main St E,Huntsville,ON,P1H 2C9,"['705-789-2561', '1-800-461-4218']"
"

Pharmasave


",29 Main St E,Hunstville,ON,P1H 2C6,['705-789-7300']
"

Central Algoma Pharmacy


",9242 Hwy 17 E,Bruce Mines,ON,P0R 1C0,['705-785-3555']
"

Dwight Market Pharmacy


",Unavailable,Dwight,ON,Unavailable,['705-635-2551']
"

I.D.A. - Peninsula Pharmacy


",76 Main ST,Lions Head,ON,N0H 1W0,['519-793-3200']
"

The Apothecary Shop


",86 Joseph St,Port Carling,ON,P0B 1J0,['705-765-6866']
"

Port Carling Pharmacy Inc


",86 Joseph,Port Carling,ON,P0B 1J0,['705-765-6866']
"

Walmart


",350 Government Rd E,Kapuskasing,ON,P5N 2X7,['705-335-3636']
"

Pharmasave Dorset Village Pharmacy


",1103 Main St,Dorset,ON,P0A 1E0,['705-766-1911']
"

Loblaw Pharmacy


",55 Brunetville Rd,Kapuskasing,ON,P5N 2E8,['705-337-4920']
"

Shoppers Drug Mart


",25 Brunetville Rd,Kapuskasing,ON,P5N 2E9,"['705-335-2249', '1-800-746-7737']"
"

Rexall


","142 Progress Cres, Unit B",Kapuskasing,ON,P5N 3H7,['705-337-1777']
"

Rexall


",55 Hwy 118 W,Bracebridge,ON,P1L 1T2,['705-645-8738']
"

Shoppers Drug Mart


",248 Manitoba,Bracebridge,ON,P1L 2E1,['705-645-5234']
"

Loblaw Pharmacy


",270 Wellington St Bracebridge,Bracebridge,ON,P1L 1B9,['705-646-8995']
"

Bracebridge Compounding Pharmacy


",200 Manitoba St,Bracebridge,ON,P1L 2E2,['705-645-5527']
"

Bracebridge Compounding Pharmacy


",5-200 Manitoba St,Bracebridge,ON,P1L 2E2,['705-646-0025']
"

Rexall


",3-36 McDonald St,Bracebridge,ON,P1L 1R7,['705-645-7433']
"

Walmart Supercentre


",40 Depot Dr,Bracebridge,ON,P1L 0A1,['705-646-9787']
"

Apothecarium The


",341 Trunk Rd,Sault Ste. Marie,ON,P6A 3S9,['705-949-1000']
"

Pavagadhi


",29542 Hwy 60,Whitney,ON,K0J 2M0,['613-637-2777']
"

Rexall


",129 Trunk Rd,Sault Ste. Marie,ON,P6A 3S4,['705-253-3254']
"

East End Pharmasave


",15-150 Churchill Blvd,Sault Ste. Marie,ON,P6A 3Z9,['705-450-4819']
"

Metro Pharmacy


",150 Churchill Blvd,Sault Ste Marie,ON,P6A 3Z9,['705-254-7070']
"

Drug Basics Pharmacy


",701 Pine St,Sault Ste Marie,ON,P6B 3G2,['705-945-8725']
"

Pharmasave Adel Pharmacy


",773 Great Northern Rd,Sault Ste Marie,ON,P6B 0B7,['705-450-7171']
"

Pharmasave Adel Pharmacy


",773 Great Northern Rd,Sault Ste Marie,ON,P6B 0B7,['705-450-7373']
"

Station Mall Clinic Pharmacy


",8-701 Pine St,Sault Ste. Marie,ON,P6B 3G2,['705-450-1717']
"

Central Drug Mart


",8-701 Pine St,Sault Ste. Marie,ON,P6B 3G2,['705-942-7987']
"

Pharmaright


",688 Second Line E,Sault Ste. Marie,ON,P6B 4K3,['705-949-5050']
"

Walmart Supercentre


",446 Great Northern Rd,Sault Ste Marie,ON,P6B 4Z9,['705-945-8364']
"

Shoppers Drug Mart


",44 Great Northern Rd,Sault Ste. Marie,ON,P6B 4Y5,['705-949-2143']
"

Loblaw Pharmacy


",44-50 Great Northern Rd,Sault Ste. Marie,ON,P6B 4Y5,['705-253-2887']
"

Metro Pharmacy


",248 Northern Ave E,Sault Ste Marie,ON,P6B 4H6,['705-945-1006']
"

I.D.A. - McKenzie's Pharmacy


",608 Berford St,Wiarton,ON,N0H 2T0,['519-534-0230']
"

I.D.A. - McKenzie's Pharmacy


",608 Berford St,Wiarton,ON,N0H 2T0,['519-534-1227']
"

The Medicine Shoppe Pharmacy


",955 Queen St E,Sault Ste. Marie,ON,P6A 2C3,['705-253-3206']
"

Rexall


",170 East,Sault Ste. Marie,ON,P6A 3C6,['705-759-3370']
"

I.D.A. - Bayside Pharmacy


",369 Mary St,Wiarton,ON,N0H 2T0,['519-534-5090']
"

The Medicine Shoppe Pharmacy


",102-765 Queen St E,Sault Ste. Marie,ON,P6A 2A8,['705-450-7430']
"

Muskoka Lakes Pharmacy Ltd


",125 Steamship Bay Rd,Gravenhurst,ON,P1P 1Z9,['705-687-2828']
"

DRUGStore Pharmacy


",290 First St N,Gravenhurst,ON,P1P 1H3,['705-687-1588']
"

I.D.A. - Gravenhurst Pharmacy


",180 Brock St,Gravenhurst,ON,P1P 1X2,['705-687-2207']
"

IDA-Gravenhurst Pharmacy Ltd


",100 Muskoka S,Gravenhurst,ON,P1P 1X2,"['705-687-2207', '1-877-429-2889']"
"

Rexall Drugstore


",13 Second Line W,Sault Ste. Marie,ON,P6C 2J1,['705-942-0873']
"

Shoppers Drug Mart


",511 Muskoka Rd S,Gravenhurst,ON,Unavailable,['705-687-2838']
"

Market Mall IDA


",275 Second Line W,Sault Ste. Marie,ON,P6C 2J4,['705-253-1121']
"

The Medicine Shoppe Pharmacy


",316 Second Line W,Sault Ste Marie,ON,P6C 2J5,['705-253-0720']
"

I.D.A. - Rx Drug Mart Deep River


",11 Champlain St,Deep River,ON,K0J 1P0,['613-584-2501']
"

Deep River's Pharmacy Inc


",25 Champlain,Deep River,ON,K0J 1P0,['613-584-3322']
"

Sobeys Pharmacy


",225 Edward St,Gravenhurst,ON,P1P 1K8,['705-684-9405']
"

Shoppers Drug Mart


",364 Second Line W,Sault Ste. Marie,ON,P6C 2J7,['705-945-1215']
"

Shoppers Drug Mart


",122 Main St,Penetanguishene,ON,L9M 1T6,['705-549-2332']
"

Village Square Pharmacy


",101-2 Poyntz St,Penetanguishene,ON,L9M 1M2,['705-549-2523']
"

Medical Pharmacies


",101 Thompsons Road,Penetanguishene,ON,L9M 0V3,"['705-355-0271', '1-844-355-0271']"
"

Medical Pharmacies Group Limited


",101 Thompsons Rd,Penetanguishene,ON,L9M 0V3,['705-355-0271']
"

Jory I D A Pharmacy


",286 King St,Midland,ON,L4R 3M6,['705-526-2781']
"

Arcade & Jory Guardian Pharmacy


",286 King St,Midland,ON,L4R 3M6,['705-526-8011']
"

Shoppers Simply Pharmacy


",240 Penetanguishene Rd,Midland,ON,L4R 4P4,['705-526-4269']
"

Loblaw Pharmacy


",9292 County Rd 93,Midland,ON,L4R 4K4,['705-527-9086']
"

Shoppers Drug Mart


","9186 Highway 93, RR #2",Midland,ON,L4R 4K4,['705-526-7855']
"

Mckesson Canada


",952 Jones Rd,Midland,ON,L4R 0G1,['705-526-5872']
"

Walmart Supercentre


",16845 Hwy 12,Midland,ON,L4R 0A9,['705-528-0608']
"

Midland Guardian Pharmacy


",19-9225 County Rd 93,Midland,ON,L4R 4K4,['705-245-3300']
"

Midland Clinic I.D.A. Pharmacy


",952 Jones St,Midland,ON,L4R 4K3,['705-526-9020']
"

Remedy'sRx - Huronia Medical Pharmacy


",619 Prospect Blvd,Midland,ON,L4R 0G3,['705-526-0700']
"

Pharmasave


",54 Sykes St N,Meaford,ON,N4L 1R2,['519-538-1960']
"

Rexall


",54 Skyes St N,Meaford,ON,N4L 1R2,['519-538-1960']
"

Meaford IDA Pharmacy


",5-334 Sykes St S,Meaford,ON,N4L 1X1,['226-662-7000']
"

Coldwater Pharmacy


",45 River St,Coldwater,ON,L0K 1E0,['705-686-3652']
"

Coldwater Pharmacy


",45 River St,Coldwater,ON,L0K 1E0,['705-835-3445']
"

Guardian - Coldwater Pharmacy


",45 River St,Coldwater,ON,L0K 1E0,['705-686-3356']
"

Walmart Supercentre


",1555 18 Avenue E,Owen Sound,ON,N4K 6Y3,['519-371-0120']
"

Shoppers Drug Mart


",1183 16th Street E,Owen Sound,ON,N4K 1Z4,['519-371-5230']
"

Loblaw Pharmacy


",1150 16th Street E,Owen Sound,ON,N4K 1Z3,['519-371-0758']
"

Rexall


",1507 9th Avenue E,Owen Sound,ON,N4K 3E9,['519-376-6406']
"

DRUGStore Pharmacy


",1020 10th Street W,Owen Sound,ON,N4K 5S1,['519-370-0346']
"

Rexall


",1415 1st Avenue W,Owen Sound,ON,N4K 4K8,['519-376-4751']
"

Shoppers Drug Mart


",100 10th Street W,Owen Sound,ON,N4K 3P9,['519-376-2876']
"

Rexall


",963 Second Ave E,Owen Sound,ON,N4K 2H5,['519-371-1324']
"

Merrickville Drug Mart


",112 Wellington E,Merrickville,ON,K0G 1N0,['613-269-4737']
"

Medical Pharmacies


",345 8th St E,Owen Sound,ON,N4K 1L3,"['519-371-7575', '1-866-270-9895']"
"

Davies Pharmacies Ltd


",755 2nd Ave E,Owen Sound,ON,N4K 2G9,['519-470-4000']
"

Turbitt Pharmasave


",1010 9th Ave W,Owen Sound,ON,N4K 5R7,['519-376-0120']
"

Classic Care Pharmacy


",875 6th St E,Owen Sound,ON,N4K 5W5,['519-376-8924']
"

Thornbury Pharmacy


",45 Arthur W,Thornbury,ON,N0H 2P0,['519-599-2719']
"

Pharmasave


",45 Arthur St W,Thornbury,ON,N0H 2P0,['519-599-2719']
"

Ben's Pharmacy


",3381 rue Muskoka,Washago,ON,L0K 2B0,['705-689-5515']
"

Guardian Craighurst Pharmacy


",2054 Horseshoe Valley Rd W,Barrie,ON,L4M 4Y8,['705-986-0186']
"

Elmvale Pharmacy Limited


",70 Yonge S,Elmvale,ON,L0L 1P0,['705-322-6464']
"

DRUGStore Pharmacy


",5121 County Rd 21,Haliburton,ON,K0M 1S0,['705-455-9779']
"

Haliburton Highland Pharmacy


",211 Highland,Haliburton,ON,K0M 1S0,['705-457-9669']
"

Beacon Drug Mart


",104 Grey Road 17b,Owen Sound,ON,N4K 5N6,['519-376-0120']
"

Highland Pharmacy Remedy'sRX


",33 Bobcaygeon Rd,Minden,ON,K0M 2K0,['705-286-1563']
"

Guardian - Whitfield's Pharmacy


",16 Queen St W,Elmvale,ON,L0L 1P0,['705-322-1011']
"

Whitfield's Pharmacy


",16 Queen W,Elmvale,ON,L0L 1P0,['705-322-1011']
"

Loblaw Pharmacy


",289 Coldwater Rd,Orillia,ON,L3V 6J3,['705-325-5196']
"

Rexall


",174 Albert St S,Southampton,ON,N0H 2L0,['519-797-2113']
"

Rexall


",1011 Victoria St,Petawawa,ON,K8H 2E2,['613-687-8210']
"

Hillsdale Pharmacy


",4570 Penetanguishene Rd Gd,Hillsdale,ON,L0L 1V0,['705-835-2459']
"

Mulvihill Drug Mart


",3419 Petawawa Blvd,Petawawa,ON,K8H 1X4,['613-687-7607']
"

Rexall


",1 Huron St,Collingwood,ON,L9Y 1C3,['705-444-2922']
"

Shoppers Drug Mart


",175 First St,Collingwood,ON,L9Y 1A5,['705-444-6055']
"

Metro Pharmacy


",640 First St,Collingwood,ON,L9Y 4Y7,['705-446-2002']
"

Loblaw Pharmacy


",12 Hurontario St,Collingwood,ON,L9Y 2L6,['705-445-0461']
"

Loblaws


",12 Hurontario St,Collingwood,ON,L9Y 2L6,['705-445-1431']
"

Walmart Supercentre


",10 Cambridge St,Collingwood,ON,L9Y 0A1,['705-445-2383']
"

Fenlon's Pharmacy Ltd


",88 Broadway,Wawa,ON,P0S 1K0,['705-856-2800']
"

Fenelon's Pharmacy


",88 Broadway,Wawa,ON,P0S 1K0,['705-856-0915']
"

Guardian - Collingwood Health Centre Pharmacy


",186 Érié St,Collingwood,ON,L9Y 4T3,['705-444-2268']
"

Collingwood Health Centre Phar


",108-186 Érié St,Collingwood,ON,L9Y 4T3,['705-444-2268']
"

Major's Guardian Pharmacy


",587 River Rd W,Wasaga Beach,ON,Unavailable,['705-429-9191']
"

Walmart Supercentre


",100 Stonebridge Blvd,Wasaga Beach,ON,L9Z 0C1,['705-422-0406']
"

Shoppers Drug Mart


",25 Civic Centre Rd,Petawawa,ON,K8H 0B1,['613-687-5696']
"

Remedy'sRx - Tara Pharmacy


",33 Yonge St N,Tara,ON,N0H 2N0,['519-934-3333']
"

Rexall


",224 Highland S,Haliburton,ON,K0M 1S0,['705-457-1112']
"

Medical Pharmacies Group


",12 Grace Ave,Orillia,ON,L3V 2K2,['705-327-1299']
"

Ben's Pharmacy


",5884 Rama,Orillia,ON,L3V 6H6,['705-329-4548']
"

Kristin's Pharmacy


",197 Albert St S,Southampton,ON,N0H 2L0,['519-483-5085']
"

Fittons Pharmacy


",20-425 West St N,Orillia,ON,L3V 7R2,['705-325-9547']
"

I.D.A. - Fittons Pharmacy


","425 West St N,Unit 20-20B",Orillia,ON,L3V 7R2,['705-325-2999']
"

Walmart Supercentre


",175 Murphy Rd,Orillia,ON,L3V 0B5,['705-325-7452']
"

Shoppers Drug Mart


",149 Westmount Dr N,Orillia,ON,L3V 6C7,['705-326-7373']
"

Metro Pharmacy


",70 Front St N,Orillia,ON,L3V 4R8,['705-323-9334']
"

Shoppers Drug Mart


",55 Front St,Orillia,ON,L3V 4R7,['705-325-2377']
"

L Lmp Downtown Dispensary


",188 Mississaga St E,Orillia,ON,L3V 1V9,['705-325-4010']
"

Riverroad Pharmacy Inc


",3-1256 Mosley St,Wasaga Beach,ON,L9Z 2E2,['705-352-0781']
"

Rexall


",58 Mississauga St E,Orillia,ON,L3V 1V5,['705-326-9661']
"

Orillia Drugstore


",1 Mississaga St E,Orillia,ON,L3V 1V4,['705-326-0001']
"

I.D.A. - Orilla Pharmacy Ltd


",16 O'Brien St,Orillia,ON,L3V 5S2,['705-325-5555']
"

Alchemist Inc.


",61 Colborne St W,Orillia,ON,L3V 2Y6,['705-325-1115']
"

Colborne Pharmacy


",61 Colborne St W,Orillia,ON,L3V 2Y6,['705-325-1115']
"

Shoppers Simply Pharmacy


",119 Memorial Ave,Orillia,ON,L3V 5X1,['705-327-9029']
"

Ben's Pharmacy


",1030 Portage Rd,Kawartha Lakes,ON,K0M 2E0,['705-438-5033']
"

Classic Care Pharmacy


",298 Forest Ave N,Orillia,ON,L3V 0C3,['705-325-1800']
"

Pharmasave


",1-200 Memorial Ave,Orillia,ON,L3V 5X6,['705-259-8888']
"

Ben's Pharmacy


",210 Memorial Ave,Orillia,ON,L3V 7V1,['705-327-7776']
"

Shoppers Drug Mart


",4-1900 Mosley St,Wasaga Beach,ON,L9Z 1Z3,['705-429-2203']
"

Wasaga Beach Ida Pharmacy


",2-30 45Th St S,Wasaga Beach,ON,L9Z 0A6,['705-352-0241']
"

I.D.A. - Wasaga Beach Pharmacy


",1-30 45th Street S,Wasaga Beach,ON,L9Z 0A6,['705-429-7557']
"

DRUGStore Pharmacy


",25 45th Street S,Wasaga Beach,ON,L9Z 1A7,['705-429-9217']
"

Kings Pharmacy


",2-525 West St S,Orillia,ON,L3V 5H2,['705-259-9110']
"

Mini Majors Guardian Pharmacy


",14 Ramblewood Dr,Wasaga Beach,ON,L9Z 0C4,['705-429-6700']
"

DRUGStore Pharmacy


",1244 Hwy 21,Port Elgin,ON,N0H 2C0,['519-389-6805']
"

Shoppers Drug Mart


",1199A Goderich St,Port Elgin,ON,N0H 2C3,['519-832-3196']
"

Wilberforce Pharmacy


",2165 Loop,Wilberforce,ON,K0L 3C0,['705-448-1222']
"

Rexall


",466 Goderich St,Port Elgin,ON,N0H 2C4,['519-832-6966']
"

Walmart Supercentre


",5122 Hwy 21,Port Elgin,ON,N0H 2C0,['519-389-6160']
"

Pharmasave


",7477 Highway 26,Stayner,ON,L0M 1S0,['705-428-4722']
"

Rexall


",7377 HWY-26,Clearview,ON,Unavailable,['705-428-2344']
"

Kinmount Pharmacy


",5100 CountyRoad503,Kinmount,ON,K0M 2A0,['705-488-1960']
"

Rx Drug Mart


",7377 26 Hwy,Duntroon,ON,L0M 1S0,['705-428-0779']
"

Rx Drug Mart I.D.A. Stayner


","7377 Hwy,Unit 26",Stayner,ON,L0M 1S0,['705-428-2344']
"

Mulvihill Drug Mart


",1231 Pembroke St W,Pembroke,ON,K8A 5R3,['613-735-1079']
"

Remedy'sRx - Kinmount Downtown Pharmacy


",4084 County Rd 121,Kinmount,ON,K0M 2A0,['705-488-1923']
"

Brechin Pharmacy


",1-2280 Highway 12,Brechin,ON,L0K 1B0,['705-484-0074']
"

Rexall


",215 Pembroke St E,Pembroke,ON,K8A 3J8,['613-732-3112']
"

Mulvihill Drug Mart


",315 Pembroke St E,Pembroke,ON,K8A 3K2,['613-735-6559']
"

Mulvihill Drug Mart


",201 Deacon St,Pembroke,ON,K8A 2J6,['613-735-0161']
"

Remedy Holding Inc


",600 Cecelia St,Pembroke,ON,K8A 7Z3,['613-735-9320']
"

Care Rx


",600 Cecelia St,Pembroke,ON,K8A 7Z3,['613-732-7077']
"

Springwater Pharmacy


",1017 Carson Rd,Barrie,ON,L4M 4S5,['705-725-0202']
"

Springwater Dental


",1017 Carson Rd,Unavailable,ON,L4M 4S5,['705-503-8444']
"

Walmart Supercentre


",1108 Pembroke St E,Pembroke,ON,K8A 7R4,['613-732-0111']
"

I.D.A. - Markdale Pharmacy


",29 Toronto N,Markdale,ON,N0C 1H0,['519-986-9991']
"

Shoppers Drug Mart


",524 Bayfield St N,Barrie,ON,L4M 5A2,['705-722-6300']
"

Wellwise By Shoppers


",524 Bayfield St,Barrie,ON,L4M 5A1,"['705-722-6336', '1-800-668-8852']"
"

Shoppers Drug Mart


",C2-509 Bayfield St,Barrie,ON,L4M 4Z8,['705-730-6736']
"

Loblaw Pharmacy


",472 Bayfield St,Barrie,ON,L4M 5A2,['705-735-9884']
"

Rexall


",190 Cundles Rd,Barrie,ON,L4M 4S5,['705-734-2121']
"

Loblaws


",472 Bayfield St,Barrie,ON,L4M 5A2,['705-735-6689']
"

Loblaw Pharmacy


",607 Cundles Rd E,Barrie,ON,L4M 0J7,['705-722-7409']
"

Shoppers Drug Mart


",567 Cundles Rd E,Barrie,ON,L4M 5L1,['705-728-5407']
"

Rexall


",1100 Pembroke St E,Pembroke,ON,K8A 6Y7,['613-732-7611']
"

Shoppers Drug Mart


",811 Pembroke St E,Pembroke,ON,K8A 3M3,['613-735-8682']
"

Coby Pharmacy


",6662 Hwy 35,Coboconk,ON,K0M 1K0,['705-454-1900']
"

Coby Pharmacy


",6662 Hwy 35,Unavailable,ON,K9V 5G6,[]
"

Walmart Supercentre


",450 Bayfield St,Barrie,ON,L4M 5A2,['705-728-5822']
"

PureHealth Pharmacy


",201 Georgian Dr,Barrie,ON,L4M 6M2,['705-797-3070']
"

Kozlov Guardian Pharmacy


","39-400 Bayfield St, (G)",Barrie,ON,L4M 5A1,['705-734-2050']
"

Guardian - ProCare Pharmacy


",125 Bell Farm Rd,Barrie,ON,L4M 6L2,['705-722-7474']
"

Remedy'sRx - Little Lake Pharmacy


",101A-11 Lakeside Terr,Barrie,ON,L4M 0H9,['705-881-9807']
"

Rexall Pharma Plus


",353 Duckworth St,Barrie,ON,L4M 5C2,['705-739-0027']
"

Rexall


","320 Bayfield St,#29",Barrie,ON,L4M 3B9,['705-737-0565']
"

Pharmacy On Grove


",477 Grove St E,Barrie,ON,L4M 6M3,['705-720-2262']
"

Express Aid Pharmacy


",420 Leacock Dr,Barrie,ON,L4N 5G5,['705-725-6033']
"

Pharmacy On Leacock


",420 Leacock Dr,Barrie,ON,L4N 5G5,['705-725-6033']
"

Medical Pharmacies Group Limited


",72 Ross St,Barrie,ON,L4N 1G3,"['705-721-4616', '1-866-768-4616']"
"

First Medical Pharmacy


",72 Ross St,Barrie,ON,L4N 1G3,"['705-722-4444', '1-800-760-1018']"
"

Rexall Pharma Plus


",121 Wellington St W,Barrie,ON,L4N 1L2,['705-727-0006']
"

Canadian Drug Mart


",200 Wellington St W,Barrie,ON,L4N 1K9,['705-739-1800']
"

Shoppers Drug Mart


",165 Wellington St W,Barrie,ON,L4N 1L7,['705-728-5943']
"

Rexall


",68 Maple Ave,Barrie,ON,L4N 1R8,['705-725-9988']
"

Vodenicar Family Pharmacy Inc


",11188 Hwy 60,Golden Lake,ON,K0J 1X0,['613-625-1235']
"

Rexall


",55 First Ave S,Chesley,ON,N0G 1L0,['519-363-3304']
"

Medical Pharmacies Group


",44 Donald St,Barrie,ON,L4N 1E3,['705-792-9189']
"

Barrie Downtown Pharmacy


",79 Dunlop St W,Barrie,ON,L4N 1A5,['705-503-4800']
"

Midhurst Pharmacy Pharmasave


",Unavailable,BARRIE,ON,Unavailable,['705-503-7333']
"

Canadian Addiction Treatment Centre


",206-49 High St,Barrie,ON,L4N 5J4,['705-797-1134']
"

City Centre Guardian Pharmacy


",101 Dunlop St W,Barrie,ON,L4N 1A8,['705-252-8119']
"

I.D.A. - Dunlop Pharmacy


","7 Anne St,Unit 3",Barrie,ON,L4N 2C4,['705-737-2300']
"

Medwest Pharmacy


",304 Dunlop St W,Barrie,ON,L4N 7L2,['705-734-6327']
"

Kempenfelt Pharmacy


",11 Victoria St,Barrie,ON,L4N 6T3,['705-728-7900']
"

Markdale Pharmacy


",2 Toronto St N,Markdale,ON,N0C 1H0,['519-986-2499']
"

Shoppers Drug Mart


",649 Yonge St,Barrie,ON,L4N 4E7,['705-792-4388']
"

Shoppers Drug Mart


",279 Yonge St,Barrie,ON,L4N 7T9,['705-739-9411']
"

Shoppers Drug Mart


",118 Hastings St N,Bancroft,ON,K0L 1C0,['613-332-4846']
"

Remedy'sRx - Ferndale Pharmacy


",7-211 Ferndale Dr S,Barrie,ON,L4N 6B9,['705-252-5000']
"

Shoppers Drug Mart


",90-247 Mill St,Angus,ON,L0M 1B2,['705-424-0939']
"

MD Care Pharmacy Inc


",384 Yonge St,Barrie,ON,L4N 4C8,['705-728-2273']
"

Little Avenue Pharmacy


",11-110 Little Ave,Barrie,ON,L4N 4K8,['705-503-0606']
"

Bancroft Drug Mart


",90 Hastings St N,Bancroft,ON,K0L 1C0,['613-332-4046']
"

Big Bay Point Guardian Pharmacy


",7-750 Big Bay Point Rd,Barrie,ON,L4M 4S6,['705-252-5061']
"

New Life Family Pharmacy


",201 Hurst Dr,Barrie,ON,L4N 8K8,['705-733-1228']
"

Stacey's Medical Pharmacy


",62 Hastings N,Bancroft,ON,K0L 1C0,['613-332-1218']
"

Express Aid Pharmacy On Hurst


",201 Hurst Dr,Barrie,ON,L4N 8K8,['705-725-4991']
"

Loblaw Pharmacy


",11 Bryne Dr,Barrie,ON,L4N 8V8,['705-733-2684']
"

Flesherton Pharmacy


",7 Durham St,Flesherton,ON,N0C 1E0,['519-924-3007']
"

Guardian - A&B Pharmacy


",505 Yonge St,Barrie,ON,L4N 4E1,['705-722-3343']
"

Miraculum Pharmaceuticals


",203-505 Yonge St,Barrie,ON,L4N 4E1,['249-880-5150']
"

Angus Family Pharmacy


",18 King St,Angus,ON,L0M 1B2,['705-424-3044']
"

S Sama Pharmacy Limited


",162 Cumming Dr,Barrie,ON,L4N 0C8,['705-726-1314']
"

Shoppers Drug Mart


",420 Essa Rd,Barrie,ON,L4N 9J7,['705-792-4342']
"

Shoppers Drug Mart


",831 Big Bay Point Rd,Barrie,ON,L4N 0G5,['705-726-5343']
"

DRUGStore Pharmacy


",620 Yonge St,Barrie,ON,L4N 4E6,['705-735-0687']
"

Guardian - Primary Care Pharmacy


",370 Bayview Dr,Barrie,ON,L4N 7L3,['705-735-4500']
"

Marsellus Pharmacy


",4-2 Marsellus Dr,Barrie,ON,L4N 0Y4,['249-880-4606']
"

Food & Drug Basics


",555 Essa Rd,Barrie,ON,L4N 6A9,['705-719-2311']
"

Rexall Pharma Plus


",567 Essa Rd,Barrie,ON,L4N 6A9,['705-728-0948']
"

MediSystem Pharmacy


",526 Welham Rd,Barrie,ON,L4N 8Z7,['705-722-7440']
"

J I N Pharmacy Ltd


",172 Prince William Way,Barrie,ON,L9J 0G7,['705-733-0989']
"

Mapleview Medical Pharmacy


",225 Mapleview Dr E,Barrie,ON,L4N 0W5,['705-503-6200']
"

Costco Wholesale


",41 Mapleview Dr E,Barrie,ON,L4N 9A9,['705-733-0521']
"

Sobeys Pharmacy


",37 Mapleview Dr W,Barrie,ON,L4N 9H5,['705-728-7392']
"

Walmart


",35 Mapleview Dr W,Barrie,ON,L4N 9H5,['705-728-1638']
"

Shoppers Drug Mart


",380 Mapleview Dr W,Barrie,ON,L4N 9G4,['705-792-6244']
"

Guardian - Mapleview Healthcare Pharmacy


",6-555 Mapleview Dr W,Barrie,ON,L4N 8G5,['705-503-5900']
"

Carmells


",9 Mill St,Tiverton,ON,N0G 2T0,['519-368-5265']
"

Stroud Pharmacy


",13-8056 Yonge St,Innisfil,ON,L9S 1L6,['705-436-6952']
"

Rexall


",7975 Yonge St,Innisfil,ON,L9S 1A8,['705-436-2122']
"

Auto Care Plus - NAPA Autopro


",7878 Yonge St,Innisfil,ON,L9S 1L4,['705-436-2991']
"

Ben's Pharmacy


",347 Simcoe,Beaverton,ON,L0K 1A0,['705-426-5300']
"

Beaverton I.D.A. Pharmacy


",350 Simcoe St,Beaverton,ON,L0K 1A0,['705-426-7691']
"

DRUGstore Pharmacy


",B30 Beaver Ave,Beaverton,ON,L0K 1A0,['705-426-5191']
"

Guardian - Alcona Pharmacy


",1070 Innisfil Beach Rd,Innisfil,ON,L9S 4T9,['705-294-5500']
"

Shoppers Drug Mart


",1145 Innisfil Beach Rd,Innisfil,ON,L9S 4B2,['705-436-2874']
"

Sobeys Pharmacy


",2080 Jans Blvd,Innisfil,ON,L9S 4Y8,['705-431-1093']
"

Guardian - MacArthur Drug Store


",21 Colborne St,Fenelon Falls,ON,K0M 1N0,['705-887-2041']
"

WholeHealth Pharmacy Partners Durham Apothecary


",320 College N,Durham,ON,N0G 1R0,['519-369-5330']
"

I.D.A. - Rx Drug Mart Garafraxa


",203 Garafraxa St N,Durham,ON,N0G 1R0,['519-369-3340']
"

Guardian - Thornton Pharmacy & Health Food


",13-4171 Innisfill Beach Rd,Thornton,ON,L0L 2N0,['705-291-7979']
"

Fenelon Falls Community Pharmacy


",205 FrancisE,Fenelon Falls,ON,K0M 1N0,['705-887-4110']
"

9171-0426 Quebec Inc


",9 de L'Eglise,Jogues,ON,P0L 1R0,['450-435-3663']
"

Uniprix Clinique Pavlina Zhivkov - Pharmacie affiliée


","240 Principale, Route 148",Mansfield,QC,J0X 1R0,['819-683-1818']
"

Eustace Jacksons Point Pharmasave Passport Pictures


",936 Lake Dr E,Unavailable,ON,Unavailable,['905-722-7622']
"

Loblaw Pharmacy


",832 Tenth St,Hanover,ON,N4N 1S3,['519-364-7310']
"

Walmart Supercentre


",1100 10th St,Hanover,ON,N4N 3B8,['519-364-0645']
"

Shoppers Drug Mart


",895 10th Street,Hanover,ON,N4N 1S4,['519-364-3141']
"

Martin Graham


",371 Sturgeon Point,Fenelon Falls,ON,Unavailable,['705-887-5128']
"

Shoppers Drug Mart


",20917 Dalton Rd,Sutton,ON,L0E 1R0,['905-722-3237']
"

Rexall


",342 Tenth St,Hanover,ON,N4N 1P4,['519-364-2300']
"

Ben's Pharmacy


",20865 Dalton,Sutton West,ON,L0E 1R0,['905-722-8898']
"

Lefroy Pharmacy


",1311 Killarney Beach Rd,Lefroy,ON,L0L 1W0,['705-456-1311']
"

Sutton Apothecary Ltd


",121 High,Sutton West,ON,L0E 1R0,['905-722-5836']
"

Ben's Pharmacy


",90 King,Woodville,ON,K0M 2T0,['705-439-2844']
"

Pharmasave


",232 Durham E Walkerton,Walkerton,ON,N0G 2V0,['519-881-0151']
"

Rexall


",1116 Sutton St,Kincardine,ON,N2Z 2C6,['519-396-3353']
"

Pharmacie Michele Guyot-Zhivkov


",543A Rue Baume Gd,Fort-Coulonge,QC,J0X 1V0,['819-683-3882']
"

Shoppers Drug Mart


",781 Broadway St,Kincardine,ON,N2Z 2G1,['519-396-6220']
"

Shoppers Drug Mart


",85 Bolton St,Bobcaygeon,ON,K0M 1A0,['705-738-4433']
"

Ben's Pharmacy


",319 Pefferlaw Rd,Pefferlaw,ON,L0E 1N0,['705-437-2423']
"

Medisystem Technologies Inc


",41 McGivern W,Walkerton,ON,N0G 2V0,['519-881-4162']
"

Keswick Medical Clinic & Pharmacy


",198 Church St,Keswick,ON,L4P 1J7,['905-535-9000']
"

Keswick Pharmacy & Medical


",198 Church St,Keswick,ON,L4P 1J7,['905-535-9000']
"

Ben's Pharmacy


",190 Simcoe Ave,Keswick,ON,L4P 2H7,['905-476-2277']
"

Ben's Pharmacy


",6 Cameron E,Cannington,ON,L0E 1E0,['705-432-2644']
"

Keswick Pharmacy


",132 The Queensway S,Keswick,ON,L4P 1Z7,['905-476-6181']
"

Healthcare Rx Pharmacy


",132 The Queensway S,Keswick,ON,L4P 3M3,['905-476-3784']
"

Rexall


","76 Arlington Dr, Building C",Keswick,ON,L4P 0A9,['905-476-4375']
"

Walmart Supercentre


",30 Dunham Dr,Alliston,ON,L9R 0G1,['705-435-5129']
"

Windsor House Pharmacy


",2-36 Victoria St W,Alliston,ON,L9R 1S8,['705-250-3311']
"

Shoppers Drug Mart


",67 Victoria St E,Alliston,ON,L9R 1L5,['705-435-6051']
"

Loblaw Pharmacy


",30 King St S,Alliston,ON,L9R 1H6,['705-434-9398']
"

Loblaw Pharmacy


",24018 Woodbine Ave,Keswick,ON,L4P 3E9,['905-476-1609']
"

Rexall Pharmacy Group


",149 Young St,Alliston,ON,L9R 2A9,['705-435-6390']
"

Alliston Family Pharmacy


",34-180 Parsons Rd,Alliston,ON,L9R 1E8,['705-434-4338']
"

Alliston Remedy'sRx Pharmacy


",40-180 Parsons Rd,Alliston,ON,L9R 1E8,['705-391-9190']
"

Shoppers Drug Mart


",411 The Queensway S,Keswick,ON,L4P 2C7,['905-476-7751']
"

Walmart Supercentre


",23550 Woodbine Ave,Keswick,ON,L4P 3E9,['905-476-8507']
"

Price Chopper


","443, The Queensway S",Keswick,ON,L4P 3J4,['905-476-7773']
"

Gu Pharmaserve Ltd


",443 The Queensway S,Keswick,ON,L4P 3J4,['905-535-5588']
"

Glenwoods I.D.A. Pharmacy


",443 The Queensway S,Keswick,ON,L4P 3J4,['905-535-5588']
"

Medisystems


",287 King St S,Alliston,ON,L9R 0C4,['705-435-3672']
"

Romana Pharmacy


",716 The Queensway S,Keswick,ON,L4P 4C9,"['905-535-1416', '1-855-577-7778']"
"

Shelburne Town Pharmacy


",103 - 712 Main St E,Shelbume,ON,L9V 2Z4,['519-309-5500']
"

Caravaggio I.D.A. Drugs


",128 Main St E,Shelburne,ON,L9V 3K5,['519-925-2729']
"

Pharmacie Novena


",1509 11 Hy W,Hearst,ON,P0L 1N0,['705-372-1212']
"

Stewart's Pharmacy


",1024 Hwy 9,Mildmay,ON,N0G 2J0,['519-367-5521']
"

Rexall


",57-401 Kent St W,Lindsay,ON,K9V 4Z1,['705-324-6904']
"

Sharon Pharmacy


",3U-19101 Leslie St,Sharon,ON,L0G 1V0,['905-478-1200']
"

Loblaws


",400 Kent St W,Lindsay,ON,K9V 6K2,['705-878-5058']
"

Loblaw Pharmacy


",400 Kent St W,Lindsay,ON,K9V 6K2,['705-878-8351']
"

Shoppers Drug Mart


",343 Kent St W,Lindsay,ON,K9V 2Z7,['705-878-8981']
"

Victoria Drug Mart


",189 Kent St W,Lindsay,ON,K9V 5G6,['705-324-0623']
"

Remedy'sRx - Victoria Drug Mart


",189 Kent St W,Lindsay,ON,K9V 5G6,['705-328-1999']
"

Shoppers Drug Mart


",74 Kent St W,Lindsay,ON,K9V 2Y4,['705-324-7400']
"

I.D.A. - Rx Drug Mart Lindsay


",51 Kent St W,Lindsay,ON,K9V 2X9,['705-328-1505']
"

Integrated Care Pharmacy Pharmacy


",10 Moose Rd,Lindsay,ON,K9V 6K8,['705-878-8818']
"

Queen's Square Pharmacy


",86 Russell St W,Lindsay,ON,K9V 6A5,['705-320-8008']
"

Wellington County Library


",118 Main N,Mount Forest,ON,N0G 2L0,['519-323-4541']
"

Silver Fox Pharmacy Inc


",225 Mary St W,Lindsay,ON,K9V 5K3,['705-878-5840']
"

Rexall


",86 Angeline St S,Lindsay,ON,K9V 3L5,['705-878-4700']
"

Pharmasave - Shiva Rohani


",6A-305 Barrie St,Bradford,ON,L3Z 2B1,['905-551-2523']
"

Highland Pharmacy Co Ltd


",33 Bobcaygeon,Unavailable,ON,K0M 2K0,['705-286-1563']
"

I.D.A. - Bee Town Pharmacy


",34 Main St W Gd,Beeton,ON,L0G 1A0,['905-729-1000']
"

Shoppers Drug Mart


",50 Main St E,Beeton,ON,L0G 1A0,['905-729-4555']
"

Beeton Pharmacy - Pharmasave


",1 Main St W,Beeton,ON,L0G 1A0,['905-748-1100']
"

Guardian - Simcoe Square Pharmacy


",157 Holland St E,Bradford,ON,L3Z 2B2,['905-775-9225']
"

Bradford Central Pharmacy


",21 Barrie,Bradford,ON,L3Z 1R6,['905-778-0808']
"

Shoppers Drug Mart


",140 Holland St W,Bradford,ON,L3Z 1B0,['905-775-3187']
"

Sobeys Pharmacy


",40 Melbourne Dr,Bradford,ON,L3Z 3B8,['905-775-0608']
"

Rexall


","461 Holland St W, Bldg O",Bradford,ON,L3Z 0C1,['905-775-5375']
"

Pharmalink I.DA. Pharmacy


",456 Holland St W,Bradford,ON,L3Z 0G1,['905-778-9049']
"

Walmart Supercentre


",545 Holland St W,Bradford,ON,L3Z 0C1,['905-775-0102']
"

Loblaw Pharmacy


",500 Holland St W,Bradford,ON,L3Z 0A2,['905-778-0589']
"

Little Britain Pharmasave


",415 Eldon Rd,Little Britain,ON,K0M 2C0,['705-786-2000']
"

Loblaw Pharmacy


",504 Main St N,Mount Forest,ON,N0G 2L2,['519-323-2029']
"

Acme United Limited


",351 Foster St SS 1,Mount Forest,ON,N0G 2L1,['519-323-3101']
"

Prescription Shoppe The


",237 Main St N,Mount Forest,ON,N0G 2L1,['519-343-2103']
"

Mount Forest Pharmacy


",154 Main St N,Mount Forest,ON,N0G 2L2,['519-509-1980']
"

Walsh's I.D.A. Pharmacy


",129 Main S,Mount Forest,ON,N0G 2L0,['519-323-1221']
"

Hollands Family Pharmacy


",5-19466 Yonge St,Holland Landing,ON,L9N 1M6,['905-235-6992']
"

I.D.A. - Ben's Pharmacy


",19161 Centre St,Mount Albert,ON,L0G 1M0,['905-473-2401']
"

Holland Landing Drug Mart


",45 Grist Mill Rd,Holland Landing,ON,L9N 1M7,['905-853-0855']
"

Morton Pharmacy Inc


",120 Morton Ave,Sharon,ON,L0G 1V0,['506-388-3366']
"

Foodland Pharmacy


",260 Queen St N,Tottenham,ON,L0G 1W0,['905-936-1189']
"

Hornepayne Medical Inc


",333 Front,Hornepayne,ON,P0M 1Z0,['807-868-2058']
"

Tottenham Medical Centre


",119 Queen N,Tottenham,ON,L0G 1W0,['905-936-4211']
"

Familiprix Marc Aufranc (Pharmacie Affiliée)


",A-135 Route 148,Shawville,QC,J0X 2Y0,['819-317-1710']
"

I.D.A. - Elite Care Pharmacy


",181 Green Lane E,East Gwillimbury,ON,L9N 0C9,['905-836-2273']
"

Costco Wholesale


",18182 Yonge St,East Gwillimbury,ON,L9N 0J3,['905-954-4755']
"

Guardian - Sunderland Pharmacy


",103 River St,Sunderland,ON,L0C 1H0,['705-357-3300']
"

Loblaw Pharmacy


",18120 Yonge St,Newmarket,ON,L3Y 4V8,['905-830-3679']
"

Walmart Supercentre


",17940 Yonge St,Newmarket,ON,L3Y 8S4,['905-853-6090']
"

Snackmrkt


",1-352 Doug Duncan Dr,Newmarket,ON,L3Y 0C1,['905-235-6758']
"

Hy & Zel's Drug & Food


",17310 Yonge Gates of York,Newmarket,ON,L3Y 6Z1,['905-898-1050']
"

Well Health Pharmacy


",6668 3rd Line,Tottenham,ON,L0G 1W0,['905-936-2999']
"

Well Health Pharmacy


",6668 3rd Line,Tottenham,ON,L0G 1W0,['905-678-1999']
"

New Care Pharmacy


",17730 Leslie St,Newmarket,ON,L3Y 3E4,['905-830-0739']
"

Bridle Trail Pharmacy


",17725 Yonge St,Newmarket,ON,L3Y 7C1,['905-898-4700']
"

Guardian Drugs


",871 Ward,Bridgenorth,ON,K0L 1H0,['705-292-7200']
"

Shoppers Drug Mart


",B3-17600 Yonge St,Newmarket,ON,L3Y 4Z1,['905-895-3171']
"

Shoppers Drug Mart


","1111 Davis Drive, R.R.5",Newmarket,ON,L3Y 8X2,['905-898-7771']
"

Walmart


",1111 Davis Dr,Newmarket,ON,L3Y 8X2,['905-830-4212']
"

Metro Pharmacy


",1-1111 Davis Dr,Newmarket,ON,L3Y 8X2,['905-954-1515']
"

Optimum Pharmacy


",103-615 Davis Dr,Newmarket,ON,L3Y 2R2,['905-235-8820']
"

York Davis Pharmacy


",202-679 Davis Dr,Newmarket,ON,L3Y 5G8,['905-898-5210']
"

Medi- Mart


",712 Davis Dr,Newmarket,ON,L3Y 8C3,['905-836-2220']
"

Centric Pharmacy Inc


",581 Davis Dr,Newmarket,ON,L3Y 2P6,['905-898-2232']
"

Davis Dr Pharmacy


",291 Davis Dr,Newmarket,ON,L3Y 2N6,['905-836-4090']
"

M.D. Care Pharmacy


",4-200 Davis Dr,Newmarket,ON,L3Y 2N4,['905-853-5050']
"

Newmarket Pharmacy


",24-130 Davis Dr,Newmarket,ON,L3Y 2N1,['905-657-0140']
"

Skycare Pharmacy


",540 Davis Dr,Newmarket,ON,L3Y 2P3,['905-235-7591']
"

Guardian - Newmarket Pharmacy


",24-130 Davis Dr,Newmarket,ON,L3Y 2N1,['905-895-8631']
"

Shoppers Drug Mart


",20 Davis Dr,Newmarket,ON,L3Y 2M7,['905-853-6060']
"

Village Pharmacy Lakefield Ltd


",135 Queen St,Lakefield,ON,K0L 2H0,['705-652-3300']
"

St George Medcare & Pharmac


",17480 Yonge St,Newmarket,ON,L3Y 6Y9,['905-898-3725']
"

St George Medcare & Pharmacy


",17480 Yonge St,Newmarket,ON,L3Y 8A7,['905-898-3700']
"

Catp Newmarket


",8-17310 Yonge St,Newmarket,ON,L3Y 7R8,['905-853-5111']
"

York Pharmacy


",17215 Leslie St,Newmarket,ON,L3Y 8E4,['905-898-2322']
"

Holy Family Pharmacy Remedy'sRx


",2-17120 Leslie St,Newmarket,ON,L3Y 8K7,['905-235-7884']
"

Holy Family Pharmacy


",17120 Leslie St,Newmarket,ON,L3Y 8K7,['905-235-7881']
"

Carerx Corp.


",24 Louise,Harriston,ON,N0G 1Z0,['519-338-2795']
"

Carerx Corp.


",24 Louise,Harriston,ON,N0G 1Z0,['519-338-5536']
"

Healthshield Pharmacy


",16925 Yonge St,Newmarket,ON,L3Y 5Y1,['905-898-3868']
"

Rexall


",16900 Yonge St,Newmarket,ON,L3Y 0A3,['905-953-1636']
"

The Medicine Shoppe


",16775 Yonge St,Newmarket,ON,L3Y 8J4,['905-830-9555']
"

Globalrx Pharmacy


",16775 Yonge St,Newmarket,ON,L3Y 8J4,['905-836-8000']
"

Mulock Pharmacy


",16700 Bayview Ave,Newmarket,ON,L3X 1W1,['905-954-4004']
"

Remedy'sRx United Care Specialty Pharmacy


",22B-16715 Yonge St,Newmarket,ON,L3X 1X4,['905-235-7911']
"

Metro Pharmacy


",5-16640 Yonge St,Newmarket,ON,L3X 2N8,['905-853-7100']
"

Shoppers Drug Mart


",16639 Yonge St,Newmarket,ON,L3X 1V6,['905-967-1216']
"

Aikenhead's Drug Store


",226 Raglan St S,Renfrew,ON,K7V 1R1,['613-432-8866']
"

Rexall


",339 Raglan St S,Renfrew,ON,K7V 1R6,['613-432-7518']
"

Shoppers Drug Mart


",665 Stonehaven Ave,Newmarket,ON,L3X 2G2,['905-836-9697']
"

Pharmasave


",29 Toronto St S,Uxbridge,ON,L9P 1V9,['905-862-2800']
"

Shoppers Drug Mart


",150 First St,Orangeville,ON,L9W 3T7,['519-941-8040']
"

Walmart Supercentre


",95 First St,Orangeville,ON,L9W 2E8,['519-940-9558']
"

I.D.A. - Janetville Pharmacy


",293 Pigeon Creek Rd,Janetvllle,ON,L0B 1K0,['705-324-3131']
"

Fifth Avenue Remedy'sRx


",14 5th Ave,Orangeville,ON,L9W 1G2,['519-941-9921']
"

DRUGStore Pharmacy


",680 Obrien Road,Renfrew,ON,K7V 3Z4,['613-433-5957']
"

Loblaw Pharmacy


",50 Fourth Ave,Orangeville,ON,L9W 4P1,['519-942-3373']
"

Shoppers Drug Mart


","232 Toronto St South, RR #1",Uxbridge,ON,L9P 0C4,"['905-852-3345', '1-800-746-7737']"
"

Compounding Pharmacy


",203-372 Hollandview Trail,Aurora,ON,L4G 0A5,['905-726-7771']
"

Rexall


",2C Elgin Park Dr,Uxbridge,ON,L9P 0B1,['905-852-6155']
"

Uxbridge Parmacy Ltd


",2 Elgin Park Dr,Uxbridge,ON,L9P 0B1,['905-862-3223']
"

The Pharmacy Network Orangeville Corp


",170 Lakeview Crt,Orangeville,ON,L9W 5J7,['519-307-2006']
"

Loblaw Pharmacy


",15900 Bayview Ave,Aurora,ON,L4G 7Y3,['905-726-8334']
"

Walmart Supercentre


",980 O'Brien Rd,Renfrew,ON,K7V 0B4,['613-432-0845']
"

Janetville Pharmacy


",647 JanetvilleRd,Janetville,ON,L0B 1K0,['705-878-9982']
"

Shoppers Drug Mart


",25 Broadway Ave,Orangeville,ON,L9W 1J6,['519-941-2900']
"

Orangeville Pharmacy


",50 Rolling Hills Dr,Orangeville,ON,L9W 6T6,['519-307-8100']
"

DRUGStore Pharmacy


",323 Toronto St S,Uxbridge,ON,L9P 1N2,['905-852-1206']
"

Walmart


",6 Welwood Dr,Uxbridge,ON,L9P 1Z7,['905-862-0735']
"

Sparkle Pharmacy


",121-14800 Yonge St,Aurora,ON,L4G 1N3,['905-727-2322']
"

Shoppers Drug Mart


",446 Hollandview Trl,Aurora,ON,L4G 3H1,['905-726-3776']
"

Rolling Hills Pharmacy


",140 Rolling Hills Dr,Orangeville,ON,L9W 4X8,['519-942-2225']
"

Remedy'sRx - Rolling Hills Pharmacy


",140 Rolling Hills Dr,Orangeville,ON,L9W 4X9,['519-942-2225']
"

Guardian - Grand Valley Drug Store


",23 Main St S,Grand Valley,ON,L9W 5S8,['519-928-3303']
"

Hollandview Pharmacy


",372 Hollandview Trl,Aurora,ON,L4G 0A5,['905-726-4400']
"

Shoppers Drug Mart


",489 Broadway,Orangeville,ON,L9W 0A4,['519-941-8986']
"

Care Drugs


",24 Orchard Heights Blvd,Aurora,ON,L4G 6T5,['905-713-2828']
"

Lighthouse I.D.A.


","4-130 Hollidge Blvd, (Unit B)",Aurora,ON,L4G 8A3,['905-750-0008']
"

Family Drug Mart


",9 Borealis Ave,Aurora,ON,L4G 0R5,['905-841-7487']
"

Sobeys Pharmacy


",15500 Bayview Ave,Aurora,ON,L4G 7J1,['905-726-3397']
"

Aurora Centre Pharmacy


",15420 Bayview Ave,Aurora,ON,L4G 7J1,['905-503-4556']
"

Amin's Speciality Pharmacy


",69 McLeod Dr,Aurora,ON,L4G 5C1,['905-727-7564']
"

Shoppers Drug Mart


",15408 Yonge St,Aurora,ON,L4G 1N9,['905-727-3111']
"

Walmart Supercentre


",135 First Commerce Dr,Aurora,ON,L4G 0G2,['905-713-6718']
"

Rexall Pharmancy Group Ltd


",650 Wellington St E,Aurora,ON,L4G 0K3,['905-713-1200']
"

Familiprix Marc Aufranc


","135A, rte 148",Shawville,QC,J0X 2Y0,['819-962-5496']
"

Rexall Pharma Plus


",55 Josephine St Wingham,Unavailable,ON,N0G 2W0,['519-357-2170']
"

I.D.A. - Aurora Pharmacy


",25 William Graham Dr,Aurora,ON,L4G 3G3,['289-648-1690']
"

Meadow's Arbor Pharmasave


",29-555 William Graham Dr,Aurora,ON,L4G 3L1,['905-505-6555']
"

Wellington Remedy'sRx Aurora


",300 Wellington St E,Aurora,ON,L4G 1J5,['905-727-8711']
"

Sobeys Pharmacy


",500 Riddell Rd,Orangeville,ON,L9W 5L1,['519-941-0998']
"

Rexall


",520 Riddell Rd,Orangeville,ON,L9W 5L1,['519-941-3053']
"

Riddell Park Pharmacy Remedy'sRx


",2-515 Riddell Rd,Orangeville,ON,L9W 5E3,['519-942-9940']
"

Royal Oaks Remedy'sRx


",131 John St E,Wingham,ON,N0G 2W0,['519-912-2222']
"

Rexall


",1154 Chemong Rd,Peterborough,ON,K9H 7J6,['705-742-7616']
"

Aurora Compounding Pharmacy


",15017 Yonge St,Aurora,ON,L4G 1M5,['905-727-1343']
"

Guardian (Multicare) Pharmacy & Health Food


",14987 Yonge St,Aurora,ON,L4G 1M5,['905-503-5100']
"

Carerx Corporation


",1155 Water St,Peterborough,ON,K9H 3P8,['705-876-0207']
"

RX Drug Mart


",55 Josephine,Wingham,ON,Unavailable,['519-357-2170']
"

Rx Drug Mart I.D.A. Wingham


",55 Josephine St,Wingham,ON,N0G 2W0,['519-357-3490']
"

Remedy'sRx - Enhanced Care Pharmacy


",14872 Yonge St,Aurora,ON,L4G 1N2,['905-841-0749']
"

Walmart Supercentre


",1002 Chemong Rd,Peterborough,ON,K9H 7E2,['705-742-5566']
"

Uniprix Santé Ahmad Hassan pharmacien INC. - Pharmacie affiliée


",2-332 Main Street,Shawville,QC,J0X 2Y0,['819-647-6565']
"

Mckesson Pharmacy


",14800 Yonge,Aurora,ON,L4G 1N3,['905-726-3541']
"

Remedy'sRx Ennismore Pharmacy


",470 Robinson Rd,Peterborough,ON,K9J 6X2,['705-292-0041']
"

Carerx Corporation


",15941 SimcOe St,Port Perry,ON,L9L 1N5,['905-985-6776']
"

Shoppers Drug Mart


",971 Chemong Rd,Peterborough,ON,K9H 7E3,['705-745-2401']
"

Shoppers Drug Mart


",14729 Yonge St,Aurora,ON,L4G 1N1,['905-727-4275']
"

Remedy'sRx Pharmacy


",30 Furbacher Ln,Aurora,ON,L4G 6W1,['905-726-9026']
"

I.D.A. - Allaura Pharmacy & Medical Centre


",2 Allaura Blvd,Aurora,ON,L4G 3S5,['905-751-1717']
"

The Medicine Shoppe Pharmacy


",860 Chemong Rd,Peterborough,ON,K9H 5Z8,['705-743-8443']
"

Medical Pharmacies


",462 Paxton St,Port Perry,ON,L9L 1L9,['905-985-8484']
"

Brookdale Drugstore


",829 Chemong Rd,Peterborough,ON,K9H 5Z5,['705-874-7128']
"

Port Perry Pharmacy - Remedy'sRx


",209 Queen St,Port Perry,ON,L9L 1B9,['905-985-2231']
"

Shoppers Drug Mart


",1865 Scugog St,Port Perry,ON,L9L 1J3,['905-985-8886']
"

Remedy’sRx - Port Perry


",1893 Scugog St,Port Perry,ON,L9L 1H9,['905-985-3308']
"

Walmart Supercentre


",1535A Hwy 7A,Port Perry,ON,L9L 1B5,['905-985-1941']
"

Remedy'sRx - Peterborough Hospital Pharmacy


",1 Hospital Dr,Peterborough,ON,K9J 7C6,['705-749-0008']
"

Medical Pharmacy


",555 George St N,Peterborough,ON,K9H 3S1,"['705-749-5888', '1-800-755-4453']"
"

Peterborough Clinic Pharmacy Ltd


",26 Hospital Dr,Peterborough,ON,K9J 6A9,['705-748-6341']
"

Guardian - Wishing Well Pharmacy


",12637 Tenth Line,Stouffville,ON,L4A 7X3,['905-591-9355']
"

Tenth Line Pharmacy


",11719 Tenth Line,Stouffville,ON,L4A 4W1,['905-640-0666']
"

Medical Centre Pharmacy


",707 Charlotte St,Peterborough,ON,K9J 2X5,['705-743-3484']
"

Remedy'sRx - Charlotte Care Pharmacy


",270 Charlotte Street,Peterborough,ON,K9J 2V4,['705-536-7777']
"

Lakeview Pharmacy Ltd


",191 Simcoe St,Peterborough,ON,K9H 2H6,['705-745-0516']
"

Shoppers Drug Mart


",250 Charlotte St,Peterborough,ON,K9J 2V1,['705-743-3541']
"

Shoppers Simply Pharmacy


",361 George St N,Peterborough,ON,K9H 3R2,['705-742-3002']
"

New Day Pharmacy


",226 Charlotte St,Peterborough,ON,K9J 2T8,['705-876-1800']
"

Aylmer St. Pharmacy


",296 Aylmer St N,Peterborough,ON,K9J 3K7,['705-741-1646']
"

Silver Fox Pharmacy Inc


",13837 Yonge St,Aurora,ON,L4G 0N9,['905-726-8948']
"

Sullivan's Pharmacy


",71 Hunter St E,Peterborough,ON,K9H 1G4,['705-742-3460']
"

Carx Drugs Limited


",370 Burnham St,Peterborough,ON,K9H 1T6,['705-741-1199']
"

Loblaw Pharmacy


",230 George St N,Peterborough,ON,K9J 3G8,['705-741-2401']
"

Holy Trinity Pharmacy


",2 Bloomfield Trl,Richmond Hill,ON,L4E 2H8,['289-234-3377']
"

Calabogie Pharmacy


",1101 Francis,Calabogie,ON,K0J 1H0,['613-752-0000']
"

Calabogie Pharmacy Inc


",1101 Francis,Calabogie,ON,K0J 1H0,['613-752-1179']
"

Rexall


",85 George St N,Peterborough,ON,K9J 3G3,['705-748-9733']
"

Shoppers Drug Mart


",1875 Lansdowne St W,Peterborough,ON,K9K 0C9,['705-749-6547']
"

St Andrew's Presbyterian Chruch


",149 FREDERICK ST,Arthur,ON,N0G 1A0,['519-848-3710']
"

Sobeys Pharmacy


",1200 Lansdowne St W,Peterborough,ON,K9J 2A1,['705-748-5309']
"

I.D.A. - Walsh's Pharmacy


",200 George St,Arthur,ON,N0G 1A0,['519-848-2530']
"

Kashyap's Pharmasave


",1040 Lansdowne St W,Peterborough,ON,K9J 1Z9,[]
"

Price Chopper


",950 Lansdowne St W,Peterborough,ON,K9J 1Z9,['705-742-3836']
"

Walmart Supercentre


",950 Lansdowne St W,Peterborough,ON,K9J 1Z9,['705-742-9204']
"

High St Guardian Pharmacy


",9-815 High St,Peterborough,ON,K9J 8J9,['705-874-8080']
"

Guardian Pharmacy


",9-815 High St,Peterborough,ON,K9J 8J9,['705-748-4033']
"

Shoppers Drug Mart


",741 Lansdowne St W,Peterborough,ON,K9J 1Z2,['705-748-6141']
"

Loblaw Pharmacy


",769 Borden Ave,Peterborough,ON,K9J 0B6,['705-748-6020']
"

Rexall


",13291 Yonge St,Richmond Hill,ON,L4E 4L6,['905-773-5571']
"

The Organic Compounding Pharmacy


",13237 Yonge St,Richmond Hill,ON,L4E 1B6,['905-773-8627']
"

Wellness Shield Pharmacy


",14020 Old Scugog Rd,Blackstock,ON,L0B 1B0,['905-986-5000']
"

Ideal Protein / Headwaters Body Rx Studio


",6 Huntsmill Dr,Caledon East,ON,L7C 0A3,['905-584-0139']
"

Lansdowne Pharmacy Remedies Rx


",196 Lansdowne St E,Peterborough,ON,K9J 7N9,['705-874-1012']
"

Shoppers Drug Mart


",13070 Yonge St,Richmond Hill,ON,L4E 2T2,['905-773-1983']
"

Loblaw Pharmacy


",400 Lansdowne St E,Peterborough,ON,K9L 0B2,['705-740-0263']
"

Remedy'sRx - Yonge Medical pharmacy


",13025 Yonge St,Richmond Hill,ON,L4E 1A6,['905-918-3132']
"

Yonge Medical Pharmacy


",13025 Yonge St,Richmond Hill,ON,Unavailable,['905-773-2757']
"

Theotokos Pharmacy


",132 King Rd,Richmond Hill,ON,L4E 2T5,['289-234-4488']
"

Costco Wholesale


",485 The Parkway,Peterborough,ON,K9J 0B3,['705-750-2609']
"

Guardian - King City Pharmacy


",27-1700 King Rd,King City,ON,L7B 0N1,['905-833-5304']
"

Improved Care Walk-in Medical Clinic and Pharmacy


",12-1700 King Rd,King City,ON,L7B 0N1,['905-833-8421']
"

Trucare Pharmacy


",13110 Yonge St N,Richmond Hill,ON,L4E 1A3,['905-773-8999']
"

Shoppers Drug Mart


",2140 King Rd,King City,ON,L7B 1L5,['905-833-1368']
"

The Prescription Shoppe


",261 Main St W,Palmerston,ON,N0G 2P0,['519-343-3912']
"

King City Medical Pharmacy


",20 Doctors Lane,King City,ON,L7B 1G2,['905-833-4433']
"

Nobleton Guardian Pharmacy


",12931 Highway 27 Gd,Nobleton,ON,L0G 1N0,['905-859-2322']
"

Yonge Medical Pharmacy And Clinic


",13025 Yonge,Richmond Hill,ON,L4E 1A5,['905-773-3342']
"

Guardian - Caledon East Pharmacy


",1-15771 Airport Rd,Caledon,ON,L7C 1K2,['905-584-2238']
"

Shoppers Drug Mart


","12277 10th Line, Building A",Stouffville,ON,L4A 7W6,['905-640-5888']
"

Guardian - Leggett & Smith Pharmacy


",18 King St E,Bolton,ON,L7E 1E8,['905-857-1474']
"

Bolton Pharmasave


",8 Queen St North,Bolton,ON,L7E 1C8,['905-533-7700']
"

Guardian - Centennial Pharmacy


",2375 Country Rd 45,Norwood,ON,K0L 2V0,['705-639-5535']
"

Pharmacy Tech Consultants


",34 Jean St,Caledon East,ON,L7C 1P6,['905-584-0968']
"

Remedy Holdings


",40 Freel Lane,Stouffville,ON,L4A 0P5,['905-640-2802']
"

Well Plus Compounding Pharmacy


",5-5402 Main St,Stouffville,ON,L4A 1H3,['905-591-5402']
"

Shoppers Drug Mart


","5710 Main St,Unit 6 & 7",Stouffville,ON,L4A 8A9,['905-640-2700']
"

Metro Pharmacy


",5612 Main St,Stouffville,ON,L4A 8B7,['905-642-8600']
"

IDA Stouffville Pharmacy


",203-6212 Main St,Stouffville,ON,L4A 2S5,['905-640-2222']
"

Pharmasave


",7-6601 Main St,Stouffville,ON,L4A 6A9,['905-642-9595']
"

Rexall


",101-5779 Main St,Stouffville,ON,L4A 4R2,['905-642-5005']
"

Great North Pharmacy


",155 Mostar St,Stouffville,ON,L4A 0Y2,['905-591-4376']
"

Guardian - Mostar Pharmacy


",175 Mostar St,Stouffville,ON,L4A 0Y2,['905-640-3600']
"

Bolton Clinic


",30 Martha St,Bolton,ON,L7E 5V1,"['905-857-9797', '1-844-852-2500']"
"

Bolton Lifecare Pharmacy


","30 Martha St,Unit 103",Bolton,ON,L7E 5V1,['905-857-9494']
"

Walmart Supercentre


",1050 Hoover Park Dr,Stouffville,ON,L4A 0K2,['905-640-9533']
"

Loblaw Pharmacy


",487 Queen st S,Bolton,ON,L7E 2B4,['905-951-7502']
"

Rexall


",405 Queen St S,Bolton,ON,L7E 2B5,['905-857-3766']
"

Life Pharmacy


",15 Allan Dr,Bolton,ON,L7E 2B4,['905-857-0040']
"

Remedy'sRx - Tower Hill Pharmacy


",380 Tower Hill Rd,Richmond Hill,ON,L4E 0A6,['905-737-8333']
"

Tower Hill Medical Centre & Pharmacy


",16-380 Tower Hill Rd,Richmond Hill,ON,L4E 0T8,['289-475-6104']
"

Shoppers Drug Mart


",1 Queensgate Blvd,Bolton,ON,L7E 2X7,['905-857-2031']
"

Vellore Pharmacy


",10395 Weston,Maple,ON,L4L 1A6,['905-417-5467']
"

Guardian - Havelock Pharmacy


",44 Ottawa St W,Havelock,ON,K0L 1Z0,['807-547-3346']
"

Sobeys Pharmacy


",11700 Yonge St,Richmond Hill,ON,L4E 0K4,['905-508-4847']
"

Pharmasave


",11685 Yonge St,Richmond Hill,ON,L4E 0K7,['905-770-7775']
"

Pharmasave


",16 Ottawa St W,Havelock,ON,K0L 1Z0,['705-778-3368']
"

Pharmacy Store Pharmacy


",16 Ottawa W,Havelock,ON,K0L 1Z0,['705-778-1924']
"

Pharmacy Store Pharmacy


",16 Ottawa W,Havelock,ON,K0L 1Z0,['705-778-1457']
"

Havelock Community Pharmacy


",16 Ottawa St W,Havelock,ON,K0L 1Z0,['705-778-7154']
"

Dayspring Pharmacy


",12788 Hwy 50,Caledon,ON,L7E 4G1,['905-857-0777']
"

Walmart Supercentre


",150 McEwan Dr E,Bolton,ON,L7E 2Y3,['905-857-3998']
"

Bolton Health Pharmacy


",113-170 McEwan Dr E,Bolton,ON,L7E 4C8,['905-533-0193']
"

Total Health Pharmacy


",170 McEwan Dr E,Caledon,ON,L7E 4C8,['905-951-1020']
"

Hlc Pharmacy


",5014 Old Brock Rd,Claremont,ON,L1Y 1B3,['905-408-8000']
"

Bolton Compounding Pharmacy


",12295 Hwy 50,Bolton,ON,L7E 1M1,['905-857-4332']
"

FreshCo Pharmacy


",3737 Major MacKenzie Dr E,Vaughan,ON,L4L 1A6,['905-303-4741']
"

Parr Pharmacy


",3-12 Parr Blvd,Bolton,ON,L7E 4H1,['905-533-5099']
"

Nickle's Pharmacy IDA


",26 Forsyth,Marmora,ON,K0K 2M0,['613-472-2134']
"

V.Care Pharmacy


","2-11005 Yonge St, (E)",Richmond Hill,ON,L4C 0K7,['905-237-0333']
"

Loblaw Pharmacy


",10909 Yonge St,Richmond Hill,ON,L4C 3E3,['905-737-1840']
"

Loblaws


",10909 Yonge St,Richmond Hill,ON,L4C 3E3,['905-737-1222']
"

Upper Yonge Pharmacy


",10909 Yonge St,Richmond Hill,ON,L4C 3E3,['905-770-1016']
"

Richpoint Pharmacy


",10815 Yonge St,Richmond Hill,ON,L4C 3E3,['905-884-1910']
"

Medmail Mail Order Online Pharmacy


",22 Larratt Lane,Richmond Hill,ON,L4C 9H9,"['905-237-6360', '1-844-884-6360']"
"

Shoppers Drug Mart


",10800 Bayview Ave,Richmond Hill,ON,L4S 0A6,['905-770-7050']
"

Elgin Mills Crossing Pharmacy


",10 John Birchall Rd,Richmond Hill,ON,L4S 0B2,['905-780-8500']
"

Costco Wholesale


",35 John Birchall Rd,Richmond Hill,ON,L4S 0B2,['905-780-2109']
"

Pharmasanté Pharmacy


",10815 Bathurst St,Richmond Hill,ON,L4C 9Y2,['905-780-1050']
"

Elgin Care Pharmacy


",1650 Elgin Mills Rd E,Richmond Hill,ON,L4S 0B2,['905-770-8228']
"

D C L Global


",1650 Elgin Mills Rd E,Richmond Hill,ON,L4S 0B2,['905-237-8200']
"

Shoppers Drug Mart


",C1-118 Tower Hill Rd,Richmond Hill,ON,L4E 0K6,"['905-737-4799', '1-800-746-7737']"
"

Public Health Pharmacy


",23-1285 Elgin Mills Rd E,Richmond Hill,ON,L4S 0B5,['905-787-9828']
"

Richmond Hill Guardian Phcy


",23-1285 Elgin Mills Rd E,Richmond Hill,ON,L4S 0B5,['905-787-9828']
"

Thornhill Woods Pharmacy


",1101 Rutherford Rd,Vaughan,ON,L6A 1S2,['905-882-4567']
"

The Medicine Shoppe Pharmacy


",9983 Keele St,Maple,ON,L6A 3Y5,['905-832-4544']
"

York Care Pharmacy


",10660 Yonge St,Richmond Hill,ON,L4C 3C9,['905-508-5999']
"

Shoppers Drug Mart


",10620 Yonge St,Richmond Hill,ON,L4C 3C8,"['905-884-5233', '1-800-746-7737']"
"

People's Choice Pharmacy


",10610 Bayview Ave,Richmond Hill,ON,L4C 3N8,['905-883-6940']
"

The Medicine Shoppe Pharmacy


",7-10610 Bayview Ave,Richmond Hill,ON,L4C 3N8,['905-884-2866']
"

Uptown Family Pharmacy


",12 Nipigon Ave,Markham,ON,L6C 0X7,['905-927-1222']
"

Cityview Pharmacy


",15-551 Cityview Blvd,Woodbridge,ON,L4H 0Z4,['905-553-5099']
"

Sildom Drug Mart


",10555 Jane St,Maple,ON,L6A 3L1,['905-417-1288']
"

Phoenix Medical Pharmacy


",10376 Yonge St,Richmond Hill,ON,L4C 3B8,['905-883-4774']
"

Dara Pharmacy and Walk-in Clinic


",10376 Yonge St,Richmond Hill,ON,L4C 3B8,['905-237-7679']
"

Drayton Drug Mart


",90 Wellington S,Unavailable,ON,N0G 1P0,['519-638-2878']
"

Dara Pharmacy Inc


",10376 Yonge St,Unavailable,ON,L4C 3B8,['905-237-7679']
"

Village Pharmacy


",5-10288 Yonge St,Richmond Hill,ON,L4C 3B8,['905-237-8533']
"

Davis Drive Pharmacy


",50 Alpine Cres,Richmond Hill,ON,L4S 1W4,['905-508-1514']
"

Richmond Hill Medical Clinic - Walk in Clinic and Pharmacy


",10243 Yonge St,Richmond Hill,ON,L4C 3B2,['905-237-8755']
"

Richmond Hill Medical Pharmacy


",10243 Yonge St,Richmond Hill,ON,L4C 3B2,['905-237-7874']
"

Kleinburg Pharmacy


",10462 Islington Ave,Vaughan,ON,L0J 1C0,['905-893-3747']
"

Richmond Care Pharmacy


",105-22 Richmond St,Richmond Hill,ON,L4C 3Y1,['905-237-1400']
"

Erin Pharmacy


",6-6 Thompson Cres SS 1,Erin,ON,N0B 1T0,['519-315-2000']
"

York Major Pharmacy


",191 McNaughton Rd E,Maple,ON,L6A 4E2,['905-417-9000']
"

I.D.A. - Millbrook Pharmacy


",8 King St E,Millbrook,ON,L0A 1G0,['705-932-3131']
"

Pharma-Docs


",10171 Yonge St,Richmond Hill,ON,L4C 1T5,['905-918-0037']
"

Pars Medical Pharmacy


",A 1-10171 Yonge St,Richmond Hill,ON,L4C 1T5,['905-883-4848']
"

Health Plus Pharmacy


",10 Trench St,Richmond Hill,ON,L4C 4Z3,['905-883-7500']
"

Peoples Choice Pharmacy


",10063 Yonge St,Richmond Hill,ON,L4C 1T7,['905-770-3113']
"

I.D.A. - Blue Skies Pharmacy


",9980 Kennedy Rd,Markham,ON,L6C 0M4,['905-888-8833']
"

Shoppers Drug Mart


",1070 Major Mackenzie Dr E,Richmond Hill,ON,L4S 1P3,['905-883-9984']
"

Shoppers Drug Mart


",2920 Major MacKenzie Dr E,Markham,ON,L6C 0G6,['905-927-7161']
"

Total Health Pharmacy


",610 Major MacKenzie Dr E,Richmond Hill,ON,L4C 1J9,['905-884-4461']
"

Total Health Pharmacy


",610 Major MacKenzie Dr E,Richmond Hill,ON,L4C 1J9,['905-884-4444']
"

Vaughan Medical Pharmacy


",10083 Keele,Unavailable,ON,L6A 1R7,['905-303-9555']
"

Main Drug Mart


",6-10 Headdon Gate,Richmond Hill,ON,L4C 8A3,['905-737-3000']
"

Rh City Centre Pharmacy


",129 Church St S,Richmond Hill,ON,L4C 1W4,['905-237-4994']
"

Leslie and Major Mackenzie I.D.A. Pharmacy


",1390 Major MacKenzie Dr E,Richmond Hill,ON,L4S 0A1,['905-780-0045']
"

FreshCo Pharmacy


",1430A Major MacKenzie Dr E,Richmond Hill,ON,L4S 0A1,['905-770-9228']
"

Price Chopper


",1430 Major Mackenzie Dr E,Richmond Hill,ON,L4S 0A1,['905-770-9370']
"

Listowel Care Pharmacy


",975 Wallace Ave N,Listowel,ON,N4W 1M6,['519-418-1800']
"

Walmart Supercentre


",1070 Major Mackenzie Dr E,Richmond Hill,ON,L4S 1P3,['905-883-5305']
"

Guardian Markhamack Pharmacy


",7-9889 Hwy 48,Markham,ON,L6E 0B7,['905-294-3295']
"

Forum Drug Mart


",955 Major MacKenzie Dr,Maple,ON,L6A 4P9,['289-553-7700']
"

Food & Drug Basics


",1070 Major Mackenzie Dr E,Richmond Hill,ON,L4S 1P3,['905-884-3400']
"

Hear At Lastast


",1070 Major Mackenzie Dr,Richmond Hill,ON,L4S 1P3,['905-770-5246']
"

Dufferin Major Pharmacy


",1530 Major MacKenzie Dr,Vaughan,ON,L6A 0A9,['905-303-2425']
"

Community Drugmart


",250 Harding Blvd W,Richmond Hill,ON,L4C 9M7,['289-809-5861']
"

Don Head Pharmacy


",205 Don Head Village Blvd,Richmond Hill,ON,L4C 7R4,['905-770-8772']
"

Walmart Supercentre


",1900 Major Mackenzie Dr,Maple,ON,L6A 4R9,['905-417-0234']
"

Shoppers Drug Mart


",9980 Dufferin St,Vaughan,ON,L6A 4K5,"['905-303-5150', '1-800-746-7737']"
"

Shoppers Drug Mart


",2266 Major MacKenzie Dr,Maple,ON,L6A 3Y7,"['905-303-5650', '1-800-746-7737']"
"

Castlemore Discount Pharmacy


",1-1250 Castlemore Ave,Markham,ON,L6E 0H7,['905-209-9005']
"

Bio Health Pharmacy


",2389 Major Mackenzie Dr W,Maple,ON,L6A 1R8,['905-303-3784']
"

Mackenzie Care Pharmacy & Clinic


",17-2396 Major MacKenzie Dr,Maple,ON,L6A 4Y1,['289-553-7113']
"

Medical Pharmacies Group Inc


",9915 Yonge St,Richmond Hill,ON,L4C 1V1,['905-770-1617']
"

Drug Care Pharmacy


",2563 Major Mackenzie Dr W,Maple,ON,L6A 2E8,['905-553-7800']
"

I.D.A. - Medi Pharm 2 Pharmacy


",10A-2535 Major Mackenzie Dr W,Maple,ON,L6A 1C6,['905-417-3400']
"

Maple Guardian Pharmacy


",2810 Major Mackenzie Dr,Maple,ON,L6A 3L2,['905-832-1200']
"

Mackenzie Glen


",101-2810 Major Mackenzie Dr,Maple,ON,L6A 3L2,['905-832-1200']
"

Loblaw Pharmacy


",2911 Major Mackenzie Dr,Vaughan,ON,L6A 3N9,['905-417-0490']
"

Shoppers Drug Mart


",2943 Major MacKenzie Dr,Maple,ON,L6A 3N9,['905-832-9954']
"

Major Mac Pharmacy


",101-3420 Major Mackenzie Dr W,Woodbridge,ON,L4H 6J4,['289-536-0098']
"

Price Chopper


",3737 Major Mackenzie Dr,Woodbridge,ON,L4H 0A2,['905-303-3144']
"

Shoppers Drug Mart


",3737E Major MacKenzie Dr,Vaughan,ON,L4H 0A2,['905-417-4840']
"

Novocare Pharmacy


",20-3981 Major MacKenzie Dr,Vaughan,ON,L4H 4W1,['905-417-4949']
"

Walmart Supercentre


",3600 Major Mackenzie Dr,Vaughan,ON,L6A 1S1,['905-832-6595']
"

Shoppers Drug Mart


",1730G Bur Oak Ave,Markham,ON,L6E 0H8,['905-294-2116']
"

The Medicine Shoppe Pharmacy


",3555 Thornton Rd N,Oshawa,ON,L1H 7K4,['905-721-8676']
"

Hana Pharmacy


",202-9737 Yonge St,Richmond Hill,ON,L4C 8S7,['905-237-8505']
"

New Markham Pharmacy


",9500 Markham Rd,Markham,ON,L6E 0N7,['905-472-4545']
"

Coby Pharmacy


",6662 35 Hwy,Coboconk,ON,K0M 1K0,['705-454-3382']
"

Shoppers Drug Mart


","9620 McCowan Road, R.R. # 1",Markham,ON,L3P 8M1,['905-927-2618']
"

Rexall


",123 Main St,Erin,ON,N0B 1T0,['519-833-2333']
"

Markham Clinic Pharmacy Inc


",10C-50 Bur Oak Ave,Markham,ON,L6C 0A2,['905-534-4300']
"

Bur Oak Discount Pharmacy


",6-20 Bur Oak Ave,Markham,ON,L6C 0A2,['905-887-9005']
"

Peace Medical Pharmacy


",19-9699 Jane St,Maple,ON,L6A 0A4,['905-553-2244']
"

Guardian Weldrick Compounding Pharmacy


",9665 Bayview Ave,Richmond Hill,ON,L4B 4V9,['905-237-8282']
"

Carerx Corporation


",58 Bursthall,Marmora,ON,K0K 2M0,['613-472-5783']
"

FreshCo Pharmacy


",9580 McCowan Rd,Markham,ON,L3P 8M1,['905-887-2446']
"

Shoppers Drug Mart


",9651 Yonge St,Richmond Hill,ON,L4C 1V7,['905-508-2921']
"

I.D.A. - MacKenzie Pharmacy


",9671 Jane St,Maple,ON,L6A 3X5,['905-553-5553']
"

Apadana Pharmacy


",9631 Yonge St,Richmond Hill,ON,L4C 0M5,['905-883-9999']
"

Apadana Pharmacy


",9631 Yonge St,Richmond Hill,ON,L4C 0M5,['905-884-9494']
"

Shoppers Drug Mart


",210 Wallace Ave N,Listowel,ON,N4W 1K9,['519-291-1930']
"

Villa Royale Medical Centre


",9750 Weston Rd,Woodbridge,ON,L4H 2Z7,['905-553-2333']
"

3 M Drug Mart


",9750 Weston Rd,Vaughan,ON,L4H 2Z7,['905-303-8400']
"

The Medicine Shoppe Pharmacy


",9750 Weston Rd,Vaughan,ON,L4H 2Z7,['905-417-4436']
"

Chemcare Solutions


",2-9750 Weston Rd,Woodbridge,ON,L4H 2Z7,['905-553-7777']
"

Richmond Hill Health Centre


",9625 Yonge St,Richmond Hill,ON,L4C 5T2,['905-883-1102']
"

Viva Health Pharmacy


",107-9580 Yonge St,Richmond Hill,ON,L4C 1V6,['905-237-6364']
"

Upper Village Pharmacy


",102-9500 Markham Rd,Markham,ON,L6E 0N6,['905-554-7505']
"

The Sheppard Pharmacy


",120 Main St W,Listowel,ON,N4W 1A1,['519-291-9377']
"

Doorpill Pharmacy


",592 Country Glen Rd,Markham,ON,L6B 1E8,['905-554-5757']
"

Mount Joy Pharmacy


",9418 Highway 48,Markham,ON,L6E 0N1,['905-554-9150']
"

Remedy'sRx - Listowel


",600 Mitchell Rd S,Listowel,ON,N4W 3T1,['519-291-5311']
"

DRUGStore Pharmacy


",9305 Highway 48,Markham,ON,L6E 0E6,['905-294-6512']
"

Hlc Pharmacy


",16-9555 Yonge St,Richmond Hill,ON,L4C 9M5,['905-508-2292']
"

Weston Rutherford Pharmacy


",9581 Weston Rd,Vaughan,ON,Unavailable,['905-303-9000']
"

Prima Care Guardian Pharmacy


",9-9600 Islington Ave,Woodbridge,ON,L4H 2T1,['905-552-6000']
"

Swan Lake Compounding Pharmacy


",5 SwanLake Blvd,Markham,ON,L6E 0K7,['905-209-0931']
"

I.D.A. - Life Compounding Pharmacy


",9425 Leslie St,Richmond Hill,ON,L4B 3N7,['905-237-6937']
"

Metro Pharmacy


",9600 Islington Ave,Woodbridge,ON,L4H 2T1,['905-893-2900']
"

16th Avenue Drug Mart


",1 Mintleaf Gate,Markham,ON,L3P 5X4,['905-471-6010']
"

Summit Vet Pharmacy


",20 Furbacher Lane,Unavailable,ON,L0H 1G0,['905-713-2016']
"

Walmart


",600 Mitchell Rd S,Listowel,ON,N4W 3T1,['519-291-6525']
"

Sunrise Pharmacy


",5970 16th Ave,Markham,ON,L3P 7R1,['905-471-2206']
"

Sunrise Pharmacy


",112-5970 16th Ave,Markham,ON,L3P 7R1,['905-471-0556']
"

DRUGStore Pharmacy


",9325 Yonge St,Richmond Hill,ON,L4C 1V4,['905-770-0002']
"

Guardian - Uptown Apothecary


",9325 Yonge St,Richmond Hill,ON,L4C 0A8,['905-780-6161']
"

Shoppers Drug Mart


",9350 Yonge St,Richmond Hill,ON,L4C 5G2,['905-884-0555']
"

Altana Pharma


",110 Auto Vaughan Dr,Maple,ON,L6A 4A1,['289-342-0015']
"

Shoppers Drug Mart


",1B-9255 Woodbine Ave,Markham,ON,L6C 1Y9,['905-887-3000']
"

Jane Medical Pharmacy


",122-9401A rue Jane,Maple,ON,L6A 4H7,['905-832-4333']
"

Shoppers Drug Mart


",1A-9306 Bathurst St,Vaughan,ON,L6A 4N7,"['289-304-8722', '1-800-746-7737']"
"

Carerx Corporation Retirement Home


",710 Reserve Ave S,Listowel,ON,N4W 2L1,['519-291-4235']
"

Atlas Medical Clinic & Pharmacy


",1383 16th Avenue,Richmond Hill,ON,L4B 1J3,['905-918-3560']
"

Pharma Trust Ltd


",883 16th Ave,Richmond Hill,ON,L4B 3E5,['905-763-8154']
"

Guardian - Unionville Guardian Pharmacy


",101-9249 Kennedy Rd,Unionville,ON,L3R 6H9,['905-944-9191']
"

Shoppers Drug Mart


",9275 Bayview Ave,Richmond Hill,ON,L4C 9X4,['905-886-6676']
"

Pharma Plus


",9200 Bathurst Street,Vaughan,ON,L4J 8W1,['905-731-2216']
"

Sobeys Pharmacy


",9200 Bathurst St,Thornhill,ON,L4J 8W1,['905-731-6568']
"

Richmond I.D.A. Pharmacy


",9206 Yonge St,Richmond Hill,ON,L4C 7A2,['905-482-9390']
"

Manhattan Guardian Pharmacy


","411 Manhattan Dr,Unit 18",Markham,ON,L3P 7P4,['905-477-1414']
"

Guardian - Atlas Pharmacy


",1A-1383 16th Avenue,Richmond Hill,ON,L4B 0E2,['905-918-3560']
"

Guardian - Bayview Medical Pharmacy


","9160 Bayview Ave,Unit 103",Richmond Hill,ON,L4B 0A6,['905-764-2273']
"

Guardian - Morelli's Pharmacy


",98 Copper Creek Dr,Markham,ON,L6B 0P2,['905-209-8121']
"

Maplegate Pharmacy


",2200 Rutherford Rd,Vaughan,ON,L4K 5V2,['905-417-7007']
"

Forum Drug Mart


",2640 Rutherford Rd,Concord,ON,L4K 0H1,['289-553-7701']
"

Vaughan Compounding Pharmacy


",7-3300B Rutherford Rd,Concord,ON,L4K 5Z2,['905-553-5363']
"

Shoppers Drug Mart


",9200C Weston Rd,Vaughan,ON,L4H 2P8,['905-417-9044']
"

Alexion Pharma Canada


",3100 Rutherford Rd,Concord,ON,L4K 0G6,['905-553-3991']
"

Pharm Assist


",55 West Beaver Creek Rd,Richmond Hill,ON,L4B 1K5,['905-597-7350']
"

Rexall


",3900 Rutherford Rd,Woodbridge,ON,L4H 3G8,['905-417-5221']
"

Vaugan Neighborhood Pharmacy


",3175 Rutherford Rd,Vaughan,ON,L4K 5Y6,['905-669-6008']
"

Pharma Plus


",3900 Rutherford Rd,Maple,ON,L4H 3G8,['905-417-5725']
"

I.D.A. - Lily Pharmacy


",F23-3175 Rutherford Rd,Vaughan,ON,L4K 5Y6,['905-738-6308']
"

Venice Pharmacy


",76-3530 Rutherford Road,Woodbridge,ON,L4H 3T8,['905-553-7546']
"

Smith's Pharmacy Integrative Medical Clinic


",3-3590 Rutherford Rd,Vaughan,ON,L4H 3T8,['905-553-1280']
"

Atlas Pharmacy


",16 Avenue Rd Suite A,Richmond Hill,ON,L4C 6B8,['289-809-2842']
"

Grand Genesis Pharmacy


",9080 Yonge St,Richmond Hill,ON,L4C 0Y7,['905-763-7993']
"

Grand Genesis Pharmacy


",9080 Yonge St,Richmond Hill,ON,L4C 0Y7,['905-597-1560']
"

Guardian - Tuscany Guardian Pharmacy


",16-9100B Jane St,Concord,ON,L4K 0A4,['905-760-1044']
"

I.D.A. - Brooklin Pharmacy


",65 Baldwin St,Whitby,ON,L1M 1A3,['905-655-3301']
"

Shoppers Drug Mart


",5100 Rutherford Rd,Woodbridge,ON,L4H 2J2,['905-893-2866']
"

Cornell Pharmacy


",2-106 Cornell Park Ave,Markham,ON,L6B 1B6,['905-471-3070']
"

Rutherford Guardian Pharmacy


",2-5283 Rutherford Rd,Woodbridge,ON,L4H 2T2,['905-850-9666']
"

My Private Pharmacy


",80 West Beaver Creek Rd,Richmond Hill,ON,L4B 1H3,['905-597-6716']
"

Suburban Drug Mart


",1-80 West Beaver Creek Rd,Richmond Hill,ON,L4B 1H3,['905-597-6718']
"

I.D.A. - ProCare Pharmacy


",8-9019 Bayview Ave,Richmond Hill,ON,L4B 3M6,['905-889-3466']
"

Shoppers Drug Mart


",341-1 Bass Pro Mills Dr,Vaughan,ON,L4K 5W4,['905-738-1141']
"

I.D.A. - Weston Downs Pharmacy


",9000 Weston Rd,Woodbridge,ON,L4L 1A6,['905-605-7080']
"

Unionville Pharmacy


",548 Carlton Rd,Unionville,ON,L3R 0C6,['905-604-7730']
"

Loblaw Pharmacy


",200 Bullock Dr,Markham,ON,L3P 1W2,['905-294-6277']
"

2 2 Care Pharmacy


",3028 Bur Oak Ave,Markham,ON,L6B 0R1,['905-201-1497']
"

Shoppers Drug Mart


",5979 Baldwin St S,Brooklin,ON,L1M 2J7,"['905-655-4624', '1-800-746-7737']"
"

Shoppers Drug Mart


",1-8865 Yonge St,Richmond Hill,ON,L4C 6Z1,['905-882-0255']
"

Pharmalinx Medical Centre and Guardian Pharmacy - Unionvillle


",178 Main St,Unionville,ON,L3R 2G9,['905-475-5700']
"

Dale's Pharmacy


",377 Church St,Markham,ON,L6B 1A1,['905-471-1234']
"

PharmaCommunications Group Inc


",505 Apple Creek Blvd,Markham,ON,L3R 5B1,['905-477-3100']
"

Loblaws


",200 Bullock Dr,Markham,ON,L3P 1W2,['905-294-4922']
"

Lacoste Pharmacy & Walk-In Clinic


",60 Lacoste Blvd,Brampton,ON,L9W 5J7,['905-794-5551']
"

Shoppers Drug Mart


","1 Bass Pro Mills Dr, Unit 341",Vaughan,ON,L4K 5W4,['905-738-1141']
"

Guardian - Squire Ellis Pharmacy


",15/16-10 Squire Ellis Dr,Brampton,ON,L6P 4K6,['905-789-0007']
"

Guardian - Castle Oaks Pharmacy


",225 Castle Oaks Crossing,Brampton,ON,L6P 3X3,['905-794-2255']
"

Safeway


","8-30 Fulton Way, 200",Richmond Hill,ON,L4B 1E6,['289-379-9533']
"

CareRx Corporation


",30 Fulton Way,Richmond Hill,ON,L4B 1E6,['905-731-0146']
"

Carerx Corporation


",30 Fulton Way,Richmond Hill,ON,L4B 1E6,['905-762-1127']
"

Medico Pharmacy


",30 Fulton Way,Richmond Hill,ON,L4B 1E6,['905-482-0623']
"

Medical Pharmacies


",5-30 Fulton Way,Richmond Hill,ON,L4B 1E6,"['905-784-4500', '1-800-270-9879']"
"

Medical Pharmacies Group Limited


",300 Town Centre Blvd,Markham,ON,L3R 5Z6,"['905-474-2992', '1-866-689-3169']"
"

Applecreek Pharmacy


",8787 Woodbine Ave,Markham,ON,L3R 4Y1,['905-940-5000']
"

Main Pharmacy


",60 Main St N,Markham,ON,L3P 1X5,['905-554-4440']
"

The Chemist Pharmacy


",27 Wootten Way N,Markham,ON,L3P 2Y2,['905-472-2222']
"

Loblaws


",301 High Tech Rd,Richmond Hill,ON,L4B 4R2,['905-771-1066']
"

Niagara Street Developments


",29B Floral Pky,Concord,ON,L4K 5C5,['905-597-0848']
"

Loblaw Pharmacy


",301 High Tech Rd,Richmond Hill,ON,L4B 4R2,['905-771-7315']
"

Safa medical walk-in clinic and pharmacy


",16 Main St N,Markham,ON,L3P 1X2,['905-554-2332']
"

Safa Markham Medical


",16 Main St N,Markham,ON,L3P 1X2,['905-471-5300']
"

Walmart Supercentre


",6A-5000 Hwy 7,Markham,ON,L3R 4M9,['905-477-6063']
"

Shoppers Drug Mart


",8601 Warden Ave,Markham,ON,L3R 0B5,['905-479-0772']
"

DRUGStore Pharmacy


",8601 Warden Ave,Markham,ON,L3R 0B5,['905-940-2014']
"

Castle Oaks Medical Centre Ltd


",225 Castle Oaks Cross,Brampton,ON,L6P 3X3,['905-794-4994']
"

Shoppers Drug Mart


",6579 Hwy 7 E,Markham,ON,L3P 3B4,['905-294-3333']
"

Remedy'sRx - Keene Drug Mart


",1105 Heritage Line,Keene,ON,K0L 2G0,['705-295-9800']
"

Supercare Pharmacy Markham


",6633 Hwy 7 E,Markham,ON,L3P 7P2,['905-910-0060']
"

Markham Care Pharmacy


",6633 Hwy 7,Markham,ON,L3P 7P2,['905-201-5055']
"

Supercare Pharmacy Markham


",6633 Hwy 7 E,Markham,ON,L3P 7P2,['905-910-0057']
"

Neilme Pharma


",1300 Rodick Rd,Markham,ON,L3R 8C3,['905-940-1729']
"

I.D.A. - I Care Drug Mart


",6061G Highway 7 E,Markham,ON,L3P 3B2,['289-859-4666']
"

Shoppers Drug Mart


",1-5762 Hwy 7,Markham,ON,L3P 1A8,['905-294-2800']
"

Walmart Supercentre


",255 Silver Linden Dr,Richmond Hill,ON,L4B 4V5,['905-747-0925']
"

Advance Pharmacy Inc


",4392 Steeles Ave E,Markham,ON,L3R 9V8,['905-513-6114']
"

Main Drug Mart


",5293 Highway 7,Markham,ON,L3P 7M7,['905-471-7978']
"

Sobeys Pharmacy


",10970 Airport Rd,Brampton,ON,L6R 0E1,['905-793-4146']
"

Shoppers Drug Mart


",B-10970 Airport Rd,Brampton,ON,L6R 0E1,"['905-793-0308', '1-800-746-7737']"
"

Shoppers Drug Mart


","5000 Hwy 7 E,Unit 2015",Markham,ON,L3R 4M9,['905-477-6320']
"

Evergreen Pharmacy


",104-9990 The Gore Rd,Brampton,ON,L6P 4L8,['289-801-0055']
"

Walmart Supercentre


",6A-5000 Hwy 7,Markham,ON,L3R 4M9,['905-413-7670']
"

Walmart Supercentre


",6A-5000 Hwy 7,Markville Mall,ON,L3R 4M9,['905-946-8250']
"

Wal-Mart Pharmacy


","5000 Highway 7 E, (7 E Markville Shopping Ctr)",Markham,ON,L3R 4M9,['905-477-6065']
"

Markham News Pharmacy


",4997 Highway 7,Unionville,ON,L3R 1N1,['905-248-2027']
"

Shoppers Drug Mart


","4630 Hwy 7 E,Unit 1",Markham,ON,L3R 1M5,['905-479-4044']
"

The Elevator


",4630 Hwy 7 E,Unionville,ON,L3R 1M5,['905-470-7303']
"

Health Point Pharmacy


",B2-4261 Highway 7 E,Unionville,ON,L3R 9W6,['905-604-8518']
"

Jubilee Pharmacy


",280 West Beaver Creek Rd,Richmond Hill,ON,L4B 3Z1,['905-709-0778']
"

Focus Drug Mart


",3000 Highway 7 E,Markham,ON,L3R 6E1,['905-305-8400']
"

Health With Care Pharmacy


",3603 Highway 7,Markham,ON,L3R 8W3,['905-604-2413']
"

Johnston's Pharmacy


",6 Front E,Hastings,ON,K0L 1Y0,['705-696-3606']
"

Walmart Supercentre


",5085 Mayfield Rd,Brampton,ON,L6R 3S9,['905-793-8518']
"

Morelli's Guardian Pharmacy


",3085 Hwy 7,Markham,ON,L3R 0J5,['905-479-0999']
"

Edmund Pharmacy


",8390 Kennedy Rd,Unionville,ON,L3R 0W4,['905-479-8609']
"

Edmund Pharmacy


",8390 Kennedy Rd,Unionville,ON,L3R 0W4,['905-604-1292']
"

Rexall


","178 Citation Drive, Unit 1",Concord,ON,L4K 2Z2,['1-888-792-3667']
"

Health And Beauty Phar


",73-3255 Highway 7 E,Markham,ON,L3R 3P9,['905-513-1311']
"

Rexall


",22 Baskin Dr E,Arnprior,ON,K7S 3G8,['613-623-6591']
"

Times Pharmacy


","550 Highway 7 E, (7 Hwy E)",Richmond Hill,ON,L4B 3Z4,['905-889-6900']
"

Don Crest Rx


","312 Highway 7 E, (7 Hwy E)",Richmond Hill,ON,L4B 1A5,['905-709-4086']
"

Guardian - 360 Pharmacy


",106-360 7 Hwy E,Richmond Hill,ON,L4B 3Y7,['905-889-1360']
"

Austin Pharmacy


",350 Highway 7 E,Richmond Hill,ON,L4B 3N2,['905-886-2333']
"

Richmond Hill Pharmacy


",328 Highway 7 E,Richmond Hill,ON,L4B 3P7,['905-882-5032']
"

St Mary Pharmacy


",95 Times Ave,Thornhill,ON,L3T 0A2,['905-771-0800']
"

Bayview Hill Pharmacy


",420 Hwy 7 E,Richmond Hill,ON,L4B 3K2,['905-882-9588']
"

Fergus Pharmacy & Compounding


",500 Garafraxa St E,Fergus,ON,N1M 1E7,['226-383-8000']
"

Hy & Zel's Drug & Food


",8360 Kennedy Rd,Unionville,ON,L3R 9W4,['905-470-9414']
"

Remedy Drug Store Company Inc


",Twr-675 Cochrane Dr,Markham,ON,L3R 0B8,['905-754-3677']
"

Remedy Drug Store Company Inc


",675 Cochrane Dr,Markham,ON,L3R 0B8,['905-754-3678']
"

Astellas Pharma Canada


",675 Cochrane Dr,Markham,ON,L3R 0B8,['905-470-7799']
"

Hy & Zel's


",8360 Kennedy Rd,Unionville,ON,L3R 9W4,['905-470-9415']
"

Healthline Drugstore


",150 Yellow Avens Blvd,Brampton,ON,L6R 0M5,['905-458-9000']
"

Walmart Supercentre


",801 St David St N,Fergus,ON,N1M 2L1,['519-843-3436']
"

Health Care Pharmacy


",8321 Kennedy Rd,Unionville,ON,L3R 5N4,['905-604-3445']
"

Costco Wholesale


",1 Yorktech Dr,Markham,ON,L6G 1A6,['905-477-0968']
"

Vera Pharm


","14-3650 Langstaff Rd, (Suite 276)",Woodbridge,ON,L4L 9A8,['905-867-6853']
"

Woodgreen


",10 Unionville Gate,Unionville,ON,L3R 0W7,['905-305-6600']
"

Centre Wellington Remedy'sRx


",1-855 St David St N,Fergus,ON,N1M 2W3,['226-383-9461']
"

Pharmasave Trailside Pharmacy


",6420 Beatty Ln N,Fergus,ON,N1M 2W3,['226-383-7005']
"

Langstaff Pharmacy


",8401 Weston Rd,Vaughan,ON,L4L 1A6,['905-851-4236']
"

Langstaff Pharmacy


",8401 Weston Rd,Vaughan,ON,L4L 1A6,['905-850-2790']
"

Custom Care Pharmacy


",32 S Unionville Ave,Markham,ON,L3R 6B8,['905-305-0111']
"

Life Care Medicenter


",13 Father Tobin Rd,Brampton,ON,L6R 3K2,['905-458-8233']
"

Compounding Pharmacy


",9985 Mcvean,Brampton,ON,L6P 4K8,['905-913-8811']
"

Brampton Discount Pharmacy


",4-130 Father Tobin Rd,Brampton,ON,L6R 3P1,['905-789-0909']
"

Weston Pharmacare


",8333 Weston Rd,Woodbridge,ON,L4L 8E2,['905-265-2651']
"

Elora Apothecary


",115 Geedes St,Unavailable,ON,N0B 1S0,['226-369-0312']
"

Dales Pharmacy


",8200 Bayview Ave,Thornhill,ON,L3T 2S2,['905-771-1221']
"

Dale's Pharmacy


",8200 Bayview Ave,Thornhill,ON,L3T 2S2,['905-881-1616']
"

Father Tobin Pharmacy


",105 Father Tobin Rd,Brampton,ON,L6R 0W9,['905-793-3510']
"

Walmart Supercentre


",500 Copper Creek Dr,Markham,ON,L6B 0S1,['905-472-4745']
"

FreshCo Pharmacy


",3998 Cottrelle Blvd,Brampton,ON,L6P 2R1,['905-794-5756']
"

Pharmasave


",65 Braydon Blvd,Brampton,ON,L6P 2S4,['905-794-7585']
"

Pharmacy


",8173 Yonge Street,Markham,ON,Unavailable,['905-597-8077']
"

Shoppers Drug Mart


",3938 Cottrelle Blvd,Brampton,ON,L6P 2R1,['905-794-7071']
"

Doctors Pharmacy


",204-8108 Yonge St,Thornhill,ON,L4J 1W4,['905-709-9985']
"

Friendly Care Baythorn Pharmacy


",265 Bay Thorn Dr,Thornhill,ON,L3T 3V8,['905-762-8999']
"

St. Andrew Pharmacy


",108 St Andrew St W,Fergus,ON,N1M 1N5,['519-843-7515']
"

I.D.A. - Innovation Pharmacy


",4-40 Innovation Dr,Vaughan,ON,L4H 0T2,['905-856-5557']
"

Royal Compounding Pharmacy


",8100 Yonge St,Thornhill,ON,L4J 6W6,['905-889-1588']
"

Innovation Pharmacy


",40 Innovation Drive,Vaughan,ON,L4H 0T2,['289-622-1678']
"

Innovation Medical Centre


",40 Innovation Dr,Vaughan,ON,Unavailable,['289-622-1678']
"

Shoppers Drug Mart


",10 Royal Orchard Blvd,Thornhill,ON,L3T 3C3,['905-889-8171']
"

Excellent Care Pharmacy - Arnprior


",386 Daniel St S,Arnprior,ON,K7S 3G9,['613-622-0444']
"

Walmart Supercentre


",8300 Hwy 27,Woodbridge,ON,L4H 0R9,['905-851-3894']
"

The Patient Care Pharmacy


",8-8290 Hwy 27,Woodbridge,ON,L4H 0S1,['905-605-8282']
"

Shoppers Drug Mart


",9200 Dufferin St,Vaughan,ON,L4K 0C6,['289-304-8762']
"

Andy's Pharmacy


",369 St Andrew St W,Fergus,ON,N1M 1P1,['519-843-4690']
"

Crescent Town Drug Mart Ltd


",50 Parklawn Cres,Markham,ON,L3T 6W7,['905-764-9925']
"

Botros Wasef


",14 Fallingbrooke Crt,Thornhill,ON,L3T 7A2,['905-881-0251']
"

Arnprior Villa


",15 Arthur St,Arnprior,ON,K7S 1A1,['613-623-9970']
"

Lavita Pharmacy


",270 Chancellor Dr,Woodbridge,ON,L4L 7M1,['905-850-3088']
"

Shoppers Drug Mart


","2045 Simcoe Street North, RR #1",Oshawa,ON,L1H 7K4,['905-723-8067']
"

Whole Health Pharmacy Partners Inc


",85 Citizen Crt,Markham,ON,L6G 1A8,['905-415-9478']
"

Shoppers Drug Mart


",1-8000 Bathurst St,Thornhill,ON,L4J 0B8,['905-882-0201']
"

Castlemore Pharmacy


",13-2945 Sandalwood Pky E,Brampton,ON,L6R 3J6,['905-791-2550']
"

Castlemore Pharmacy


",2945 Sandalwood Pkwy E,Brampton,ON,L6R 3J6,['905-791-2506']
"

Remedy'sRx - South Unionville Medical Pharmacy


",2088-28 South Unionville Ave,Markham,ON,L3R 4P9,['905-604-3333']
"

Torrance Compounding Pharmacy


",D 8228 Birchmount Rd,Markham,ON,L3R 1A6,['905-477-9009']
"

Lovell Drugs Ltd


",2000 Simcoe St N,Oshawa,ON,L1H 7K4,['905-728-6724']
"

Shoppers Drug Mart


",55 Elgin St W,Arnprior,ON,K7S 1N6,['613-623-7971']
"

Clancy's Drug Store


",99 John St N,Arnprior,ON,K7S 2N4,['613-623-5193']
"

Clancy's Drug Store


",99 John St N,Arnprior,ON,K7S 2N4,['613-623-6294']
"

Guardian - Sandalwood Care Pharmacy


",10510 Torbram Rd,Brampton,ON,L6R 3M9,['905-791-6080']
"

Mapleview Pharmacy


",2-128 Inspire Blvd,Brampton,ON,L6R 3X8,['905-791-5900']
"

Pharmasave


",2AB-5995 14th Avenue,Markham,ON,L3S 0A2,['289-859-9901']
"

Health Solutions Plus Pharmacy Remedy'sRx


",143 Inspire Blvd,Brampton,ON,L6R 3X9,['905-789-1003']
"

Telacor


",7700 Markham Rd,Markham,ON,L3S 4S1,['905-209-0797']
"

Shoppers Drug Mart


",7700 Markham Rd,Markham,ON,L3S 3K5,['905-201-3005']
"

Jane Dal Pharmacy


",7a-7750 Kennedy Rd,Markham,ON,L3R 0A7,['905-604-9138']
"

Guardian - Valley Creek Pharmacy


",1975 Cottrelle Blvd,Brampton,ON,L6P 2Z8,['905-794-1001']
"

Guardian - Pine Grove Pharmacy


",101-8077 Islington Ave,Woodbridge,ON,L4L 7X7,['905-850-1111']
"

Guardian - Tower Street Pharmacy Guardian


",769 Tower St S,Fergus,ON,N1M 2R2,['519-843-1800']
"

Shoppers Drug Mart


",710 Tower St S,Fergus,ON,N1M 2R3,['519-843-3160']
"

Sentrex


",250 Shields Crt,Markham,ON,L3R 9W7,['905-513-8543']
"

Loblaw Pharmacy


",800 Tower St S,Fergus,ON,N1M 2R3,['519-843-5522']
"

Guardian Pharmacy


",769 Tower St S,Fergus,ON,N1M 2R2,['226-370-0300']
"

Baygreen Pharmacy


",1-8 Green Lane,Thornhill,ON,L3T 7P7,['905-889-9461']
"

2224674 On Inc


",400 Creditstone Rd,Concord,ON,L4K 3Z3,['905-532-0200']
"

Grand River Pharmacy


",727 St Andrew St W,Fergus,ON,N1M 3H2,['519-843-1100']
"

Life Line Pharmacy


",7634 Markham Rd,Markham,ON,L3S 4S1,['647-886-7010']
"

I.D.A. - B & C Pharmacy


",10970 Bramalea Rd,Brampton,ON,L6R 3X1,['289-569-0125']
"

ADV Care Pharmacy


",2-195 Riviera Dr,Markham,ON,L3R 5J6,"['905-477-5081', '1-866-862-4721']"
"

ADV Care Pharmacy


",2-195 Riviera Dr,Markham,ON,L3R 5J6,"['905-948-1991', '1-888-471-4721']"
"

Walmart Supercentre


",101 Edgeley Blvd,Vaughan,ON,L4K 4Z4,['905-761-7912']
"

Disera Pharmacy


",30 Disera Dr,Thornhill,ON,L4J 0A7,['905-882-2424']
"

Costco Wholesale


",65 Kirkham Dr,Markham,ON,L3S 0A9,['905-201-3509']
"

Fogal Pharmacy


",8920 Highway 50,Brampton,ON,L6P 3A3,['905-915-8777']
"

Walmart Supercentre


",700 Centre St,Thornhill,ON,L4J 0A7,['905-709-9294']
"

Ultra Med


",31 Steeplebush Ave,Brampton,ON,L6R 3B4,['905-488-0083']
"

Med Brands Ida Pharmacy


",53 Woodbridge Ave,Woodbridge,ON,L4L 9K9,['905-264-6996']
"

Shoppers Drug Mart


",298 John St,Thornhill,ON,L3T 6M8,"['905-886-3711', '1-800-746-7737']"
"

I.D.A. - De Jager Pharmacy


",112 Courthouse Sq,Goderich,ON,N7A 1M8,['519-524-7228']
"

Centre Street Pharmacy


",1137 Centre St,Thornhill,ON,L4J 3M6,['905-660-7878']
"

Pharma Centro


",140 Woodbridge Ave,Woodbridge,ON,L4L 4K9,['905-265-1265']
"

Henderson Pharmacy


",167 Woodbridge Ave,Woodbridge,ON,L4L 2S6,['905-851-1109']
"

Pharma 7 Care Remedy'sRx


",4550 Ebenezer Rd,Brampton,ON,L6P 2R2,['905-794-3500']
"

Healthcentre Pharmacy


",1470 Centre St,Thornhill,ON,L4J 3N1,['905-669-8420']
"

Ninth Line Discount Pharmacy


",1-6884 14Th Ave,Markham,ON,L6B 1A8,['905-201-9393']
"

Medisystem Pharmacy Limited


",30 Jack Cres,Arnprior,ON,K7S 3Y7,['613-623-8503']
"

Rexall


",67 Kingston St,Goderich,ON,N7A 3K3,['519-524-8121']
"

Rexall Pharmacy Group Ltd


",67 Kingston St,Goderich,ON,N7A 3K3,['519-524-1732']
"

Medbrands I.D.A. Pharmacy


",1-53 Woodbridge Ave,Woodbridge,ON,L4L 9K9,['905-850-0634']
"

Medbrands Ida Pharmacy


",53 Woodbridge Ave,Woodbridge,ON,L4L 9K9,['905-850-3338']
"

Main Drug Mart


",7700 Bathurst St,Thornhill,ON,L4J 7Y3,['905-695-0695']
"

Gore I.D.A Pharmacy & Adapt Home Health Care


",4515 Ebenezer Rd,Brampton,ON,L6P 0B7,['905-794-5003']
"

Bram North Pharmacy


",2 Dewside Dr,Unavailable,ON,Unavailable,['905-792-7333']
"

Kia Pharmacy


",1-302 John St,Thornhill,ON,L3T 6M8,['905-597-3411']
"

Guardian - Yonge & John Medical Pharmacy


",7670 Yonge St,Thornhill,ON,L4J 1W1,['905-597-7747']
"

Vaughan Health Clinic


",700-200 Windflower Gate,Woodbridge,ON,L4L 9L3,['905-264-0250']
"

Markham I.D.A. Pharmacy


",2-7595 Markham Rd,Markham,ON,L3S 0B6,['905-472-1786']
"

Loblaw Pharmacy


",3940 Hwy 7,Vaughan,ON,L4L 1A6,['905-851-7182']
"

Custom Care Pharmacy


",501 Coldstream Dr,Oshawa,ON,L1K 3B3,['905-240-8881']
"

McKesson Canada - Pharmacy Technology Solutions And Retail Banner Group


",131 McNabb St,Markham,ON,L3R 5V7,['289-333-0288']
"

Remedy'sRx - Casstlemore West Pharmacy


",2-9960 Airport Rd,Brampton,ON,L6S 0C5,['905-793-8585']
"

Drugsmart Pharmacy


",81 Zenway Blvd,Woodbridge,ON,L4H 0S5,['905-266-2549']
"

Loblaw Pharmacy


",55 Mountainash Rd,Brampton,ON,L6R 1W4,['905-793-8813']
"

Superhealth Pharmacy


",7-8917 The Gore Rd,Brampton,ON,L6P 2L1,['905-794-4470']
"

Shoppers Drug Mart


",4000 Hwy 7,Woodbridge,ON,L4L 1A6,['905-851-2199']
"

Shoppers Drug Mart


",49 Mountainash Rd,Brampton,ON,L6R 1W4,['905-458-5526']
"

Guardian - Clinik Pharmacy


",7990 Kennedy Rd S,Brampton,ON,L6W 0B2,['905-457-5252']
"

iHealth Centre Pharmacy


",2-6175 Hwy 7,Woodbridge,ON,L4H 0P6,['416-639-6293']
"

Shoppers Drug Mart


",49 Mountainash Rd,Brampton,ON,L6R 1W4,"['905-458-5526', '1-800-746-7737']"
"

Bishops Cross Pharmacy


",2300 John St,Thornhill,ON,L3T 6G7,['905-882-2124']
"

Rexall


",10425 Kennedy Rd,Brampton,ON,L6Z 0A4,['905-546-2828']
"

Robin Lee


",204-10425 Kennedy Rd,Brampton,ON,L6Z 0A4,['905-846-3777']
"

Panacea Pharmacy


",140-4600 Highway 7,Woodbridge,ON,L4L 4Y7,['905-856-2284']
"

Maple Life & Vita Tea


",91 Esna Park Dr,Markham,ON,L3R 2S2,['905-754-0026']
"

WellMedica Compounding Pharmacy & Walk-In Clinic


",55-7600 Weston Rd,Woodbridge,ON,L4L 8B7,['289-371-3030']
"

Shoppers Drug Mart


",1661 Denison St,Markham,ON,L3R 6E4,['905-946-8000']
"

Denison Discount Pharmacy


",7380 McCowan Rd,Markham,ON,L3S 3H8,['905-479-8999']
"

Diabetes Express Pharmacy


",9-70 Esna Park Dr,Markham,ON,L3R 6E7,"['416-603-9727', '1-866-418-3392']"
"

Achieveit Solutions Inc.


",875 Omar St,Fergus,ON,N1M 3C5,['519-787-8700']
"

Torbram Pharmacy


",1090 Peter Robertson Blvd,Brampton,ON,L6R 3B3,['905-799-8888']
"

Woodbridge Pharmacy


",205 Marycroft,Unavailable,ON,L4L 5X7,['905-856-2221']
"

Pine Valley Pharmacy


",7700 Pine Valley Dr,Woodbridge,ON,L4L 2X4,['905-851-2121']
"

Shoppers Drug Mart


",1-5694 Hwy 7,Vaughan,ON,L4L 1T8,['905-856-9964']
"

PharmaChoice


",107-10 Cottrelle Blvd,Brampton,ON,L6S 0E2,['905-497-8288']
"

Sunnyvale Medical Center & Pharmacy


",50 Sunnyvale Gate,Brampton,ON,L6S 0C4,['647-876-6337']
"

Oxlee Pharma Inc


",151 Esna Park Dr,Markham,ON,L3R 3B1,['905-475-0002']
"

Ajax Discount Pharmacy


",4-1801 Harwood Ave N,Ajax,ON,L1T 0K8,['905-686-7500']
"

Pro Pharmacy


",6-25 Woodstream Blvd,Woodbridge,ON,L4L 7Y8,['905-605-7776']
"

Costco Wholesale


",71 Colossus Dr,Woodbridge,ON,L4L 9J8,['905-264-6783']
"

Pillar5 Pharma Inc


",365 Madawaska Blvd,Arnprior,ON,K7S 0C9,['613-623-4221']
"

I.D.A. - Woodstream Pharmacy


",3-5451 Highway 7,Vaughan,ON,L4L 0B2,['905-264-8247']
"

People’s Choice Remedy'sRx Pharmacy


",2860 Denison St,Markham,ON,L3S 4T6,['905-554-0438']
"

Shoppers Drug Mart


",1971 Salem Rd N,Ajax,ON,L1T 0J9,['905-424-7323']
"

Bayview I.D.A. Pharmacy


","7355 Bayview Ave,Unit 4A-4B",Thornhill,ON,L3T 5Z2,['905-707-9393']
"

CSs Pharma Inc


",126 Trowers Rd,Woodbridge,ON,L4L 5Z4,['905-851-6177']
"

Loblaw Pharmacy


",200 Taunton Rd W,Whitby,ON,L1R 3H8,['905-665-1164']
"

Walmart Supercentre


",4100 Baldwin St S,Whitby,ON,L1R 3H8,['905-576-7270']
"

Walmart Supercentre


",4100 Baldwin St S,Whitby,ON,L1R 3H8,['905-655-4177']
"

2529330 Ontario Coproration


",5731 Highway 7,Woodbridge,ON,L4L 4Y9,['905-264-8040']
"

Metro Pharmacy


",4111 Thickson Rd N,Whitby,ON,L1R 2X3,['905-655-1553']
"

Bramalea Medical Pharmacy Limited


",10209 Bramalea Rd,Brampton,ON,L6R 0C4,['905-791-9989']
"

Dental Square


",1-8920E Highway 50,Brampton,ON,L6P 3A3,['905-915-8388']
"

Guelph Medical Pharmacy


",8730 The Gore Rd,Brampton,ON,L6P 0B1,['905-794-6325']
"

Gore Queen Pharmacy


",8730 The Gore Rd,Brampton,ON,L6P 0B1,['905-794-1833']
"

DRUGStore Pharmacy


",7075 Markham Rd,Markham,ON,L3S 3J9,['905-472-4679']
"

Shoppers Drug Mart


","441 Clark Ave W,Unit 17A",Thornhill,ON,L4J 6W8,"['905-764-3606', '1-800-746-7737']"
"

Shoppers Drug Mart


",220 Taunton Road E,Whitby,ON,L1R 0M5,['905-665-6115']
"

Shoppers Drug Mart


",4081 Thickson Rd N,Whitby,ON,L1R 2X3,['905-655-1352']
"

I.D.A. - Whitby Medical Pharmacy


",3910 Brock St N,Whitby,ON,L1R 3E1,['905-444-9171']
"

Remedy'sRx - Dryden Medical Pharmacy


",3975 Garden St,Whitby,ON,L1R 3A4,['905-430-7344']
"

Dufferin Clark Pharmacy


",21-1450 Clark Ave W,Thornhill,ON,L4J 7R5,['905-660-6785']
"

Balochi


",1450 Clark Ave W,Thornhill,ON,L4J 7R5,['905-660-0050']
"

Team Drugs


",7330 Yonge St,Thornhill,ON,L4J 7Y7,['905-771-6907']
"

Biorex Direct


",2023 Williams Pkwy,Unavailable,ON,L6S 5N1,['905-458-7666']
"

Brampton Hospital I.D.A. Pharmacy


","10095 Bramalea Rd,Unit 103",Brampton,ON,L6R 0K1,['905-792-9998']
"

Paul Brooks


",62 Morgan Ave,Thornhill,ON,L3T 1R2,['905-731-4796']
"

I.D.A. - Team Drugs


",114-7330 Yonge St,Thornhill,ON,L4J 1V8,['905-771-8786']
"

Walmart Supercentre


",1471 Harmony Rd,Oshawa,ON,L1H 7K5,['905-404-9975']
"

North Oshawa Pharmacy


",1400 Ritson Rd N,Oshawa,ON,L1G 7W4,['905-725-5555']
"

Shoppers Drug Mart


",89 Geddes St,Elora,ON,N0B 1S0,"['519-846-5379', '519-846-8990']"
"

Shoppers Drug Mart


",10665 Bramalea Rd,Brampton,ON,L6R 3P4,['905-793-2011']
"

Pharmasave


",101-2250 Bovaird Dr E,Brampton,ON,L6R 0W3,['905-595-4968']
"

Pharma Depot


",10209 Bramalea Rd,Brampton,ON,L6R 0C4,['905-790-9800']
"

Sobeys Pharmacy


",1377 Wilson Rd N,Oshawa,ON,L1K 2Z5,['905-440-4690']
"

Walmart


",35400 Huron Rd,Goderich,ON,N7A 3X8,['519-524-7839']
"

Pharma Depot


",10209 Bramalea Rd,Brampton,ON,L6R 0C4,['905-792-1600']
"

Taunton Pharmacy


",6-30 Taunton Rd E,Oshawa,ON,L1G 3T7,['905-240-4004']
"

Shoppers Drug Mart


",1-300 Taunton Rd E,Oshawa,ON,L1G 7T4,"['905-579-1900', '1-800-746-7737']"
"

Pharmasystems


",151 Telson Rd,Markham,ON,L3R 1E7,['905-475-2500']
"

Chabad Gate Pharmacy


",7241 Bathurst St,Thornhill,ON,L4J 3W1,['905-707-1222']
"

Ritson Pharmacy


",250 TauntonE,Oshawa,ON,L1H 8L7,['905-429-2333']
"

Hy & Zel's


",250 Taunton Rd E,Oshawa,ON,L1G 7T1,['905-434-5155']
"

Shoppers Drug Mart


",784 Taunton Rd E,Oshawa,ON,L1K 1B7,"['905-435-0305', '1-800-746-7737']"
"

Canada Chemists


",7155 Woodbine Ave,Markham,ON,L3R 1A3,['416-628-4008']
"

Loblaw Pharmacy


",1385 Harmony Rd N,Oshawa,ON,L1H 7K5,['905-433-9503']
"

World Pharmacy


",7163 Yonge St,Thornhill,ON,L3T 2A9,['905-597-5150']
"

Pharmacy 1


",7171 Yonge St,Markham,ON,L3T 2A9,['905-731-2234']
"

Pharmacy 1 Wholesaler


",7171 Yonge St,Markham,ON,L3T 2A9,['905-707-6270']
"

Chi Heal Pharmacy


",351 Ferrier St,Markham,ON,L3R 5Z2,['905-947-9969']
"

The Pet Pharmicst


",80 Glen Shields Ave,Concord,ON,L4K 1T7,['905-669-0763']
"

Bramalea Bestcare Pharmacy


",900 Peter Robertson Blvd,Brampton,ON,L6R 1A2,['905-790-2500']
"

Shoppers Drug Mart


",C2-7060 Warden Ave,Markham,ON,L3R 5Y2,['905-474-1414']
"

Bramdale Pharmacy


",945 Peter Robertson Blvd,Brampton,ON,L6R 2R6,['905-789-1272']
"

The Medicine Shoppe


",1288 Ritson Rd N,Oshawa,ON,L1G 7Z9,['905-721-1831']
"

Glen Shields Cleaners


",80 Glen Shields Ave,Concord,ON,L4K 1T7,['905-669-2654']
"

Vantage Medical Center and Pharmacy


",110-9886 Torbram Rd,Brampton,ON,L6S 3L9,['905-789-7799']
"

Pharmore Pharmacy


",7 Eastvale Dr,Markham,ON,L3S 4N8,['905-294-1100']
"

I.D.A. - Shadlock Pharmacy


","8 Shadlock St,Unit 3",Markham,ON,L3S 3K9,['905-472-4747']
"

Guardian - Bramdale Pharmacy


",945 Peter Robertson Blvd,Brampton,ON,L6R 2R6,['905-790-9393']
"

Middlefield Medical Centre


",8 Shadlock St,Markham,ON,L3S 3K9,['905-471-8980']
"

Hong Feng Ginseng


",398 Ferrier St,Markham,ON,L3R 2Z5,['647-836-0988']
"

Meadowglen Pharmacy And Medical Centre


",9-10 Meadowglen Drive,Whitby,ON,L1R 2H1,['905-665-3921']
"

M Meagowg Pharmacy And Medical Center


",10 Meadowglen Dr,Whitby,ON,L1R 3P8,['905-668-5514']
"

Guardian - Hillcroft Pharmacy


","5 Hillcroft Dr,Unit 7",Markham,ON,L3S 1R7,['905-479-6161']
"

Evergreen Drug Mart Ltd


",2002 Middlefield Rd,Markham,ON,L3S 1Y5,['905-471-0033']
"

I.D.A. - Mayfield Pharmacare


",3068 Mayfield Rd,Brampton,ON,L6Z 0E3,['905-495-3306']
"

Pharmasave


",2130 North Park Dr,Brampton,ON,L6S 0C9,['905-799-0505']
"

Markham Discount Pharmacy


",123-6055 Steeles Ave E,Scarborough,ON,M1X 0A7,['416-297-4999']
"

Walmart Supercentre


",5995 Steeles Ave E,Scarborough,ON,M1V 5P6,['416-298-2578']
"

Shoppers Drug Mart


",5671 Steeles Ave E,Scarborough,ON,M1V 5P6,"['416-292-2024', '1-800-746-7737']"
"

Fenton Discount Pharmacy


",2 Fenton Rd,Markham,ON,L3R 7B4,['905-948-9110']
"

St Rafael Drugs Ltd


",7131 Bathurst St,Thornhill,ON,L4J 7Z1,['905-886-0000']
"

Guardian - SKL Drugs Ltd.


","4080 Steeles Ave E,Unit 10",Markham,ON,L3R 4C3,['905-305-7667']
"

Shoppers Drug Mart


",95 Williamson Dr W,Ajax,ON,L1T 0K9,['905-428-3572']
"

Shoppers Drug Mart


",2900 Steeles Ave E,Thornhill,ON,L3T 4X1,"['905-881-5660', '1-800-746-7737']"
"

Pacific Medical Pharmacy


",4300 Steeles Ave E,Markham,ON,L3R 0Y5,['905-940-5368']
"

I.D.A. - Warden Pharmacy


",119-30 Gibson Dr,Markham,ON,L3R 2S3,['905-604-7188']
"

IHealth Pharmacy


",4631 Steeles Ave E,Scarborough,ON,M1V 4S5,['416-297-8045']
"

Medicare Pharmacy


",109-3341 Markham Rd,Scarborough,ON,M1X 0A5,['416-754-9992']
"

Axis Pharmacy Inc


",7030 Woodbine Ave,Markham,ON,L3R 6G2,['905-943-4975']
"

Shoppers Drug Mart


",11965 Hurontario St,Brampton,ON,L6Z 4P7,['905-495-0311']
"

Jandm Health Essentials


",3636 Steeles Ave E,Markham,ON,L3R 1K9,['905-947-1984']
"

3M Drug Mart


",7117 Bathurst St,Thornhill,ON,L4J 2J6,['905-882-4774']
"

Harmony Valley Pharmacy


",105A-705 Grandview St N,Oshawa,ON,L1K 0V4,['905-240-7070']
"

Price Chopper


",1150 Simcoe St N,Oshawa,ON,L1G 4W7,['905-576-9562']
"

Good Morning Pharmacy


",7040 Yonge St,Thornhill,ON,L4J 1V7,['905-889-0009']
"

Medisystems Technologies


",1925 Steeles Ave E,North York,ON,M2H 2H3,['416-491-0167']
"

DRUGStore Pharmacy


",681 Silver Star Blvd,Scarborough,ON,M1V 5N1,['416-292-3656']
"

Sunmed Pharmacy


",10-300 Steeles Ave W,Thornhill,ON,L4J 1A1,['905-771-0188']
"

Ph Balance


",200 Viceroy Rd,Concord,ON,L4K 3N8,['905-761-5558']
"

Rexall


",2100 Bovaird Dr,Brampton,ON,L6R 3J7,['905-790-6308']
"

Dryden Medical Pharmacy


",3455 Garrard Rd,Whitby,ON,L1R 2N2,['905-433-1411']
"

The Medicine Shoppe Pharmacy


","3555 Thickson Rd N,6",Whitby,ON,L1R 2H1,['905-721-8676']
"

Rivera Pharmacy


",100 Steeles Ave W,Thornhill,ON,L4J 7Y1,['905-763-9687']
"

Steeles Pharmacy


",180 Steeles Ave W,Thornhill,ON,L4J 2L1,['905-763-1400']
"

Rx1


",248 Steeles Ave W,Vaughan,ON,Unavailable,['905-597-7910']
"

Neighbour's Drug Mart


",330 Steeles Ave W,Vaughan,ON,L4J 6W9,['905-764-9373']
"

Main Drug Mart


",390 Steeles Ave W,Thornhill,ON,L4J 6X2,['905-707-6959']
"

Guardian - Springdale Pharmacy


",630 Peter Robertson Blvd,Brampton,ON,L6R 1T4,['905-790-6800']
"

The Medecine Shop


",3555 Thickson Rd N,Whitby,ON,L1R 2H1,['905-240-3550']
"

Yes Windows


",800 Steeles Ave W,Thornhill,ON,L4J 7L2,['1-888-271-9886']
"

Guardian - Main Exchange Pharmacy


",800 Steeles Ave W,Thornhill,ON,L4J 7L2,['905-761-3345']
"

FreshCo Pharmacy


",800 Steeles Ave W,Thornhill,ON,L4J 7L2,['905-669-2614']
"

David Chaoulov


",11-800 Steeles Ave W,Thornhill,ON,L4J 7L2,['289-597-1306']
"

Brinkley Pharmacy


",11670 Hurontario,Brampton,ON,L7A 1R2,['905-495-0868']
"

Guardian - Brinkley Pharmacy


",11670 Hurontario,Brampton,ON,L7A 1R2,['905-495-5050']
"

Brinkley Medical Centre


",11670 Hurontario St,Brampton,ON,L7A 1R2,['905-495-9100']
"

101 Medical Pharmacy


",1520 Steeles Ave W,Concord,ON,L4K 3B9,['905-597-4433']
"

Shoppers Drug Mart


",1881 Steeles Ave W,Toronto,ON,M3H 5Y4,['416-665-2631']
"

I.D.A. - Concourse Pharmacy


",1065 Steeles Ave W,North York,ON,M2R 2S9,['416-650-0300']
"

Price Chopper


",6201 Bathurst St,North York,ON,M2R 2A5,['416-223-8585']
"

Cliffwood I.D.A. Pharmacy


",3885 Don Mills Rd,Willowdale,ON,M2H 2S7,['416-494-3770']
"

A & W Pharmacy


",250 Alton Towers Cir,Toronto,ON,M1V 3Z4,['416-297-7711']
"

Shoppers Drug Mart


",6205 Bathurst St,North York,ON,M2R 2A5,['416-222-5464']
"

York Specialised Pharmacy Services


",2899 Steeles Ave W,North York,ON,M3J 3A1,['416-736-9090']
"

Pci Health Trade


",3901 Don Mills Rd,North York,ON,M2H 2S7,['416-855-9644']
"

Simcoe North Pharmacy


",1053 Oshawa Blvd N,Oshawa,ON,L1G 5V7,['905-720-1800']
"

A & W Pharmacy


",325 Bamburgh Cir,Scarborough,ON,M1W 3Y1,['416-492-5507']
"

Loblaw Pharmacy


",6220 Yonge St,North York,ON,M2M 3X4,['416-224-8626']
"

I.D.A. - McIntyre Pharmacy


",238 Main St,Parkhill,ON,N0M 2K0,['519-294-6314']
"

Loblaw Pharmacy


",51 Gerry Fitzgerald Dr,Toronto,ON,M3J 3N4,['416-665-7636']
"

Steeles Medical Pharmacy


",3200 Steeles Ave W,Concord,ON,L4K 3B8,['289-597-6606']
"

Huntsmill Park Pharmacy


","25A Glendinning Ave, Main",Scarborough,ON,M1W 3E2,['416-901-4334']
"

I.D.A. - BRMC Pharmacy


",2-3333 Brimley Rd,Scarborough,ON,M1V 2J7,['416-321-9111']
"

IDA Drug Store


",3885 Don Mills Rd,North York,ON,M2H 2S7,['416-494-3770']
"

May-Van Pharmacy


",537 VanKirkDr,Brampton,ON,L7A 0P4,['905-495-7550']
"

Guardian - Johnston Pharmacy


",57 St Lawrence St E,Madoc,ON,K0K 2K0,['613-473-4112']
"

Shoppers Drug Mart


",10088 Mclaughlin Rd,Brampton,ON,L7A 2X6,['905-846-4444']
"

Dr Mahabir


",215 Delta Park Blvd,Brampton,ON,L6T 0H9,['905-494-0111']
"

North Bramalea Pharmacy


",9780 Bramalea Rd,Brampton,ON,L6S 2P1,['905-791-2453']
"

Avita Integrative Clinic


",300-5A Conestoga Dr,Brampton,ON,L6Z 4N5,['905-455-0488']
"

Heart Lake Pharmacy


",230 Sandalwood Pky E,Brampton,ON,L6Z 1R3,['905-846-3737']
"

Philips Pharmacy


",3050 Garden St,Whitby,ON,L1R 2G7,['905-668-0333']
"

I.D.A. - Ajax Community Pharmacy


",15-1 Rossland Rd W,Ajax,ON,L1Z 1Z2,['905-426-1300']
"

Shoppers Drug Mart


",1-3100 Garden St,Whitby,ON,L1R 2G8,['905-430-6967']
"

Apotex Inc


",285 Garyray Dr,North York,ON,M9L 1P2,['905-884-7412']
"

Main Drug Mart


",5987 Bathurst St,North York,ON,M2R 1Z3,['416-218-0569']
"

Bathurst Drug Mart


",5987 Bathurst St,North York,ON,M2R 1Z3,['416-221-2121']
"

Dom's Pharmacy


",3630 Victoria Park Ave,North York,ON,M2H 3B2,['416-490-0123']
"

I.D.A. - Brampton Lifecare Pharmacy


",34/35-2740 North Park Dr,Brampton,ON,L6S 0E9,['905-458-4490']
"

A & W Pharmacy


",385 Silver Star Blvd,Scarborough,ON,M1V 0E3,['416-291-3988']
"

Euclid Admixture Canada


",595 Canarctic Dr,North York,ON,M3J 2P9,['416-747-9970']
"

Shoppers Drug Mart


",180 Sandalwood Pky E,Brampton,ON,L6Z 1Y4,"['905-846-4700', '1-800-746-7737']"
"

Shoppers Drug Mart


",930 North Park Dr,Brampton,ON,L6S 3Y5,['905-792-3800']
"

Ajax Pharma Choice


",101-901 Harwood Ave N,Ajax,ON,L1Z 0T4,['905-428-0000']
"

Ajax Pharma Choice


",101-901 Harwood Ave N,Ajax,ON,L1Z 0T4,['905-429-8000']
"

Shoppers Drug Mart


",5998 Bathurst St,North York,ON,M2R 1Z1,['416-661-6863']
"

CFMC Guardian Pharmacy


",300 Silver Star Blvd Unit R102,Scarborough,ON,M1V 0G2,['416-335-8858']
"

Main Street Medical Pharmacy


",78-10886 Hurontario St,Brampton,ON,L7A 3R9,['905-970-9922']
"

Metro Pharmacy


",20 Great Lakes Dr,Brampton,ON,L6R 2K7,['905-789-6464']
"

I.D.A. - MMMC Pharmacy


",12-3610 Mcnicoll Ave,Scarborough,ON,M1X 0B7,['416-754-8808']
"

MapleLife Nutrition and Formula


",3681 McNicoll Ave,Toronto,ON,M1X 1C3,['905-754-0026']
"

Shoppers Drug Mart


",25 Great Lakes Dr,Brampton,ON,L6R 2S5,['905-799-0414']
"

Pharmaid Drugs Inc


","Pharm, 6023 Yonge St",North York,ON,M2M 3W2,['416-916-4255']
"

Cims Pharmacy


",4700 Keele St,North York,ON,M3J 1P3,['416-736-5272']
"

Xphase Pharmaceuticals


",215-4700 Keele St,Toronto,ON,M3J 1P3,['416-238-4463']
"

Drug Mart Canda Inc


",1022-6021 Yonge St,North York,ON,M2M 3W2,['1-888-498-7007']
"

Pharmaid Drugs Inc


",6023 Yonge St,North York,ON,M2M 3W2,['647-342-3682']
"

Care4You Pharmacy


",1200 Rossland Rd E,Whitby,ON,L1N 8H3,['905-493-4444']
"

Sandalwood Pharmacy


",170 Sandalwood Pky E,Brampton,ON,L6Z 1Y5,['905-495-5855']
"

Whitby Community Pharmacy


",701 Rossland Rd E,Whitby,ON,L1N 8Y9,['905-668-4442']
"

Rexall Pharmacy Group


",4702 Jane St,Downsview,ON,M3N 2L3,['416-661-3973']
"

9-Eleven Drug Mart


",6018 Yonge St,North York,ON,M2M 3V9,['416-221-6444']
"

Dr. Nutrition


",980 Tapscott Rd,Scarborough,ON,M1X 1C3,['1-866-679-4640']
"

Nutralab Canada Ltd


",980 Tapscott Rd,Toronto,ON,M1X 1C3,"['905-752-1823', '1-866-446-6766']"
"

Shoppers Drug Mart


",25 Great Lakes Dr,Brampton,ON,L6R 2S5,['905-793-4844']
"

North Side Pharmacy


",202-4700 Jane St,North York,ON,M3N 2L3,['416-739-9993']
"

A & J Pharmacy


",2020 McNicoll Ave,Toronto,ON,M1V 0B5,['416-292-9898']
"

Shoppers Drug Mart


",5899 Leslie St,Toronto,ON,M2H 1J8,['416-493-6677']
"

Clinicare Discount Pharmacy


",2855 Markham Rd,Scarborough,ON,M1X 0C3,['416-293-3436']
"

Trust Care Pharmacy


",25 Signal Hill Ave,Etobicoke,ON,M9W 6V8,['416-679-9099']
"

Sun Pharmacy


",12-3833 Midland Ave,Scarborough,ON,M1V 5L6,['647-351-8828']
"

I.D.A. - Evergold Pharmacy


","3833 Midland Ave,Unit 33",Scarborough,ON,M1V 5L6,['416-332-1888']
"

Total Care Drugmart


",3300 McNicoll Ave,Scarborough,ON,M1V 5J6,['416-291-7600']
"

Valvoline Express Auto Care Scarborough


",2845 Markham Rd,Scarborough,ON,M1X 0C4,['416-293-4141']
"

Shih Pharmacy


",2700 Kipling Ave,Etobicoke,ON,M9V 4P2,['416-740-1623']
"

Health Check Pharmacy


",2826A Markham Rd,Scarborough,ON,M1X 1E6,['416-298-8165']
"

Jane Shoreham Pharmacy


",4640 Jane St,North York,ON,M3N 2K5,['416-661-6565']
"

Walmart Supercentre


",30 Coventry Rd,Brampton,ON,L6T 5P9,['905-793-9248']
"

Yonge Cummer Medical Clinic


",5925 Yonge St,North York,ON,M2M 3V7,['647-547-8184']
"

I.D.A. - Gateway Medical Plex Pharmacy


","25 Gateway Blvd,Unit 3-4",Brampton,ON,L6T 0H8,['905-799-0032']
"

Med Central Pharmacy


",20 Drewry Ave,North York,ON,M2M 1C8,['416-222-8884']
"

Lovell Drugs Ltd


",500 Rossland Rd W,Oshawa,ON,L1J 3H2,['905-728-4668']
"

Thornton Corners Pharmasave


",3-575 Thornton Rd N,Oshawa,ON,L1J 8L5,['905-240-4646']
"

Health Solutions Pharmacy


",5927 Bathurst St,North York,ON,M2R 3T5,['416-221-2444']
"

Guardian - Ajax Guardian Pharmacy


",6-603 Church St N,Ajax,ON,L1T 0B8,['905-239-0661']
"

Humber Summit Pharmacy


",10-2972 Islington Ave,North York,ON,M9L 2K6,['416-743-0004']
"

I.D.A. - North Park Pharmacy


",4-860 North Park Dr,Brampton,ON,L6S 4N5,['905-450-9334']
"

I.D.A. - Main Drug Mart


",3265 Bayview Ave,North York,ON,M2K 1G4,['416-222-5484']
"

Shoppers Drug Mart


",980 Central Park Dr,Brampton,ON,L6S 3L7,"['905-791-1797', '1-800-746-7737']"
"

Shoppers Drug Mart


",980 Central Park Dr,Brampton,ON,L6S 3L7,['905-454-1620']
"

Shoppers Drug Mart


",545 Rossland Rd E,Oshawa,ON,L1K 1K8,"['905-579-5557', '1-800-746-7737']"
"

I.D.A. Brampton Medical Plex Pharmacy


",9A-27 Ruth Ave,Brampton,ON,L6Z 4R2,['905-840-7600']
"

Silverstone Pharmacy


",2200 Martin Grove Rd,Toronto,ON,M9V 5H9,['416-740-0040']
"

Rexall Drug Store


",2930 Islington Ave,Toronto,ON,M9L 2K5,['416-742-7311']
"

I.D.A. - St. Joseph Pharmacy


",2930 Islington Ave,North York,ON,M9L 2K5,['416-742-7311']
"

Brampton Medical


",27 Ruth Ave,Brampton,ON,L6Z 4R2,['905-840-0434']
"

Pendal Pharmacy


",831 Bovaird Dr W,Brampton,ON,L6X 0T9,['905-789-6500']
"

Health & Beauty Pharmacy


",3380 Midland Av,Scarborough,ON,M1V 5B5,['416-299-8080']
"

Westney Guardian Drug


",475 Westney Rd N,Ajax,ON,L1T 3H4,['905-428-2963']
"

Life Trust Pharmacy Ltd


",125 Norfinch Dr,North York,ON,M3N 1W8,['416-661-5433']
"

Rexall


","475 Westney Rd N, Unit 17",Ajax,ON,L1T 3H4,['905-428-3777']
"

Superseven Pharmacy


",16-2200 Brock Rd,Pickering,ON,L1X 2R2,['905-427-7577']
"

CCS Pharmaceticals


",800 Tapscott Rd,Scarborough,ON,M1X 1A4,['416-291-2775']
"

Brimley Pharmacy


",127 Montezuma Trail,Scarborough,ON,M1V 1K4,['416-292-3151']
"

Brimley Pharmacy


",127 Montezuma Trail,Scarborough,ON,M1V 1K4,['416-292-7136']
"

Grace Pharmacy


",2630 Kipling Ave,Etobicoke,ON,M9V 4B9,['416-741-5055']
"

Leslie Pharmacy


","C, 149 Ravel Rd",North York,ON,M2H 1T1,['416-491-8833']
"

Little Remedy Centre


",20 Mango Dr,North York,ON,M2K 2G1,['416-733-8285']
"

Kipling Medical Pharmarcy


",2687 Kipling Ave,Etobicoke,ON,M9V 5G6,['416-744-8825']
"

Huron Pharmacy


",3300 Midland Ave,Toronto,ON,M1V 4W7,['416-291-5655']
"

I.D.A. - North York Pharmacy


",5631 Yonge St,North York,ON,M2M 3S9,['416-512-1833']
"

Guardian Storybrook Pharmacy


",611 Wanless Dr,Brampton,ON,L7A 3Y6,['905-840-9994']
"

Pharmasave


",728 Anderson St,Whitby,ON,L1N 3V6,['905-666-9334']
"

Pharmasave


",728 Anderson St,Whitby,ON,L1N 3V6,['905-666-9922']
"

Rexall


",17-5650 Yonge St,North York,ON,M2M 4G3,['416-733-2662']
"

Finch Medical Pharmacy


",78 Finch Ave E,North York,ON,M2N 7J5,['416-222-2003']
"

Pxon Pharma


",77 Finch Ave E,North York,ON,M2N 6H8,['416-551-8162']
"

Tim's Pharmacy


",80 Finch Ave W,North York,ON,M2N 2H4,['416-221-3220']
"

Tim's Pharmacy


",100-80 Finch Ave W,North York,ON,M2N 2H4,['416-222-0909']
"

Pharma D Drugs


",45 Four Winds Dr,North York,ON,M3J 1K7,['416-663-3666']
"

Price Chopper


",228-2900 Warden Ave,Scarborough,ON,M1W 2S8,['419-497-2871']
"

Sina Pharmacy No2 Inc


",107-222 Finch Ave W,North York,ON,M2R 1M6,['416-224-0003']
"

Finch Sun Pharmacy Supplier


",77 Finch Ave W,North York,ON,M2N 2H5,['416-230-0299']
"

Bestgate Pharmacy


",120-40 Finchgate Blvd,Brampton,ON,L6T 3J1,['905-458-0030']
"

Shoppers Drug Mart


",206-1571 Sandhurst Cir,Scarborough,ON,M1V 1V2,"['416-292-6602', '1-800-746-7737']"
"

Food & Drug Basics


",1571 Sandhurst Cir,Toronto,ON,M1V 1V2,['416-609-2300']
"

Nutrimmune Technologies


",20 Brucedale Cres,North York,ON,M2K 2C7,['416-730-1010']
"

Shoppers Drug Mart


",5576 Yonge St,North York,ON,M2N 5S2,"['416-225-2321', '1-800-746-7737']"
"

Shoppers Drug Mart


",2900 Warden Ave,Scarborough,ON,M1W 2S8,['416-497-7473']
"

Remedy'sRx - BH Pharmacy


",1300 Finch Ave W,North York,ON,M3J 3K2,['416-633-2268']
"

Dufferin Finch Pharmacy


",2 Champagne Dr,North York,ON,M3J 2C5,['416-665-6669']
"

Dufferin Finch Pharmacy


",2 Champagne Dr,North York,ON,M3J 2C5,['416-661-6660']
"

Haviland Drugs Ltd


",1111 Finch W,Toronto,ON,M2N 2H8,['416-636-3530']
"

Sultan Pharmacy


",8-1118 Finch Ave W,North York,ON,M3J 3J4,['416-551-3155']
"

Morningside Finch Pharmacy


",2130 Morningside,Scarborough,ON,M1B 3J1,['416-412-0005']
"

I.D.A. - Nor-Arm Pharmacy


",1280 Finch Ave W,North York,ON,M3J 3K6,['416-667-8430']
"

I.D.A. - Yorkgate Drug Mart


",1 York Gate Blvd,Downsview,ON,M3N 3A1,['416-650-9000']
"

Remedy'sRx - Arogya Pharmacy


",102-5200 Finch Ave E,Toronto,ON,M1S 4Z4,['416-840-0007']
"

Main Drug Mart


",1325 Finch Ave W,North York,ON,M3J 2G5,['416-636-2781']
"

Finch Midland Pharmacy


",4190 Finch Ave E,Scarborough,ON,M1S 4T7,['416-297-8008']
"

Remedy'sRx - Deen Pharmacy


",3852 Finch Ave E,Scarborough,ON,M1T 3T9,['416-259-5500']
"

St Mary Pharmacy Inc


","3850 Finch Ave E, Main",Scarborough,ON,M1T 3T6,['416-298-3784']
"

First Professional


",4168 Finch Ave E,Scarborough,ON,M1S 5H6,['416-298-7190']
"

Value Plus Pharmacy


",5215 Finch E,Toronto,ON,Unavailable,['416-754-4442']
"

Rexall


",4040 Finch Ave E,Scarborough,ON,M1S 4V5,['416-298-4272']
"

Remedy'sRx - Royal Crest Pharmacy


",3065 Pharmacy Ave,Scarborough,ON,M1W 2H1,['416-492-5304']
"

Legacy Pharmacy


",5633 Finch Ave E,Scarborough,ON,M1B 5K9,['416-299-0399']
"

Total Health Pharmacy


",5460 Yonge St,North York,ON,M2N 6K7,['416-250-5460']
"

Can Pharm Services Inc


",3932A Keele St,North York,ON,M3J 1N8,['416-398-6555']
"

Can Pharm Services Inc


",3932A Keele St,North York,ON,M3J 1N8,['416-398-8200']
"

Guardian - Village Square Pharmacy


",2942 Finch Ave E,Scarborough,ON,M1W 2T4,['416-492-4167']
"

International Journal of Pharmacy and Integrated Life Sciences


",1012-18 Panorama Crt,Etobicoke,ON,M9V 3Z8,['647-712-7785']
"

Finch Discount Pharmacy


",3852 Finch Ave E,Scarborough,ON,M1T 3T9,['416-609-2121']
"

Rite Pharmacy


",550 Finch Ave,Pickering,ON,L1V 0B2,['905-420-2929']
"

Finch-Warden Pharmacy


",3430 Finch Ave E,Scarborough,ON,M1W 2R5,['416-494-4424']
"

Trillium Pharmacy


",3443 Finch Ave E,Scarborough,ON,M1W 2S1,['416-492-3704']
"

St Basil Drugs Ltd


",3420 Finch Ave E,Scarborough,ON,M1W 2R6,['416-494-1486']
"

Main Drug Mart


",3245 Finch Ave E,Scarborough,ON,M1W 4C1,['416-502-0101']
"

Diadem Drugs Ltd


",1995 Finch Ave W,North York,ON,M3N 2V3,['416-748-6282']
"

Yonge Finch Pharmacy Ltd


",4-5440 Yonge St,North York,ON,M2N 5R8,['416-224-4666']
"

Yonge Finch Pharmacy


",4-5440 Yonge St,North York,ON,M2N 5R8,['416-229-4666']
"

Total Health Pharmacy


",2100 Finch Ave W,North York,ON,M3N 2Z9,['416-739-7800']
"

Oakdale Pharmacy


",2065 Finch Ave W,North York,ON,M3N 2V7,['416-745-3022']
"

Total Health Pharmacy


",2115 Finch Ave W,North York,ON,M3N 2V6,['416-746-2044']
"

Bramqueen Pharmacy


",490 Bramalea Rd,Brampton,ON,L6T 0G1,['905-790-6179']
"

Bramqueen Pharmacy


",3-490 Bramalea Rd,Brampton,ON,L6T 0G1,['905-451-3644']
"

Nanak Pharmacy


",10725 McLaughlin Rd,Brampton,ON,L7A 3E5,['905-216-3792']
"

Pharmasave


",1-490 Bramalea Rd,Brampton,ON,L6T 0G1,['905-451-3644']
"

Shoppers Simply Pharmacy


",26-380 Bovaird Dr E,Brampton,ON,L6Z 2S8,['905-495-0011']
"

Shoppers Drug Mart


",15 Westney Rd N,Ajax,ON,L1T 1P4,"['905-426-3355', '1-800-746-7737']"
"

Guardian - Mountainview Pharmacy


",11-378 Mountain View Rd S,Georgetown,ON,L7G 0L5,['905-877-0700']
"

Weston Discount Drugs Pharmacy


",2397 Finch Ave W,North York,ON,M9M 2X1,['416-749-2134']
"

Finch West Medical Centre


",2367 Finch Ave W,North York,ON,M9M 2W8,['416-900-6696']
"

Pharmore Pharmacy


",2543 Pharmacy Ave,Scarborough,ON,M1W 2K2,['416-495-9900']
"

Shoppers Drug Mart


",3975 Jane St,North York,ON,M3N 2K1,['416-630-2553']
"

Guangji Pharmaceutical Co Ltd


",29 Kenfin Ave,Scarborough,ON,M1S 4E8,['416-412-3308']
"

I.D.A. - Health Square Pharmacy


",2-15 Westney Rd N,Ajax,ON,L1T 4E4,['905-427-1455']
"

Pickering Village Pharmacy


",59 Old Kingston Rd,Ajax,ON,L1T 3A5,['905-683-9271']
"

Guardian - Rx Drug Mart Campbellford


",16 Grand Rd,Campbellford,ON,K0L 1L0,['705-653-4006']
"

Northtown Way Pharmacy


",10 Northtown Way,Toronto,ON,M2N 7L4,['416-226-4141']
"

Loblaw Pharmacy


",30 Kingston Rd W,Ajax,ON,L1T 4K8,['905-683-5573']
"

Rexall


",16 Grand Rd,Trent Hills,ON,Unavailable,['705-653-1881']
"

I.D.A. - Glendower Pharmacy


",331 Glendower Circt,Scarborough,ON,M1T 2Z7,['416-609-2020']
"

Main Drug Mart


",2367 Finch Ave W,North York,ON,M9M 2W8,['705-747-1512']
"

Etobicoke Centre Pharmacy


",40 Westmore Dr,Etobicoke,ON,M9V 4C2,['416-745-3030']
"

Pharma Plus


",380 Bovaird Dr E,Brampton,ON,L6Z 2S7,['905-840-6507']
"

Van Kirk Pharmacy


",205 Van Kirk Dr,Brampton,ON,L7A 3V4,['905-495-9911']
"

Shoppers Drug Mart


",2550 Finch Ave W,North York,ON,M9M 2G3,"['416-749-5271', '1-800-746-7737']"
"

Pharmacy Plaza


",2525 Pharmacy Ave,Scarborough,ON,M1W 2K2,['416-497-1124']
"

Rexall


",1900 Dixie Rd,Pickering,ON,L1V 6M4,['905-420-9305']
"

Sobeys Pharmacy


",260 Kingston Rd W,Ajax,ON,L1T 4E4,['905-426-7288']
"

Jerry's The Drug Warehouse


",311 Brock St N,Whitby,ON,L1N 4H8,['905-666-3784']
"

Albion Martin Grove Pharmacy


",1625 Albion Rd,Etobicoke,ON,M9V 5H8,['416-749-9119']
"

Albion Finch Medical Care Centre


",6100 Finch Ave W,Etobicoke,ON,M9V 0A1,['416-743-2102']
"

Albion Finch Pharmacy


",6100 Finch Ave W,Etobicoke,ON,M9V 0A1,['416-743-2100']
"

Total Health Pharmacy


",247 Simcoe St N,Oshawa,ON,L1G 4T3,['905-576-1400']
"

Oshawa Health Center Pharmacy


",247 Simcoe St N,Oshawa,ON,L1G 4T3,['905-576-4400']
"

Trent Hills Pharmacy


",119 Isabella St,Campbellford,ON,K0L 1L0,['705-653-0404']
"

Hakim Drug Mart Inc


",400 Sewells Rd,Scarborough,ON,M1B 5K8,['416-284-2270']
"

Kingston Medical Center


",1-65 Kingston Rd E,Ajax,ON,L1S 7J4,['905-239-4400']
"

Costco Wholesale


",150 Kingston Rd E,Ajax,ON,L1Z 1E5,['905-619-2070']
"

New Care Pharmacy


",56 Westmore Dr,Etobicoke,ON,M9V 3Z7,['416-740-6565']
"

Ashwini Inc


",1620 Albion Rd,Etobicoke,ON,M9V 4B4,['416-913-2002']
"

Walmart


",270 Kingston Rd E,Ajax,ON,L1Z 1G1,['905-426-6166']
"

Super Rx Pharmacy


",9-1725 Kingston Rd,Pickering,ON,L1V 4L9,['905-683-2229']
"

Rainbow Drug Mart


",3018 Don Mills Rd,North York,ON,M2J 3C1,['647-348-9377']
"

I.D.A. - Jerry's Drug Warehouse


",223 Brock St N,Whitby,ON,L1N 4N6,['905-666-3784']
"

I.D.A. - The Hope Pharmacy


",38 Church St S,Ajax,ON,L1S 6B3,['289-660-0536']
"

Guardian - The Hope Pharmacy


",38 Church St S,Ajax,ON,L1S 6B3,['289-660-0536']
"

CamcOs Distributing Inc


",5334 Yonge St,Toronto,ON,M2N 6V1,['416-510-8890']
"

Whitby Clinic Pharmacy


",200 Brock St N,Whitby,ON,L1N 4H5,['905-666-3328']
"

Methadone Clinic and Pharmacy


",3424 Weston Rd,North York,ON,M9M 2W1,['647-350-5004']
"

Aaa Pharmacy Ltd


",101-2225 Markham Rd,Scarborough,ON,M1B 2W3,['416-291-3601']
"

Galderma Canada


",109 Summerlea Rd,Brampton,ON,L6T 4P6,['905-712-7232']
"

Greencross Pharmacy


",1 Wexford Rd,Brampton,ON,L6Z 2W1,['905-840-7133']
"

Loblaws Pharmacy


",16-145 Kingston Rd E,Ajax,ON,L1S 7J4,['905-686-7879']
"

DRUGStore Pharmacy


",1530 Albion Rd,Etobicoke,ON,M9V 1B4,['416-744-7389']
"

Shoppers Drug Mart


",1530 Albion Rd,Etobicoke,ON,M9V 1B4,['416-741-7711']
"

I.D.A. - Stutt's Pharmacy


",5344 Main St,Orono,ON,L0B 1M0,"['905-983-5009', '1-888-678-8887']"
"

Healthone Pharmacy Inc


",5292 Yonge St,North York,ON,M2N 5P9,['416-590-0768']
"

Lilly H


",68 Avening Dr,Etobicoke,ON,M9V 1Y1,['416-574-5992']
"

Cure Touch Physio & Wellness Centre Inc


",55-8500 Torbram Rd,Brampton,ON,L6T 5C6,['905-861-1066']
"

Kings Cross Pharmacy


",17 Kings Cross Rd,Brampton,ON,L6T 3V5,['905-799-1788']
"

National Pharmacy


",70 Melford Dr,Scarborough,ON,M1B 1Y9,['416-265-9000']
"

Shoppers Drug Mart


",910 Dundas St W,Whitby,ON,L1P 1P7,"['905-430-7550', '1-800-746-7737']"
"

Value Plus Pharmacy


",2677 Kennedy Rd,Toronto,ON,M1T 3H8,['416-754-1400']
"

Shoppers Simply Pharmacy


",1525 Albion rd,Etobicoke,ON,M9V 5G5,['416-746-2000']
"

Good Luck Pharmacy Inc


",4025 Brandon Gate Dr,Mississauga,ON,L4T 3Z9,['905-672-8008']
"

Dana Pharmacy


",817 Dundas St W,Whitby,ON,L1N 2N6,['905-430-6767']
"

Shoppers Drug Mart


",2794 Victoria Park Ave,Toronto,ON,M2J 4A8,['416-491-2277']
"

Pickering First Place Medical


",11-1550 Kingston Rd,Pickering,ON,L1V 1C3,['905-421-0220']
"

Pickering First Place Pharmacy


",11-1550 Kingston Rd,Pickering,ON,L1V 1C3,['905-837-1331']
"

Remedy'sRx - Supercare Pharmacy


",2867 Jane St,North York,ON,M3N 2J5,['416-630-7471']
"

Specialty Rx


",25 Woodbine Downs Blvd,Etobicoke,ON,M9W 6N5,['416-674-0300']
"

Blossom Pharmacy Inc


",2683 Islington Ave,Etobicoke,ON,M9V 2X7,['647-340-4681']
"

Bromed Pharmaceuticals Inc


",92 Church St S,Ajax,ON,L1S 6B4,['905-427-4700']
"

Guardian - Southgate Pharmacy


",13-700 Balmoral Dr,Brampton,ON,L6T 1X2,['905-790-8860']
"

Guardian Drugs Southgate


","11-700 Balmoral Dr, C & 11C",Brampton,ON,L6T 1X2,['905-790-8860']
"

I.D.A. - Pleasant View Pharmacy


",2754 Victoria Park Ave,North York,ON,M2J 4A8,['416-497-1777']
"

Carerx Corporation


",82 Park Rd N,Oshawa,ON,L1J 4L1,['905-576-8299']
"

Pharmed Ltd


",14800 Yonge S St,Oshawa,ON,L1G 1N3,['905-841-2068']
"

Leslie Medical Pharmacy


",4800 Leslie St,North York,ON,M2J 2K9,['416-498-4800']
"

Dr Steven Kahane


",4800 Leslie St,North York,ON,M2J 2K9,['416-222-5439']
"

Yuns Pharmacy


","5177 Yonge St, Main",North York,ON,M2N 5P5,['416-792-0088']
"

The Medicine Shoppe Pharmacy


",5177 Yonge St,Toronto,ON,M2N 5P5,['416-221-9355']
"

Total Health Pharmacy


",1615 Dundas St E,Whitby,ON,L1N 2L1,['905-433-2111']
"

Walmart Supercentre


",1-1899 Brock Rd,Pickering,ON,L1V 4H7,['905-619-9591']
"

Benz Pharmacy


",2 Carwin Cres,Ajax,ON,L1S 6G6,['905-426-6569']
"

Shoppers Drug Mart


",1801 Dundas St E,Whitby,ON,L1N 7C5,"['905-436-1050', '1-800-746-7737']"
"

I.D.A. - East Whitby Pharmacy


",6-1916 Dundas St E,Whitby,ON,L1N 2L6,['905-435-1100']
"

Lakeridge Pharmacy


",456 Vodden St E,Brampton,ON,L6S 5Y7,['905-874-4288']
"

Carerx Corporation


",18 Trent Dr Rr 1,Campbellford,ON,K0L 1L0,['705-632-1252']
"

Costco Wholesale


",130 Ritson Rd North,Oshawa,ON,L1G 0A6,['905-404-4051']
"

Shoppers Drug Mart


",1115 Lodestar Rd,Toronto,ON,M3J 0G9,"['416-633-8778', '1-800-746-7737']"
"

Pharmasave


",850 King St W,Oshawa,ON,L1J 2L5,['905-240-4646']
"

Rexall


",1371 Neilson Rd,Scarborough,ON,M1B 4Z8,['416-286-7255']
"

Lovell Drugs Ltd


",52 1/2 Simcoe N,Oshawa,ON,L1G 4S1,['905-723-2276']
"

North York City Centre Pharmacy


",5 Park Home Ave,North York,ON,M2N 6L4,['416-225-5055']
"

Lovell Drugs LtdHead Ofc Head Ofc


",52 1/2 Simcoe St N,Oshawa,ON,L1G 4S1,['905-723-2276']
"

Guardian - Island Plaza Pharmacy


",540 King St W,Oshawa,ON,L1J 7J1,['905-579-6601']
"

Main Drug Mart


",1450 Kingston Rd,Pickering,ON,L1V 1C1,['905-420-4011']
"

Yorkview Pharmacists


",102-3695 Keele St,North York,ON,M3J 1N2,['416-635-9540']
"

Rexall


",13-10035 Hurontario St,Brampton,ON,L6Z 0E6,['905-840-0822']
"

Shoppers Drug Mart


","25 Peel Centre Dr, Unit 379",Brampton,ON,L6T 3R5,['905-793-4844']
"

Oshawa Discount Pharmacy


",2-44 Simcoe St N,Oshawa,ON,L1G 4S1,['905-433-7999']
"

Shoppers Drug Mart


",20 Warren Ave,Oshawa,ON,L1J 0A1,['905-576-6070']
"

Medical Pharmacies Group Limited


",300 King St W,Oshawa,ON,L1J 2K1,"['905-728-6277', '1-866-859-1056']"
"

Rexall


",5150 Yonge St,North York,ON,M2N 6L8,['416-226-6442']
"

Rexall


",438 King W,Oshawa,ON,L1J 2K9,['905-728-0970']
"

Shoppers Drug Mart


",2329 Brimley Rd,Scarborough,ON,M1S 3L6,['416-291-5562']
"

Pharma Plus Drugmart


",460 King St W,Oshawa,ON,L1J 2K9,['905-404-0317']
"

Westmore Pharmacy


",6620 Finch W,Etobicoke,ON,M9V 5H7,['416-740-0003']
"

Medical Pharmacies


",320 Byron St S,Whitby,ON,L1N 4P8,['905-668-9393']
"

Metro Pharmacy


",70 Thickson S,Whitby,ON,L1N 7T2,['905-668-5334']
"

Islington I.D.A. Pharmacy


",2428 Islington Ave,Toronto,ON,M9W 3X8,['416-741-5553']
"

Jc Pharmacy Ltd


",3685 Keele Street,North York,ON,M3J 3H6,['416-398-3897']
"

Keele Pharmacy Inc


",3685 Keele St,North York,ON,M3J 3H6,['416-398-8887']
"

Loblaws


",5095 Yonge St,North York,ON,M2N 6Z4,['416-512-9430']
"

Loblaw Pharmacy


",5095 Yonge St,North York,ON,M2N 6Z4,['416-512-9436']
"

Shoppers Drug Mart


",5095 Yonge St,North York,ON,M2N 6Z4,['416-226-0313']
"

IDA Islington Mehdi Pharmacy


",2683 Islington Ave,Etobicoke,ON,M9V 2X7,['416-516-7770']
"

Medical Pharmacies


",110-1333 Neilson Rd,Scarborough,ON,M1B 4Y9,['416-282-5705']
"

Price Chopper


",350 Brock St S,Whitby,ON,L1N 4K4,['905-666-1691']
"

Sobeys Pharmacy


",1615 Dundas St E,Whitby,ON,L1N 2L1,['905-435-0804']
"

Shoppers Drug Mart


",368 Brock St S,Whitby,ON,L1N 4K4,"['905-665-1881', '1-800-746-7737']"
"

Loblaw Pharmacy


",60 Quarry Edge Dr,Brampton,ON,L6V 4K2,['905-453-5250']
"

Popular Choice #2 Guardian PHA


",2600 Birchmount Rd,Scarborough,ON,M1T 2M5,['416-291-3131']
"

Popular Choice Pharmacy


","2600 Birchmount Rd, Main",Scarborough,ON,M1T 2M5,['647-247-2620']
"

2574036 Ontario Inc


",202 King St E,Oshawa,ON,L1H 1C4,['905-404-5464']
"

Lovell Drugs Ltd


",8 King St E,Oshawa,ON,L1H 1A9,['905-723-2245']
"

Rexall


","1822 Whites Rd, Unit 28 & 29",Pickering,ON,L1V 4M1,['905-831-7117']
"

I.D.A. - Jane Centre Pharmacy


","2780 Jane St,Unit 105",Toronto,ON,M3N 2J2,['416-742-4333']
"

Metro Pharmacy


",25 Peel Centre Dr,Brampton,ON,L6T 3R5,['905-793-0600']
"

Saver's Drug Mart


",3-97 King St E,Oshawa,ON,L1H 1B8,['905-433-1566']
"

Durham Diabetes Centre


",3-97 King St E,Oshawa,ON,L1H 1B8,['905-433-1566']
"

Saver Drug Mart


",97 King St E,Oshawa,ON,L1H 1B8,['905-433-7700']
"

Prime Pharmaceutical


",299 Rimrock Rd,North York,ON,M3J 3C6,['416-638-5564']
"

Glen Hill Pharmacy


",80 Thickson S,Whitby,ON,L1N 7T2,['905-666-0044']
"

Clinic Medical Pharmacy


",117 King St E,Oshawa,ON,L1H 1B9,"['905-576-9090', '1-888-225-2265']"
"

St Joseph Pharmacy St Joseph Pharmacy


",15 Beaumaris Dr,Brampton,ON,L6T 0J3,['905-793-9155']
"

Oshawa Central Pharmacy Ltd


",32 Simcoe St S,Oshawa,ON,L1H 4G2,['905-728-4839']
"

Creditview I.D.A. Pharmacy


",11210 Creditview Rd,Brampton,ON,L7A 4X3,['905-495-4500']
"

The Medicine Shoppe Pharmacy


",27 Tapscott Rd,Scarborough,ON,M1B 4Y7,['416-292-3396']
"

Remedy'sRx - People’s Choice Drug Mart


",1755 Pickering Pky,Pickering,ON,L1V 6K5,['905-686-4400']
"

Yonge Elmwood Pharmacy


",5025 Yonge St,North York,ON,M2N 5P2,['647-351-2272']
"

Shoppers Drug Mart


",6428 Yonge St,North York,ON,M2M 3X4,['416-223-6250']
"

King Street Pharmacy


",621 King St E,Oshawa,ON,L1H 1G3,['905-720-3700']
"

Walmart Supercentre


",50 Quarry Edge Dr,Brampton,ON,L6V 4K2,['905-874-9340']
"

I.D.A. - Eastview Pharmacy


",573 King St E,Oshawa,ON,L1H 1G3,['905-725-3594']
"

Shop Rite Pharmacy


",573 King St E,Oshawa,ON,L1H 1G3,['905-433-2002']
"

Pickering Medical Pharmacy


",1885 Glenanna Rd,Pickering,ON,L1V 6R6,['905-831-8181']
"

A And B Drugs


",1885 Glenanna Rd,Pickering,ON,L1V 6R6,['905-837-1755']
"

Cmrkumra Medicine Professiona


",110-1885 Glenanna Rd,Pickering,ON,L1V 6R6,['905-492-6900']
"

Remedy'sRx - O.M.C. Pharmacy


",675 King St E,Oshawa,ON,L1H 1G4,['905-723-1161']
"

Guardian - Blue Skies Pharmacy


",2-1298 Kingston Rd,Pickering,ON,L1V 3M9,['905-420-8868']
"

Dixie and Queen Walk In Clinic


",14 Lisa St,Brampton,ON,L6T 4W2,['905-456-2751']
"

Shoppers Drug Mart


",1400 Neilson Rd,Scarborough,ON,M1B 0C2,"['416-754-3130', '1-800-746-7737']"
"

Lormel Pharmacy


",10 Lormel Gate,Brampton,ON,L7A 2K7,['905-846-6800']
"

Shoppers Drug Mart


",10661C Chinguacousy Rd,Brampton,ON,L7A 0N5,"['905-495-7220', '1-800-746-7737']"
"

Medi Plus Pharmacy


",1111 Albion Rd,Etobicoke,ON,M9V 1A9,['416-744-8264']
"

Shoppers Drug Mart


",419 King St W,Oshawa,ON,L1J 2K5,['905-720-0108']
"

Permanent Drug Mart Ltd


",106 Humber College Blvd,Etobicoke,ON,M9V 4E4,['416-745-6212']
"

John Garland Pharmacy


",1701 Martin Grove Rd,Etobicoke,ON,M9V 4N4,['416-743-3535']
"

John Garland Health Centre


",1701 Martin Grove Rd,Etobicoke,ON,M9V 4N4,['416-742-9988']
"

Etobicoke Community Development Centre


",1701 Martin Grove Rd,Etobicoke,ON,M9V 4N4,['416-742-3232']
"

Nam Pharmacy


",6-3585 Keele St,North York,ON,M3J 3H5,['416-630-2140']
"

Main Street Pharmacy


",101-60 Gillingham Dr,Brampton,ON,L6X 0Z9,['905-454-3008']
"

Main Street Pharmacy


",60 Gillingham Dr,Brampton,ON,L6X 4X7,['905-453-2772']
"

E G H Centre Pharmacy


",115 Humber College Blvd,Etobicoke,ON,M9V 0A9,['416-743-0404']
"

Shoppers Drug Mart


",1355 Kingston Rd,Pickering,ON,L1V 1B8,['905-839-4488']
"

Shoppers Dome Canada


",1800 Sheppard Ave E,North York,ON,M2J 5A7,['416-301-4357']
"

Shoppers Drug Mart


",2355 Warden Ave,Scarborough,ON,M1T 1V7,['416-497-5444']
"

Shoppers Drug Mart


",7A-2901 Bayview Ave,Toronto,ON,M2K 1E6,['416-225-3380']
"

I.D.A. - Bay Ridges Pharmacy


","1794 Liverpool Rd,Unit 7",Pickering,ON,L1V 4G7,['905-839-1123']
"

Walters Pharmacy


",140 Simcoe St S,Oshawa,ON,L1H 4G9,['905-240-1616']
"

Loblaws


",2877 Bayview Ave,Toronto,ON,M2K 2S3,['416-733-1783']
"

Loblaw Pharmacy


",2877 Bayview Ave,Toronto,ON,M2K 2S3,['416-733-1350']
"

Qurdice Clinic Pharmacy


",1656 Nash Rd,Courtice,ON,L1E 2Y4,['905-404-9991']
"

Remedy'sRx - Albion Islington Pharmacy


",968 Albion Rd,Etobicoke,ON,M9V 1A7,['416-613-8626']
"

Loblaw Pharmacy


",1792 Liverpool Rd,Pickering,ON,L1V 4G6,['905-831-6310']
"

Walmart Supercentre


",1300 King St E,Oshawa,ON,L1H 8J4,['905-579-1933']
"

Appletree Pharmacy


",5-1345 King St E,Oshawa,ON,L1H 1J3,['905-434-5005']
"

Woodview Medical Centre


",3236 Weston Rd,North York,ON,M9M 2T8,['416-745-0600']
"

Woodview Medical Pharmacy


",3236 Weston Rd,North York,ON,M9M 2T8,['416-742-7307']
"

Loblaws


",1792 Liverpool Rd,Pickering,ON,L1V 1V9,['905-831-6301']
"

City Drug Mart


",110 Brickyard Way,Brampton,ON,L6V 4N1,['905-457-2400']
"

City Drug Mart


",110 Brickyard Way,Brampton,ON,L6V 4N1,['905-453-5600']
"

Main Drug Mart


",1100 Sheppard Ave E,North York,ON,M2K 2W1,['416-221-1700']
"

Price Chopper


",1414 Highway 2,Courtice,ON,L1E 2J5,['905-433-7735']
"

Shoppers Drug Mart


",2075-1800 Sheppard Ave E,Willowdale,ON,M2J 5A7,"['416-491-5567', '1-800-746-7737']"
"

K Yogi Pharmacy


",794 Sheppard Ave E,North York,ON,M2K 1C3,['416-222-7701']
"

St Gabriel A Property


",650 Sheppard Av E,North York,ON,M2K 1B7,['416-551-5831']
"

Shoppers Drug Mart


",4841 Yonge St,Willowdale,ON,M2N 5X2,['416-222-1174']
"

Weston Care Pharmacy


",3214 Weston Rd Main,North York,ON,M9M 2T7,['647-350-8553']
"

Rexall


",227 Vodden St E,Brampton,ON,L6V 1N2,['905-454-5939']
"

Shoppers Drug Mart


",1428 Hwy 2,Courtice,ON,L1E 2J5,['905-433-4723']
"

Shoppers Drug Mart


",1105 Kingston Rd,Pickering,ON,L1V 1B5,['905-420-4247']
"

Ida Drug Mart


",1333 Sheppard Ave E,North York,ON,M2J 1V1,['416-494-8888']
"

Homa Pharmacy


",2698 Jane St,North York,ON,M3L 1S5,['416-749-4662']
"

Lovell Drugs


","1450 Highway 2, (Regional Highway 2)",Courtice,ON,L1E 3C3,['905-721-0011']
"

Rexall


",288 Sheppard Ave E,Willowdale,ON,M2N 3B1,['416-222-5021']
"

Central Pharmacy


",211 Simcoe St S,Oshawa,ON,L1H 4H2,['905-723-1070']
"

Albion Medical Pharmcy


",900 Albion Rd,Etobicoke,ON,M9V 1A5,['416-740-5500']
"

Shoppers Drug Mart


",1-900 Albion Rd,Toronto,ON,M9V 1A5,"['416-741-2430', '1-800-746-7737']"
"

Avan Pharmacy Ltd


",42 Ranchero Dr,Brampton,ON,L7A 3C6,['647-977-3446']
"

Ultima Pharmacy


",311 Sheppard Ave E,North York,ON,M2N 3B3,['647-778-0311']
"

Bayview Village Pharmacy


",102-591 Sheppard Ave E,North York,ON,M2K 0G2,['416-792-8405']
"

Medical Pharmacies Group Inc


",6-50 Venture Dr,Scarborough,ON,M1B 3L6,['647-438-5884']
"

Metro (Supermakets)


",50 Sheppard Av E,North York,ON,M2N 2Z7,['416-222-0242']
"

Inc Postscriptions


",1 De Boers Dr,North York,ON,M3J 0G6,['416-398-4884']
"

Q Pharmacy


",50 Sheppard Ave W,North York,ON,M2N 1M2,['416-733-7999']
"

Pharmasave


",131 Kennedy Rd N,Brampton,ON,L6V 1X9,['905-457-1264']
"

Cumberland Pharmacy


",131 Kennedy Rd N,Brampton,ON,L6V 1X9,['905-230-6200']
"

Roya Boutique Pharmacy


",75 Provost Dr,North York,ON,M2K 0B7,['416-221-4200']
"

Royal Care Pharmacy Inc


",75 Provost Dr,North York,ON,M2K 2X6,['416-221-4200']
"

Rexall


","4789 Yonge St,Unit#2",Toronto,ON,M2N 0G3,['416-733-0161']
"

Mandeep Bharaj Pharmacy Ltd


",598 Sheppard Ave W,North York,ON,M3H 2S1,['416-633-1124']
"

I.D.A. - St. Gabriel Medical Pharmacy


",101-650 Sheppard Ave E,Toronto,ON,M2K 3E4,['416-222-0007']
"

Glendale Pharmacy


",1101 Kingston Rd,Pickering,ON,L1V 1B5,['905-420-2211']
"

Bonis Birchmount Pharmacy


",5 Bonis Ave,Scarborough,ON,M1T 2T9,['416-335-8877']
"

I.D.A. - New Canyon Pharmacy


",564 Sheppard Ave W,North York,ON,M3H 2R9,['416-633-6599']
"

Shoppers Drug Mart


",598 Sheppard Ave W,North York,ON,M3H 2S1,"['416-633-1122', '1-800-746-7737']"
"

I.D.A. - M & D Sheppard Pharmacy


",2-872 Sheppard Ave W,North York,ON,M3H 5V5,['416-633-6800']
"

Health Care Pharmacy


",2026 Sheppard Ave E,North York,ON,M2J 5B3,['416-496-8862']
"

Care Pharmacy Comp


",2026 Sheppard Ave E,North York,ON,M2J 5B3,['416-916-7252']
"

Loblaw Pharmacy


",481 Gibb St,Oshawa,ON,L1J 1Z4,['905-743-0049']
"

Total Health Pharmacy


",7330 Goreway Dr,Mississauga,ON,L4T 4J2,['905-671-3784']
"

Emery Village Pharmacy


",C 6-39 Abraham Welsh Rd,Toronto,ON,M9M 0G6,['416-792-3477']
"

I.D.A. - Wellcare Pharmacy


",3352 Keele St,North York,ON,M3J 1L5,['416-630-4513']
"

Prescription Pharmacy-Lovell Drugs Ltd


",11 Gibb St,Oshawa,ON,L1H 2J9,['905-432-2610']
"

Donya's Pharmacy


",801 Sheppard Ave W,North York,ON,M3H 0A8,['416-398-1112']
"

Taro Pharmaceuticals Industries Inc


",130 East Dr,Brampton,ON,L6T 1C1,"['905-791-0465', '1-800-268-1975']"
"

Walmart Supercentre


",7333 Goreway Dr,Mississauga,ON,L4T 2T8,"['905-612-1366', '1-800-328-0402']"
"

Guardian - Storybrook Pharmacy & Medical Clinic


",611 Wanless Dr,Brampton,ON,L7A 3Y6,['905-840-9994']
"

I.D.A. - Legacy Pharmacy


","2035 Sheppard Ave E,Unit 5",North York,ON,M2J 1W6,['416-477-1321']
"

Mabuhay Pharmacy


",935 Sheppard Ave W,North York,ON,M3H 2T7,['647-352-2003']
"

Shoppers Drug Mart


",1780A Markham Rd,Scarborough,ON,M1B 2W2,"['416-412-1780', '1-800-746-7737']"
"

Walmart


",3850 Sheppard Ave E,Scarborough,ON,M1T 3L3,['416-293-2429']
"

Health Drug Mart


",105 Parkway Forest Dr,Toronto,ON,Unavailable,['416-491-1414']
"

Health Drug Mart


",70 Forest Manor Rd,North York,ON,M2J 0A9,['416-496-8282']
"

I.D.A. - Lily Pharmacy


",9-2721 Jane St,North York,ON,M3L 1S3,['416-748-3572']
"

Shoppers Drug Mart


",1645 Highway 2 Building B,Courtice,ON,L1E 2R7,['905-438-8383']
"

Taro Phramaceuticals Industries Inc


",132 East Dr,Brampton,ON,L6T 1C1,['905-793-8529']
"

Trinity Drug Mart


",25 Glen Watford Dr,Scarborough,ON,M1S 2B7,['416-297-6008']
"

Wilson Heights Pharmacy


","529 Wilson Heights Blvd, Main",North York,ON,M3H 2V7,['416-901-0211']
"

Shoppers Drug Mart


",2330 Kennedy Rd,Scarborough,ON,M1T 3H1,['416-299-3532']
"

Rexall


",3555 Don Mills Rd,Willowdale,ON,M2H 3N3,['416-494-8101']
"

Doctor's Pharmacy


",15 Glen Watford Dr,Scarborough,ON,M1S 2B7,['647-846-8649']
"

DRUGStore Pharmacy


",295 Queen St E,Brampton,ON,L6W 3R1,['905-452-9011']
"

Shoppers Drug Mart


",7205 Goreway Dr,Mississauga,ON,L4T 2T9,['905-677-7181']
"

Royal Medical Kennedy


",2347 Kennedy Rd,Scarborough,ON,M1T 3T8,['647-727-2455']
"

Pharma Medica Research


",4770 Sheppard Ave E,Scarborough,ON,M1S 3V6,['416-759-5554']
"

Integration Pharmacy


",2-720 Sheppard Ave,Pickering,ON,L1V 1G5,['905-492-8100']
"

Kipling Heights Pharmacy


",2291 Kipling Ave,Etobicoke,ON,M9W 4L6,['416-551-7290']
"

Kipling Heights Pharmacy


",2291 Kipling Ave,Etobicoke,ON,M9W 4L6,['647-349-4005']
"

Food & Drug Basics


",280 Harwood Ave S,Ajax,ON,L1S 2J1,['905-428-9292']
"

Sav-On Drugmart


",2528 Jane St,North York,ON,M3L 1S1,['416-742-6711']
"

Price Chopper


",2699 Jane Street,Toronto,ON,M3L 1S3,['416-746-7898']
"

Remedy'sRx Shepherd Village Pharmacy


",3760 Sheppard Ave E,Toronto,ON,M1T 3K9,['416-609-1999']
"

Sheppard Warden Pharmacy


",3410 Sheppard Ave E,Scarborough,ON,M1T 3K4,['416-297-6677']
"

Pharma Medica


",4770 Sheppard Ave E,Scarborough,ON,M1S 3V6,['416-759-2869']
"

Austin's Drug Mart


",4235 Sheppard Ave E,Scarborough,ON,M1S 1T7,['416-293-4191']
"

Agincourt Health Pharmacy


",4023 Sheppard Ave E,Scarborough,ON,M1S 1S7,['647-439-2466']
"

Agincourt Health Pharmacy


",4023 Sheppard Ave E,Scarborough,ON,M1S 1S7,['416-916-8906']
"

Agincourt Health Pharmacy


",4023 Sheppard Ave E,Scarborough,ON,M1S 1S7,['647-439-2471']
"

Pharma Medica Research


",4770 Sheppard E,Scarborough,ON,M1S 3V6,['416-291-2902']
"

Pharma-Cita


",224-4810 Sheppard Ave E,Scarborough,ON,M1S 4N6,['416-690-9922']
"

Pharmtrust Drug Mart


",1935 Sheppard Ave W,North York,ON,M3L 1Y8,['416-743-3351']
"

Drug Basics


",5085 Sheppard Ave E,Scarborough,ON,M1S 4N8,['416-293-0741']
"

Food & Drug Basics


",5085 Sheppard Ave E,Scarborough,ON,M1S 4N8,['416-293-0741']
"

Markham Corners Pharmacy


",5113 Sheppard Ave E,Scarborough,ON,M1S 4N8,['647-349-9393']
"

I.D.A. - Agincourt Pharmacy


",1-4245 Sheppard Ave E,Scarborough,ON,M1S 1T6,['416-293-4101']
"

Sheppard Community Guardian Pharmacy


",109-1265 Morningside Ave,Scarborough,ON,M1B 3V9,['416-287-9450']
"

Pharma Plus Store Locations East Prescriptions


",3809 Sheppard Ave E,Scarborough,ON,M1T 3L5,['416-291-2421']
"

Fruit Of The Vine Healthcare Inc


",4245 Sheppard Ave E,Scarborough,ON,M1S 1T6,['416-293-4101']
"

Shoppers Drug Mart


",314 Harwood Ave S,Ajax,ON,L1S 2J1,['905-683-5222']
"

Aim Pharmacy


",312 Queen St E,Brampton,ON,L6V 1C2,['905-450-0150']
"

Health-Rite Pharmacy


",15-75 Bayly St W,Ajax,ON,L1S 7L7,['289-460-2007']
"

Sheppard Pharmacy


",4465 Sheppard Ave E,Scarborough,ON,M1S 5H9,['416-293-9333']
"

Rexall


",3607 Sheppard Ave E,Scarborough,ON,M1T 3K8,['416-291-0402']
"

Pharmasave


",1235 Bayly St,Pickering,ON,L1W 1L7,['905-492-6161']
"

Warden Medical Pharmacy


",3319 Sheppard Ave E,Scarborough,ON,M1T 3K2,['416-491-2999']
"

Warden Family Practice & Walk-In


",3319 Sheppard Ave E,Scarborough,ON,M1T 3K2,['416-491-2999']
"

Fars Medical Centre


",103-3251 Sheppard Ave E,Toronto,ON,M1T 3W5,['416-490-8787']
"

Agincourt Drugmart Inc


",2020 Brimley Rd,Scarborough,ON,M1S 4R7,['416-293-2436']
"

Drug Basics


",2452 Sheppard Ave E,North York,ON,M2J 1X1,['416-493-5552']
"

Food & Drug Basics


",2452 Sheppard Ave E,North York,ON,M2J 1X1,['416-493-5552']
"

Pharmacy 2 (Kipling)Fax Line


",Unavailable,Unavailable,ON,M9W 4L6,[]
"

Green Cross Pharmacy


",2920 Sheppard Ave E,Scarborough,ON,M1T 3J4,['416-490-6522']
"

Shoppers Drug Mart


",2901 Sheppard Ave E,Scarborough,ON,M1T 3J3,['416-491-4444']
"

The Medicine Shoppe Pharmacy


",3005 Sheppard Ave E,Scarborough,ON,M1T 3J5,['416-492-9262']
"

Shoppers Drug Mart


",34A Avondale Blvd,Brampton,ON,L6T 1H3,['905-793-4444']
"

I.D.A. - Lapsley Pharmacy


",27 Lapsley Rd,Scarborough,ON,M1B 1K1,['416-291-3773']
"

Queen's Urgent Care


",20-263 Queen St E,Brampton,ON,L6W 4K6,['905-497-2273']
"

Aim Pharmacy


",312 Queen St E,Brampton,ON,L6V 1C2,['289-752-3858']
"

Warden Medical Pharmacy


",3321 Sheppard Ave E,Scarborough,ON,M1T 3K2,['416-491-7770']
"

Appletree Medical Pharmacy


",680 Rexdale Blvd,Etobicoke,ON,M9W 0B5,['416-360-8326']
"

Centric Health


",4 Lansing Sq,North York,ON,M2J 5A2,['416-496-6166']
"

Lifemark Health Corp


",4 Lansing Sq,North York,ON,M2J 5A2,['416-490-0506']
"

Doctors Urgent Care Center & Pharmacy


",1145 Morningside Avenue,Scarborough,ON,M1B 0A7,['647-352-3621']
"

People’s Choice RemedysRx


","1145 Morningside Ave,16",Toronto,ON,M1B 0A7,['647-748-7337']
"

Sun Rx Pharmacy


",20-263 Queen St E,Brampton,ON,L6W 4K6,['905-497-2273']
"

Just Assessments


",4 Lansing Sq,Toronto,ON,M2J 5A2,['416-490-8484']
"

Centric Health


",4 Lansing Sq,North York,ON,M2J 5A2,['416-499-3334']
"

Centric Health


",4 Lansing Sq,North York,ON,M2J 5A2,"['416-499-3520', '1-866-490-8484']"
"

Polycare Pharmacy


",68 Bramalea Rd,Brampton,ON,L6T 0H2,['905-792-1688']
"

PharmaChoice


",1A & 2A-15 Fandor Way,Brampton,ON,L7A 2G6,[]
"

Fandor Pharmacy


",15 Fandor Way,Brampton,ON,L7A 4S2,['905-840-0057']
"

Rainbow I.D.A. Pharmacy


",3018 Don Mills Rd,North York,ON,M2J 3C1,['416-491-3570']
"

Premium Canadian Pharmacy


",200-4256 Bathurst St,North York,ON,M3H 5Y8,['647-351-2500']
"

Queen Hansen Pharmacy


",284 Queen St E,Brampton,ON,L6V 1C2,['905-455-6464']
"

Q H Pharmacy


",284 Queen St E,Brampton,ON,L6V 1C2,['905-782-8384']
"

I.D.A. - Vodden MD Pharmacy


",7-389 Main St N,Brampton,ON,L6X 3P1,['902-451-5905']
"

Remedy'sRx - Dhaliwal Pharmacy


",104-7125 Goreway Dr,Mississauga,ON,L4T 4H3,['905-676-8888']
"

Vodden MD IDA Pharmacy


",389 Main St N,Brampton,ON,L6X 3P1,['905-451-5900']
"

Brampton Medical Pharmacy


",389 Main St N,Brampton,ON,L6X 3P1,['905-456-3008']
"

DRUGStore Pharmacy


",330 Queens Plate Dr,Etobicoke,ON,M9W 7J7,['416-745-2825']
"

Walmart Supercentre


",799 Milner Ave,Scarborough,ON,M1B 3C3,['416-281-4643']
"

Walmart Supercentre


",680 Laval Dr,Oshawa,ON,L1J 0B5,['905-404-1843']
"

Pharma Centre


",857 Milner Ave,Toronto,ON,M1B 5N6,['416-287-1957']
"

Trimd Pharmacy


",7500 Bath Rd,Mississauga,ON,L4T 1L2,['905-612-8777']
"

Shoppers Drug Mart


",366 Main St N,Brampton,ON,L6V 1P8,['905-456-0167']
"

Victoria Commons Pharmacy


",6-2555 Victoria Park Ave,Scarborough,ON,M1T 1A3,['416-551-7237']
"

Shoppers Drug Mart


",650 Kingston Rd,Pickering,ON,L1V 3N7,['905-421-0424']
"

Remedy'sRx - Peace Health


",101-36 Vodden St E,Brampton,ON,L6V 4H4,['905-451-1114']
"

I.D.A. - Cure Pharmacy


",108-1585 Markham Rd,Scarborough,ON,M1B 2W1,['416-533-4220']
"

Hillside Guardian Pharmacy


",303 Hillside Ave,Oshawa,ON,L1J 1T4,['905-571-2000']
"

Everest Pharmacy


",239 Queen St E,Brampton,ON,L6W 2B6,['905-457-3792']
"

Seamless Care Pharmacy


",15 Grand Marshall Dr,Scarborough,ON,M1B 5N6,['1-877-666-9502']
"

I.D.A. - Rexdale Medical Pharmacy


",11-680 Rexdale Blvd,Etobicoke,ON,M9W 0B5,['416-213-1318']
"

Thistle Pharmacy


",332 Main St N,Brampton,ON,L6V 1P8,['905-453-8141']
"

Pendale Pharmacy


",831 Bovaird Dr W,Brampton,ON,L6X 0T9,['905-450-3332']
"

Lovell Drugs Ltd


",617 Victoria St W,Whitby,ON,L1N 0E4,['905-668-3394']
"

Lovell Drugs Ltd


",617 Victoria St W,Whitby,ON,L1N 0E4,['905-665-0738']
"

Medical Pharmacy West


",221 Milner Ave,Scarborough,ON,M1S 4P4,['647-351-0304']
"

Shoppers Simply Pharmacy


",3530 Derry Rd E,Mississauga,ON,L4T 4E3,['905-673-5833']
"

First-Place Pharmacy


",2975 Drew Rd,Mississauga,ON,L4T 0A1,['289-814-4406']
"

Pan Drugs


",30 Dean Park Rd,Scarborough,ON,M1B 3H1,['416-724-1892']
"

Drug Store Pharmacy


",1455 McCowan Rd,Scarborough,ON,M1S 5K7,['416-609-9020']
"

Mg Olde Town Medical Centre


",955 Bovaird Dr W,Brampton,ON,L6X 5K7,['905-452-6333']
"

Kennedy Medical Plex Pharmacy I.D.A.


",7-2 Kennedy Rd S,Brampton,ON,L6W 2W1,['905-455-2929']
"

Quick-Med Pharmacy


",3427 Derry Rd E,Mississauga,ON,L4T 4H7,['905-677-1138']
"

Vodden Medical Arts Pharmacy


",320 Main St N,Brampton,ON,L6V 4A3,['905-455-3381']
"

I.D.A. - Pan Drugs Pharmacy


",30 Dean Park Rd,Scarborough,ON,M1B 3H1,['416-281-0092']
"

Novopharm Ltd


",30 Novopharm Crt,Scarborough,ON,M1B 2K9,['416-291-8888']
"

Prince Theodore Group of Pharmacies


",3427 Derry Rd E,Mississauga,ON,L4T 4H7,['905-677-5225']
"

Shoppers Drug Mart


",1 Kennedy Rd S,Brampton,ON,L6W 3C9,"['905-454-4464', '1-800-746-7737']"
"

Astra Care Pharmacy


",300 Main St N,Brampton,ON,L6V 4H6,['905-451-7333']
"

The Medicine Shoppe Pharmacy


",4119 Bathurst St,Toronto,ON,M3H 3P4,['416-398-9898']
"

Remedy'sRx - Queen Best Pharmacy


",215 Queen St E,Brampton,ON,L6W 0A9,['905-457-7700']
"

Forest Hill Guardian Pharmacy


",393 Spadina Rd,Scarborough,ON,M1B 2K7,['416-483-1157']
"

Riso Pharma Tech


",220 Duncan Mill Rd,North York,ON,M3B 3J5,['647-748-7476']
"

Ucb Pharma Inc


",7510 Bren Rd,Mississauga,ON,L4T 4H1,['905-671-2712']
"

Shoppers Drug Mart


",570 Longworth Ave,Bowmanville,ON,L1C 0H4,['905-697-0818']
"

Pharma Support


",6 Legacy Lane,Brampton,ON,L6X 4T4,['905-796-9344']
"

Peel Memorial Pharmacy


",2-169 Queen St E,Brampton,ON,L6W 2B2,['905-497-4771']
"

DRUGStore Pharmacy


",35 Worthington Ave,Brampton,ON,L7A 2Y7,['905-495-8123']
"

Guardian - Pharma Center Pharmacy


",105-164 Queen St E,Brampton,ON,L6V 1B4,['905-454-3200']
"

Sina Pharmacy


",37 The Links Rd,North York,ON,M2P 1T7,['416-223-6991']
"

Malton Pharmacy


",6870 Goreway Dr,Mississauga,ON,L4V 1P1,['905-678-6870']
"

York Downs Pharmacy


",3910 Bathurst St,North York,ON,M3H 5Z3,['416-633-2244']
"

S D G Pharmaceutical Ltd


",3910 Bathurst St,North York,ON,M3H 5Z3,['416-630-0427']
"

Liverpool Pharmacy


",725 Krosno Blvd,Pickering,ON,L1W 1G4,['905-839-4300']
"

Medical Place Pharmacy


",100-601 Harwood Ave S,Ajax,ON,L1S 2J5,['905-619-9699']
"

Prince Theodore Group of Pharmacies


",100-601 Harwood Ave S,Ajax,ON,L1S 2J5,['905-427-2484']
"

Harwood Pharmacy


",580 Harwood Ave S,Ajax,ON,L1S 2J4,['905-686-6886']
"

Geriatrx Pharmacy


",53 The Links Rd,North York,ON,M2P 1T7,['416-221-7755']
"

Geriatrx Pharmacy Inc


",53 The Links Rd,Toronto,ON,M2P 1T7,['416-221-1054']
"

Parkway Pharmacy


",3-45 Bloor St E,Oshawa,ON,L1H 3L9,['905-443-1000']
"

Medi-Place Health Care Pharmacy


",178 John St,Brampton,ON,L6W 2A4,['905-451-3500']
"

Remedy'sRx - Mesa Gates Pharmacy


",16-300 Kingston Rd,Pickering,ON,L1V 6Z9,['905-509-4599']
"

Community Choice Pharmacy-Rexdale


",8 Taber Rd,Etobicoke,ON,M9W 3A4,['416-746-5584']
"

Kipling Pharmacy


",5-2141 Kipling Ave,Etobicoke,ON,M9W 4K8,['416-743-8333']
"

Medical Pharmacies Group Inc


",590 Granite Crt,Pickering,ON,L1W 3X6,"['905-420-7335', '1-866-689-3169']"
"

Medisystem Technologies Inc


",75 Lesmill Rd,North York,ON,M3B 2T8,['416-441-0549']
"

Medisystems Pharmacy


",75 Lesmill Rd,North York,ON,M3B 2T8,['905-729-1087']
"

Medisystems Pharmacy


",75 Lesmill Rd,North York,ON,M3B 2T8,['705-446-9973']
"

Medisystems Pharmacy


",75 Lesmill Rd,North York,ON,M3B 2T8,['705-549-9012']
"

Lovell Drugs Ltd


",600 Grandview St S,Oshawa,ON,L1H 8P4,['905-432-8460']
"

MediSystem Pharmacy


",75 Lesmill Rd,North York,ON,M3B 2T8,['416-441-2293']
"

Loblaw Pharmacy


",1755 Brimley Rd,Scarborough,ON,M1P 0A3,['416-279-1749']
"

Guardian - Corporate Pharmacy


",78 Corporate Dr,Toronto,ON,M1H 3G4,['416-279-0828']
"

Fairport Pharmacy


",750 Oklahoma Dr,Pickering,ON,L1W 3G9,['905-839-4461']
"

Pharma Trust Pharmacy Ltd


",777 SimcOe St S,Oshawa,ON,L1H 4K5,['905-721-9544']
"

Dosh Ii 10557


",777 SimcOe St S,Oshawa,ON,L1H 4K5,['905-723-0777']
"

Kennedy Road Pharmacy


",4-2 Antrim Cres,Scarborough,ON,M1P 2N3,['416-298-2222']
"

Airport Derry Pharmacy


",7064 Airport Rd,Mississauga,ON,L4T 2G8,['905-956-8800']
"

Shoppers Drug Mart


",3874 Bathurst St.,Toronto,ON,M3H 3N3,['416-635-5601']
"

Discovery Bay Pharmacy


",23A-570 Westney Rd S,Ajax,ON,L1S 6V6,['905-428-8322']
"

Excellent Care Medical Centre & Pharmacy


",184 Clarence St,Brampton,ON,L6W 1T3,['905-230-6300']
"

Pharmasave


",100 Pertosa Dr,Brampton,ON,L6X 0H9,['905-452-7686']
"

Westbram Pharmacy


",100 PertosaDr,Brampton,ON,L6X 0H9,['905-452-7686']
"

Progress Place Pharmacy


",885 Progress Ave,Scarborough,ON,M1H 3G3,['416-439-2828']
"

Pharma Plus Drugmarts Ltd


",63 John St,Brampton,ON,L6W 1Z2,['905-457-2955']
"

Excellent Care


",184 Clarence St,Brampton,ON,L6W 1T3,['905-230-6300']
"

Alan Kwong


",410-23 Lesmill Rd,North York,ON,M3B 3P6,"['416-385-3922', '1-855-937-2497']"
"

Hoopers Pharmacy


",31 Main St N,Brampton,ON,L6X 1M8,['905-451-2453']
"

Guardian - Nathan's Pharmacy


",147 Clarence St,Brampton,ON,L6W 1T2,['905-497-6500']
"

Shoppers Drug Mart


",1859 Leslie St,Toronto,ON,M3B 2M1,['416-383-9599']
"

Remedy'sRx - Clarence Pharmacy


",23-83 Kennedy Rd S,Brampton,ON,L6W 3P3,['905-874-1377']
"

Custom Care


",120 Redwater Dr,Etobicoke,ON,M9W 2A2,['416-742-9797']
"

Metro Pharmacy


",16 William Kitchen Rd,Scarborough,ON,M1P 2B7,['416-321-0500']
"

Neighbourhood Pharmacy


",7-15 Rosswell Dr,Courtice,ON,L1E 0E2,['905-240-6080']
"

Downsview Park Pharmacy


",2830 Keele St,North York,ON,M3M 3E5,['416-638-1200']
"

Pharmaniche Technologies


",670 Progress Ave,Scarborough,ON,M1H 3A4,['647-748-4833']
"

Walmart


",300 Borough Dr,Scarborough,ON,M1P 4P5,['416-290-1926']
"

Shoppers Drug Mart


",300 Borough Dr,Scarborough,ON,M1P 4P5,"['416-296-5056', '1-800-746-7737']"
"

Advance Pharmacy Inc


",4675 Steeles Ave E,Scarborough,ON,M1V 0B7,['416-609-2222']
"

Elyon Pharmacy Ltd O A Pr


",9 Progress Ave,Scarborough,ON,M1P 5A4,['416-293-4924']
"

Tuxedo Drug Mart


",42 Tuxedo Crt,Scarborough,ON,M1G 3S3,['416-431-3456']
"

Queen Street Pharmacy


",79 Queen St W,Brampton,ON,L6Y 1M2,['289-752-7993']
"

Shoppers Drug Mart


",1022-91 Rylander Blvd,Scarborough,ON,M1B 5M5,['416-724-5344']
"

Ramana Pharmacy Services


",3804-50 Brian Harrison Way,Scarborough,ON,M1P 5J4,['416-551-5871']
"

Domino's Pizza


",1890 Kennedy Rd,Scarborough,ON,M1S 1V2,['416-335-7373']
"

Hy And Zels Drug


",156 Glidden Rd,Brampton,ON,L6W 3L2,['905-450-5402']
"

Pharmasave


",1939 Kennedy Road,Scarborough,ON,M1P 2L9,['416-299-9131']
